{"type": "FeatureCollection", "features": [{"type": "Feature", "properties": {"name": "Bourgogne-Franche-Comt\u00e9"}, "geometry": {"type": "MultiPolygon", "coordinates": [[[[7.054885879644933, 47.390388713147495], [6.999489534111373, 47.39708463094034], [6.9868968053684855, 47.4029222336593], [7.0098803761572706, 47.39924704644183], [7.0333142835988, 47.40310625922417], [7.025862270254019, 47.39888437999314], [7.057284244182774, 47.43480897568256], [7.066652730334334, 47.51969503306958], [7.073164761301946, 47.5133510324549], [7.089504176623409, 47.435144488845594], [7.04648548437678, 47.366184342838125], [7.011932029136684, 47.345095984063185], [6.978210792864099, 47.33224706749002], [6.884587212898255, 47.34305426702391], [6.839690790833323, 47.413287580870005], [6.817991335705636, 47.46054870331608], [6.814770659382939, 47.51149530025267], [6.823426672280527, 47.52439636878993], [6.834375123302368, 47.48112099625115], [6.85087036259868, 47.46272019041934], [6.869255358793297, 47.45480284342637], [6.879150867786145, 47.4529612500185], [6.857406153653482, 47.4482606544672], [6.790364780909031, 47.45374683039316], [6.71132960692587, 47.533987800710456], [6.710973972761362, 47.58038843083504], [6.717468706334461, 47.542349652487346], [6.733062749181919, 47.51687397671033], [6.728346182580137, 47.51985248069944], [6.711001859450844, 47.54069472895554], [6.697042361693883, 47.56663420706311], [6.6883647577730665, 47.59942457207599], [6.688465599440328, 47.63710732038389], [6.690514417056105, 47.6268080972549], [6.665323183913469, 47.684170734280265], [6.659082622009042, 47.72314370585679], [6.673549792960356, 47.79301948571643], [6.711130045750099, 47.84763186730768], [6.824213551662247, 47.92346654387934], [6.869213113837277, 47.91736996587088], [6.939918385441164, 47.88942281981561], [6.961373010002536, 47.84323172771413], [6.942510706221558, 47.87098847707222], [6.932628339596267, 47.87769454775089], [7.069715258594397, 47.82447274020981], [7.101210741983497, 47.80405381838716], [7.132257498163721, 47.772891205923145], [7.151823961204271, 47.729635386092916], [7.158634572818171, 47.68653751197246], [7.1584520121878645, 47.66673905324048], [7.15602768582079, 47.64724298786405], [7.150288255350406, 47.626451826637016], [7.141823612058073, 47.60693328853585], [7.131054124384938, 47.589221650118645], [7.117318166678392, 47.5718710049193], [7.102470892476355, 47.55854113631575], [7.1149437086243985, 47.578459779118106], [7.122171607798514, 47.608261384564436], [7.114317002968391, 47.64770283910721], [7.088225791281731, 47.6802015261206], [7.058673083555334, 47.69359444297666], [7.042911788637898, 47.69571099181344], [7.058084707885171, 47.69661995281068], [7.090182505803301, 47.69264437148057], [7.127083348309998, 47.67901086878295], [7.201504318699924, 47.62369142298183], [7.22074871866247, 47.60301904976109], [7.239119794261362, 47.574748483167745], [7.2483709761155355, 47.54605976366135], [7.2513056619796945, 47.525161875302175], [7.250877114948203, 47.50339534677047], [7.246177569597908, 47.478738136994885], [7.2387909864402324, 47.46073212730568], [7.23588865561881, 47.45276772215519], [7.194495814767343, 47.402434191468444], [7.116509703044389, 47.39072751803961], [7.101920358912442, 47.39621518448644], [7.102591121605799, 47.396281496824805], [7.054885879644933, 47.390388713147495]]], [[[7.022959985082124, 47.37226159990677], [6.999154838665758, 47.3566061574326], [7.004944334450152, 47.34657004714064], [6.951322061068466, 47.31062688443439], [6.9566487765478655, 47.31386588861669], [6.958365462599304, 47.31723651219261], [6.947218939740977, 47.4133852201129], [6.966563743242027, 47.460294579391174], [7.013456847700495, 47.467694455844644], [7.069378271546533, 47.4462133604895], [7.095358571670915, 47.429508724055125], [7.143877398288998, 47.34971324681657], [7.099652022555474, 47.25193673530235], [7.056422984001551, 47.22981439950438], [7.044740397741179, 47.22747024653838], [7.059726420268723, 47.23471826409665], [7.040147721305312, 47.218357944598246], [7.003840397884352, 47.20601382026979], [7.011541696300471, 47.2097254625502], [7.0393550391733966, 47.231538295317165], [7.051965277587403, 47.262959163080076], [7.045259590054574, 47.19965953072616], [6.939559326743598, 47.12541559258241], [6.925846656941895, 47.11627445142152], [6.904965249610885, 47.09325924549463], [6.891425855220838, 47.08355190217601], [6.813536122903522, 47.036008435237285], [6.825446639612422, 47.061942742534875], [6.829687832387653, 47.04916784735139], [6.7696849376052635, 47.00639418895244], [6.795458254472422, 47.023360931620736], [6.783995105745336, 47.01060182219151], [6.73954246051854, 46.99316165500556], [6.756437735030676, 47.00381802726545], [6.776058671781265, 47.05599504222734], [6.787659928879524, 47.03297314410481], [6.724301340006912, 46.94046992828259], [6.632620216593388, 46.89246837110133], [6.520157847010528, 46.86770075796654], [6.5125067916417265, 46.87262427164732], [6.527742491453748, 46.910454991964414], [6.517601425999116, 46.95153797776754], [6.534480837125927, 46.927698309130335], [6.548089458570482, 46.8797074785145], [6.541578672084897, 46.82591079125872], [6.5294788438357605, 46.80103868664832], [6.5235487021847565, 46.79143291113948], [6.5187866617804255, 46.78610577658472], [6.511798077028683, 46.77088271389645], [6.516744029159007, 46.8106694861449], [6.500083006232881, 46.85627618747289], [6.489507486919751, 46.86816844814509], [6.521596896443771, 46.83160266995182], [6.5309546823352544, 46.7488767206072], [6.509072947885955, 46.70064829729239], [6.473776555037031, 46.66814620893386], [6.447385113928728, 46.654046917433774], [6.42255876861062, 46.64607112227542], [6.403732410425006, 46.63023464111551], [6.380857474493927, 46.617087802547985], [6.310868187090979, 46.590829392111424], [6.192264972713629, 46.51591764341553], [6.213879097910981, 46.55368065854682], [6.205576859011478, 46.6244508573547], [6.227335857113957, 46.51269731753692], [6.079038470209659, 46.470844200355835], [6.031255390155622, 46.49568847450247], [5.978987238829306, 46.54066742066553], [5.954820808133182, 46.630723456597465], [5.984371816136562, 46.6902035362594], [6.005818712747467, 46.710702294156356], [6.019308730020263, 46.713353085352715], [5.997423881861213, 46.65855481399841], [6.006366838763011, 46.61475821462164], [5.9956687034695335, 46.62689195785071], [5.980852666838187, 46.682547805267504], [5.99841443036881, 46.743780823988736], [6.030582191213936, 46.77755648961564], [6.132482774969573, 46.83181982679853], [6.107310055937188, 46.75488414365046], [6.038301722215896, 46.7567247876518], [6.053539551100966, 46.75207967855828], [6.037197021453674, 46.751282453587486], [6.0020050910855245, 46.75843092288543], [5.964584586996473, 46.77831784715269], [5.92225979367216, 46.82132899450813], [5.8984179441324205, 46.86463456164232], [5.893025849808012, 46.91135268781379], [5.896560541560949, 46.901156753731776], [5.896840137891303, 46.9004260948654], [5.897518654012023, 46.8999898800843], [5.90454683892705, 46.895601247856895], [5.890744052769503, 46.899954846272465], [5.798350054793387, 46.9168839146839], [5.762284675315378, 46.940846834041274], [5.791129761779042, 46.932249302704236], [5.832986211120748, 46.937756055036445], [5.817310280745868, 46.92559224994227], [5.772644189311101, 46.91419350777516], [5.727836001244734, 46.92006680548082], [5.685712911847465, 46.9441939925212], [5.653285003736673, 46.992501906142415], [5.650997253034329, 47.058725098123475], [5.680591628838815, 47.10997789134296], [5.7053263148901365, 47.12870123081409], [5.692195460295931, 47.1133181753153], [5.678976367519333, 47.07533594477689], [5.6754227301693865, 47.088895194983536], [5.69253512232336, 47.14396437913079], [5.720903623268225, 47.175376967718805], [5.733400071465102, 47.18357474444271], [5.726631625310305, 47.17660556761586], [5.721969810085184, 47.1688238734685], [5.716739771978762, 47.15265510160095], [5.715952727416589, 47.13172414342535], [5.724333898917404, 47.10520464380805], [5.719231098365964, 47.111663979164646], [5.661661219268321, 47.14056822788396], [5.6325509223021895, 47.17570839400091], [5.621352966035842, 47.20333102596349], [5.609299897486317, 47.30953811363674], [5.713524200067291, 47.362721535158165], [5.904697539176755, 47.440476336149494], [5.945485526745318, 47.44358426764337], [5.985396278005218, 47.435549982879564], [5.984157601412478, 47.43558731638006], [6.036240484766637, 47.44785566734465], [6.028460317884005, 47.44374659397721], [6.054305738770061, 47.46865273647089], [6.098875760032393, 47.49095181889967], [6.148606533703697, 47.49225294704207], [6.138476382632612, 47.49036058317881], [6.12411058184152, 47.4841859892152], [6.11054608468169, 47.4741278901239], [6.0975198880420205, 47.45836088057971], [6.104672373010635, 47.47333688104663], [6.125372119021601, 47.49714513892717], [6.153945016927872, 47.517199082138774], [6.185070965115734, 47.52890101237807], [6.225073603745833, 47.5317137804772], [6.251337764804505, 47.52728594940157], [6.2262877633712925, 47.522323295095255], [6.202881900946409, 47.50727882219684], [6.2351876443053476, 47.561161984179215], [6.2773155160575245, 47.5911015682706], [6.315055262903017, 47.60405764240971], [6.421657402961524, 47.617645213513256], [6.464600030078224, 47.61370598177072], [6.501994026913439, 47.598120018718774], [6.519139360795042, 47.584702670533844], [6.482688737142838, 47.595104134349924], [6.433951225312235, 47.58503589713785], [6.444335416086603, 47.594440553272555], [6.50038581610609, 47.610160969436386], [6.538198563324269, 47.58918894405226], [6.491100751883982, 47.56621025088883], [6.509582293593679, 47.59647516301583], [6.564707304426183, 47.63336211067556], [6.616661008372378, 47.637533025413816], [6.6377866675488955, 47.63217386364603], [6.62051207748744, 47.6320051955963], [6.602686620511483, 47.62720112284348], [6.630154784651516, 47.64273174631913], [6.70227787673064, 47.657703420324566], [6.757885820890825, 47.64034772606781], [6.810805617150959, 47.66279320146333], [6.859327219090969, 47.64148116960685], [6.836713846346518, 47.64718734553281], [6.8627391322138545, 47.652286749981506], [6.918248641206703, 47.648709156573624], [6.96554963740132, 47.626575809580665], [7.003930876697631, 47.587191003748856], [7.023315327719474, 47.51772363121007], [7.012547340617061, 47.48175669974733], [7.0108666642943644, 47.513455296683915], [7.026827209166676, 47.48385641912999], [7.022959985082124, 47.37226159990677]]], [[[6.182869345617145, 46.64694552396235], [6.2456574282692605, 46.55461535751775], [6.181607804689905, 46.45066663708105], [6.1440561921230294, 46.40676803377141], [6.137243311624127, 46.40286559305943], [6.156163493397606, 46.436796375559744], [6.157899292560452, 46.481363588792796], [6.151228871789452, 46.50113054816575], [6.1577772618518285, 46.48782328935393], [6.164834146220905, 46.45951373758766], [6.164404376949061, 46.45513325661334], [6.167561382888917, 46.434660901252336], [6.146478276537025, 46.36805438058928], [6.153816210857986, 46.42855834346638], [6.158286391099002, 46.42941903036249], [6.083456882035254, 46.31112715356901], [6.085228475053692, 46.31267358220028], [6.07217564058005, 46.297598967202624], [6.035173291950013, 46.26991406688026], [6.041574389894431, 46.27636120777486], [6.023631035612713, 46.25337998145669], [6.004200485009813, 46.237395317598995], [5.989372094275677, 46.22861600567599], [5.986244243552653, 46.227699103070854], [5.994637135439501, 46.233790914967265], [5.9911156328303425, 46.22982217212671], [5.974433409513839, 46.215788880762084], [5.925578508452234, 46.18599838564127], [5.901293226243954, 46.17631607063564], [5.8776354893984655, 46.17090734809073], [5.842908263897152, 46.16744227560232], [5.715743087742878, 46.17233410113856], [5.684061810311712, 46.180954259050786], [5.640408453303081, 46.2104164160812], [5.611878623106366, 46.27081198024412], [5.612684342401711, 46.27775078851753], [5.624701655298306, 46.24607105244648], [5.634939647844809, 46.2343598119366], [5.590801609726447, 46.26145376981931], [5.636631753701942, 46.24467225402293], [5.682513031902118, 46.24926901795378], [5.692011707366342, 46.256501603971174], [5.68121170557859, 46.24547492000311], [5.662132409089193, 46.23266627829093], [5.6582014971420485, 46.23122072978036], [5.672620063449056, 46.24240397464939], [5.687099112143078, 46.26110521093782], [5.686969412904946, 46.25862910162678], [5.662839343028573, 46.226170648033666], [5.622863078072171, 46.20309387558335], [5.59831346021111, 46.19798119491587], [5.5921026697560166, 46.19787615027513], [5.606715426888815, 46.20176657364518], [5.624022999331054, 46.210769010933916], [5.6347238900374785, 46.21925793970831], [5.619636028290294, 46.204415722745], [5.60024254188946, 46.19167521229148], [5.5839160027295485, 46.184129709262436], [5.570975230791308, 46.1812828222349], [5.5881448741691395, 46.19270677120654], [5.579893542457784, 46.18493294452098], [5.549895566729697, 46.16838810314032], [5.513119510514928, 46.160738810537694], [5.4490340914785715, 46.17196352233828], [5.410906105367328, 46.19346066635027], [5.377248403875783, 46.23919424187894], [5.36885695249358, 46.2897884463528], [5.373518764400126, 46.32011222041437], [5.376778569764028, 46.33023376646194], [5.3747494320501294, 46.316020362008224], [5.3836906430840905, 46.27236704170024], [5.42619731764846, 46.22997405042387], [5.4278370899014785, 46.22451192337963], [5.387078875779048, 46.23993704579493], [5.373414707849439, 46.25392174681435], [5.389090224806386, 46.245873333103795], [5.3557948965053965, 46.25362049460131], [5.319806687879565, 46.27479585210675], [5.290674479055113, 46.30723909523485], [5.275096867983975, 46.34292238349856], [5.273757162920294, 46.34903322154498], [5.286392742021536, 46.32819515751507], [5.303495534541804, 46.312543545657036], [5.3139288079939915, 46.30777806117984], [5.26688235171204, 46.32382948964832], [5.216894397090347, 46.386823149817566], [5.228291927961208, 46.51159955512449], [5.306030434337137, 46.56002273885969], [5.377053753055636, 46.571405413274285], [5.366735210194827, 46.5674079996011], [5.347221849276453, 46.55174507970041], [5.327026941591489, 46.513129656486896], [5.3326629616998735, 46.45840129186115], [5.353888519926687, 46.42888846685865], [5.3643259943109545, 46.42228517640765], [5.33905660536213, 46.4309778002425], [5.318916206818983, 46.44194825640444], [5.294791492549223, 46.46261384107399], [5.2745878709667595, 46.493176989811204], [5.262538848728472, 46.5296185863195], [5.262077376324064, 46.57358765203059], [5.273260967656971, 46.61133897345407], [5.296996971175954, 46.64577456684848], [5.329602063839873, 46.66997333392304], [5.3570083931807675, 46.680341084405846], [5.3431512444170925, 46.671954968674555], [5.323659363426558, 46.65202109646581], [5.314492983458672, 46.63289970518051], [5.314053033050709, 46.634551356636415], [5.322924793183715, 46.66094491898759], [5.337081518022872, 46.68422720158061], [5.330932183959704, 46.67052294182624], [5.324495014512416, 46.639342568520966], [5.3245877276651, 46.63431273991157], [5.309491298729436, 46.674172250687676], [5.322123791917553, 46.65803268934481], [5.310410531631658, 46.66240653090942], [5.272281119325908, 46.725434837394225], [5.286042191922454, 46.802491028744825], [5.298162820657437, 46.81600052259851], [5.286532160114896, 46.76557678498815], [5.306997502040673, 46.71327165515815], [5.323423238282338, 46.69808032532117], [5.314637490400539, 46.7020519370696], [5.28887376840139, 46.719655759123675], [5.254176517535132, 46.770775477018766], [5.258659510675356, 46.84987062541886], [5.296017879216076, 46.8959960277346], [5.33331114717398, 46.91509023995121], [5.3617400954863585, 46.9213413499703], [5.409964850642459, 46.92433967334539], [5.386259806167364, 46.91274117250502], [5.373238530248454, 46.90074313121339], [5.3695488067459225, 46.89556279496738], [5.36070147999668, 46.87010518986822], [5.380371579504909, 46.79365368777519], [5.41901362649061, 46.7639569013605], [5.388406260636858, 46.77139184550429], [5.357795860033533, 46.787687283843496], [5.349450475184134, 46.79499552690843], [5.362082844202918, 46.788924670747505], [5.367172959740434, 46.78690322034801], [5.34840003960266, 46.789133953485575], [5.313628501469194, 46.79996954095174], [5.277819714139273, 46.81795004814786], [5.202656267955959, 46.87516514965245], [5.152863484748472, 47.004081459383244], [5.201813701828062, 47.06850248591231], [5.2262933069728374, 47.081825962536634], [5.25482626546662, 47.091790339845396], [5.235031283472658, 47.07681752279065], [5.21256365007327, 47.03271588699367], [5.217154725847029, 46.982677980338316], [5.217342233970954, 46.97933135556066], [5.205326751452932, 47.008536260978666], [5.200542777164488, 47.04829461623347], [5.212710897567403, 47.094998583991355], [5.24648401256403, 47.13576641881241], [5.281749519077393, 47.15385094824641], [5.298949421341364, 47.15862373149977], [5.310889705635795, 47.16496231654146], [5.340769863562673, 47.17459846810321], [5.345193252641663, 47.174085369875385], [5.3318010704034515, 47.166943145904824], [5.3324762260634095, 47.16808985742023], [5.407378569820837, 47.25311069746458], [5.4011129480701925, 47.23978943376451], [5.401386898674665, 47.25550451293407], [5.450662139498116, 47.359626841513155], [5.54191047244239, 47.39137065873139], [5.591607857866439, 47.36936379070717], [5.614462382154361, 47.35926690982818], [5.610866989100141, 47.36025218886642], [5.607291047665449, 47.36006605962843], [5.655074725987943, 47.369960160027375], [5.700578808534227, 47.369551457699224], [5.758395457938481, 47.345329777575124], [5.794159033964157, 47.30401897403651], [5.80598907769781, 47.2753036059991], [5.7886987807316785, 47.29503977211604], [5.843936901634035, 47.268024020835355], [5.901940101082596, 47.197161356191955], [5.914539272583411, 47.155459856574645], [5.913094228021238, 47.11464289839905], [5.901052189914816, 47.0797761265315], [5.885404374689695, 47.05498643238415], [5.865319928534898, 47.03325125555729], [5.847538376731774, 47.0205750322812], [5.86325087767664, 47.0397716208692], [5.875089269830613, 47.077350805016465], [5.877951632480666, 47.05511605522312], [5.859196539704069, 47.00326982468469], [5.832617685109863, 46.97443876918591], [5.824130371161184, 46.97070610865705], [5.844144746965671, 47.00682090187652], [5.842470996263327, 47.05737609385759], [5.818745088152535, 47.0935340074788], [5.790375998755266, 47.11003719451917], [5.761211810688899, 47.11386649222484], [5.731267719254131, 47.10613775005773], [5.749517788879252, 47.11950594496355], [5.816818238220958, 47.13059269729577], [5.868647324684622, 47.11021916595873], [5.876351945206613, 47.101046085316106], [5.939259947230497, 47.09398115372754], [5.99493516107295, 47.0740107521431], [6.0267933459879774, 47.0525941199157], [6.051727862108697, 47.02695590513459], [6.071871458439051, 46.99741724626822], [6.087140150191988, 46.95951531218621], [6.088604055867579, 46.92651543835768], [6.08084620632784, 46.943191005491876], [6.084927413003527, 46.938060152847314], [6.067192908914476, 46.94750907711457], [6.055776978546326, 46.95041754641252], [6.087598448899033, 46.94915832144172], [6.125730277784105, 46.936603212348196], [6.305979944062812, 46.77791185634955], [6.253123225030426, 46.672302173201466], [6.147689808786064, 46.61542751038436], [6.16829956963119, 46.63823917601126], [6.180851333161813, 46.683278194732495], [6.171133296530467, 46.722872042149284], [6.183989161236989, 46.70668378537837], [6.197106118138787, 46.6472851860016], [6.171925269979737, 46.58409291464728], [6.128023287252533, 46.55237970584364], [6.135408183863438, 46.55910046374059], [6.152743191866818, 46.60197054340253], [6.140704761170695, 46.65834257933447], [6.139236609844377, 46.66403352549753], [6.1528895297903405, 46.65670979964417], [6.182869345617145, 46.64694552396235]]], [[[4.145062756845429, 47.43135482318482], [4.214532540477763, 47.36436825807458], [4.200100141966267, 47.315823028493284], [4.15580748654897, 47.34503750113387], [4.174723002047577, 47.34786867471708], [4.226579927472816, 47.33822169901209], [4.274132957580717, 47.30962556555037], [4.30945813404321, 47.26247348496594], [4.323423446830875, 47.1887465569706], [4.307755264091365, 47.14768591748554], [4.2838185407136695, 47.088142003651335], [4.21662984629365, 47.055368695804425], [4.153053529606147, 47.02799336426137], [4.0999158723708256, 47.02597060510165], [4.136230926363659, 47.053335259268486], [4.144600675163581, 47.067762865922745], [4.147053965449963, 47.08774517379244], [4.1437401980017174, 47.10671819651217], [4.15897288266897, 47.0761352126527], [4.164783073044733, 47.03003107758693], [4.15396806133127, 46.9857481769528], [4.13163554805782, 46.951405096430896], [4.102523369015434, 46.927006108187626], [4.0653704265706825, 46.91099301530325], [4.034447457477032, 46.90805129604892], [4.07108883083598, 46.92989813589082], [4.096291795496357, 46.98738356267967], [4.074607049101513, 47.04446312290537], [4.040504973837631, 47.06806073574918], [4.079846671966023, 47.057683158294175], [4.13586933655578, 47.00126312250677], [4.14745759892709, 46.941731778494606], [4.137948141754369, 46.94233374414692], [4.107572405683176, 46.98313150070949], [4.115683413060757, 46.981791573683694], [4.169546811314491, 46.94123152074], [4.19005443016096, 46.840744522948384], [4.134609241961169, 46.76726770646918], [4.09545686771547, 46.755762447404955], [4.133158308664608, 46.80151188735858], [4.129937134191699, 46.8753326708671], [4.136256590228562, 46.87302535178384], [4.150646096082171, 46.837056712506715], [4.152605578295364, 46.78780393039748], [4.141486188559134, 46.747686403971315], [4.1048645150417205, 46.70388221235862], [4.058888025687619, 46.685221320463995], [4.029834744104502, 46.68326994140783], [4.030027269166325, 46.68349436199119], [3.951295936526408, 46.64632010672283], [3.896825323881967, 46.63309079186827], [3.8732270061000786, 46.61771040157071], [3.7887919919066615, 46.603874245303494], [3.7109352757399887, 46.655631153276246], [3.7224293758166676, 46.65338947956627], [3.624063034406691, 46.639265337219584], [3.6458860182537087, 46.65578853247414], [3.69029763069129, 46.70868518579795], [3.693185414201738, 46.72263975430789], [3.6905820691484594, 46.70008646110302], [3.6599250446051, 46.64548862796032], [3.6217003108647803, 46.62000464565394], [3.636354991352965, 46.63366030242432], [3.6612092730545203, 46.673425453568534], [3.6609143142949794, 46.66807057147804], [3.6343909043464544, 46.61471073116871], [3.5868276911080397, 46.58341772034606], [3.570982792621086, 46.57865466743908], [3.528798313555791, 46.55995259610608], [3.5004079451150334, 46.552286160263506], [3.466172317439314, 46.550056791810086], [3.410858053931335, 46.564776399243726], [3.3614126558059336, 46.62633315279679], [3.358026451815979, 46.67454445581738], [3.358404915889597, 46.66597176736219], [3.366777116228991, 46.63151809236442], [3.37702241719838, 46.61483361030617], [3.3650384286651787, 46.62839601458499], [3.35870121131017, 46.6408415729273], [3.3858972664561215, 46.617842780365734], [3.405243906420449, 46.611385090663305], [3.4331986993699273, 46.61631968739968], [3.4550945716424577, 46.62897825650215], [3.442214817681101, 46.61510421106316], [3.402412790604037, 46.59222254366417], [3.359847021329324, 46.58465889903506], [3.323414098955304, 46.58924022720629], [3.29506800368304, 46.600082045641], [3.2922948859806644, 46.60116568621154], [3.27901982591723, 46.60263596415097], [3.2745268824337455, 46.602666673500664], [3.2781209342261066, 46.60350568491294], [3.2321341794126415, 46.58849121406743], [3.188421502148674, 46.58852637268032], [3.1496916583761623, 46.60083408862775], [3.124746178823159, 46.61688811762761], [3.10376485828036, 46.63536975514747], [3.1137887479818303, 46.63044611538077], [3.1179830095855974, 46.629151283641164], [3.126462955921785, 46.6291178454962], [3.113900319687919, 46.6269414125167], [3.084815345258335, 46.62875747171805], [3.0600268027284754, 46.635960556978354], [3.0501638244070324, 46.64110446688381], [3.030131950803442, 46.64792169003536], [2.9937183010173616, 46.668726777358], [2.9640026028647366, 46.6945946661703], [2.9474671411274604, 46.71649703413354], [2.9377421669887425, 46.73637013926347], [2.9322473005751157, 46.75499670968725], [2.9292613256426687, 46.776761355203874], [2.9307027112877684, 46.80454533366523], [2.937816991590597, 46.83853104215231], [2.944839488795004, 46.8577066433649], [2.958570408512477, 46.88064985905709], [2.9817098041951446, 46.90986291721994], [2.981282480432992, 46.9091549442626], [2.974317396862651, 46.88499137008195], [2.975001732028716, 46.854772818155055], [2.9781063426862295, 46.84445048646719], [2.9819845822672315, 46.83649977583553], [2.972341211481654, 46.85041228891943], [2.9635517400944478, 46.86865789595627], [2.954878747257141, 46.901311609921954], [2.956131961240395, 46.936692719013976], [2.9628347255045275, 46.959626347045614], [2.9721720769907556, 46.979607013229334], [2.9774609682438578, 46.9935903670499], [2.976246230707382, 46.985613076397065], [2.975861342063792, 46.97170375118403], [2.976419841580301, 46.96758307045235], [2.971699044144835, 46.98747903509274], [2.9707791561268966, 47.020548488732075], [2.9745576578072135, 47.011019806602775], [2.9891475034850195, 46.98502355303164], [2.996826614942189, 46.97685825430765], [3.003621203308864, 46.97154888052144], [2.9856061380314443, 46.98194477118105], [2.963702591359409, 47.00007428551509], [2.9376242678435998, 47.04170429163285], [2.9308511320956407, 47.08262399572565], [2.9324832141195776, 47.104928089609736], [2.9347316508594994, 47.11661607546413], [2.9345714893030532, 47.1095521205556], [2.9363904952850453, 47.0982638017197], [2.9358245506993805, 47.09868874662479], [2.9340771203259495, 47.10179535038634], [2.9219812137092065, 47.13295395181804], [2.9128866876730295, 47.150760698643566], [2.903720571452556, 47.16436383730087], [2.8951011684509855, 47.184159279342786], [2.8856909477265664, 47.21986333230742], [2.889901915412955, 47.21107746264987], [2.903790256426642, 47.19385554045561], [2.919034014829558, 47.18235381369425], [2.9013675227077322, 47.19098562232062], [2.882812167421273, 47.203584128573745], [2.8578619685961177, 47.22613661506226], [2.86886862180537, 47.21908233761912], [2.879202506258009, 47.214530740914306], [2.870492630409999, 47.21680910282323], [2.8564024626280915, 47.22216936451355], [2.8402234542304736, 47.23061235943061], [2.8237966055151804, 47.242579451419445], [2.808828377623133, 47.257105210022786], [2.791024877194014, 47.28134376687979], [2.778374742586022, 47.311510635765636], [2.7753066442234178, 47.35348832177149], [2.78704841177707, 47.39093202397275], [2.8107601626992036, 47.42500537153435], [2.824568213812808, 47.4371673046257], [2.8239426261426366, 47.43642137620979], [2.8196201183887357, 47.428482540378226], [2.8208688966675575, 47.43177787167906], [2.8302425960321025, 47.45033496420543], [2.8365811284383238, 47.458985758470796], [2.8306530924793556, 47.44634069400025], [2.832758143884774, 47.45120880060539], [2.833239968388057, 47.431106655451444], [2.8429404960854434, 47.404221757141535], [2.8544304543605397, 47.388033214206445], [2.834361329404087, 47.406201848041235], [2.816796492147291, 47.42943050527765], [2.808099168358332, 47.447120934340774], [2.8094662623183453, 47.44548087599786], [2.8101570054702614, 47.44415742110476], [2.7570619074783207, 47.5216309486942], [2.7639022699458464, 47.57257435764982], [2.7789229312629664, 47.60426523940136], [2.8704275109933906, 47.655439895609035], [2.8973901423751958, 47.6614581614607], [2.9363097065709454, 47.661933392497346], [2.966102158137455, 47.667537127737646], [2.9954841281459488, 47.663296090587366], [3.0983266374136598, 47.678759214480415], [3.1395662108902296, 47.67261766304894], [3.187233060488154, 47.645293192179984], [3.2187762046152173, 47.59381827047013], [3.222034275063811, 47.5661565527037], [3.205609504195394, 47.59932921967157], [3.177767912731717, 47.6198795493181], [3.208615606916222, 47.6200520781019], [3.2601509356112643, 47.603358472797545], [3.291923192800922, 47.57741808508809], [3.273641289575784, 47.58658107522012], [3.244412554784546, 47.59032265201381], [3.264468532888456, 47.598729400809084], [3.3090042718900103, 47.59964973354546], [3.357486168885278, 47.57812440007497], [3.33043291322976, 47.57933214107071], [3.314291205462103, 47.57493320088728], [3.3582116534327855, 47.600932304609486], [3.4209705312169914, 47.608667782783776], [3.432432273409052, 47.57678006756311], [3.3944629106857085, 47.5323220040627], [3.441596404847763, 47.64631384687486], [3.566536518271077, 47.62956756605942], [3.59611929184776, 47.59610111784183], [3.6250504757664332, 47.57759323542861], [3.6541774699044103, 47.54716653931742], [3.6643314224157226, 47.5284109404271], [3.639581001662726, 47.550511701823474], [3.6119337767839483, 47.562020829373715], [3.6392637894967685, 47.56136599881221], [3.685766402253659, 47.54790222367285], [3.7569840475814056, 47.50270366847304], [3.815390077329325, 47.48533161808527], [3.786620851923034, 47.48287784832165], [3.755466463849163, 47.46611115344896], [3.7383797324880454, 47.445660829500675], [3.744665280495752, 47.462666264812974], [3.767794891132787, 47.49485615577889], [3.806292019337471, 47.521389500323906], [3.8528280640566703, 47.53268562923724], [3.9057769694995716, 47.52308180475321], [3.9501399231006498, 47.48942976324526], [3.9748806702821313, 47.43852806844842], [3.974361211782715, 47.383257464252644], [3.9664156683666585, 47.3688617288235], [3.9501600019689107, 47.4323123287439], [3.8861977230918305, 47.46740436140969], [3.9748309174891325, 47.490122590565264], [4.054753720758243, 47.42128702782013], [4.058185314438684, 47.3852911939737], [4.025911385266719, 47.40910075794603], [3.9825900843957878, 47.406484862392105], [3.9557919844881906, 47.390306519707345], [3.9673381128900407, 47.40428510858601], [4.011622073663997, 47.4326041876039], [4.056060770895034, 47.44148777267228], [4.145062756845429, 47.43135482318482]]], [[[4.156902513451029, 47.14504049886612], [4.049855858033732, 47.18381297150671], [4.032171459522236, 47.28224374192543], [4.017488428420708, 47.29294842357837], [4.00840692093838, 47.33303928244135], [4.032642562302806, 47.29870868279718], [4.064497349749421, 47.281099357712705], [4.0609886267567035, 47.28122814904928], [4.014633765540424, 47.30520901148635], [3.9734030640009994, 47.37030570448679], [3.965089097273843, 47.42075101515569], [3.9847692482010775, 47.479697213497275], [4.019707551099043, 47.51402340013512], [4.048873686271218, 47.52864013424607], [4.050774660899684, 47.52572897362367], [4.024567807557438, 47.493430750417396], [4.022620745592472, 47.533504638786006], [4.059756886303139, 47.59194283610173], [4.0807472461910965, 47.603428259333974], [4.118177327650413, 47.65429146906531], [4.139858877366358, 47.69309381187517], [4.167078696026513, 47.7190505698681], [4.159128774432015, 47.70607606629888], [4.15767851587256, 47.700115119049286], [4.156310458166438, 47.721504704045245], [4.1807087578186355, 47.79653228868016], [4.270906473353931, 47.84077866493471], [4.243711491066844, 47.797025249598185], [4.24301172000676, 47.759605808894456], [4.2370466412182335, 47.77652599707687], [4.270277661252131, 47.752486928495124], [4.292444298509014, 47.74671089887419], [4.283951834344697, 47.746783519091366], [4.1983382565533915, 47.767370944856886], [4.165974704054203, 47.885937885121045], [4.1773680903417505, 47.92443421768119], [4.2153329846607726, 47.992520360266184], [4.295643485976655, 48.04135115503387], [4.522463100268258, 48.06340914058793], [4.505666639896385, 48.05653451580285], [4.46577529020983, 48.00687676090085], [4.459697524660142, 47.97012509280464], [4.461137543302752, 48.009508963503436], [4.487784691158407, 48.06356536064649], [4.542194051703533, 48.101941233058895], [4.581263111603455, 48.11339174866286], [4.617959308236029, 48.114956511201015], [4.652648598912549, 48.10811864597199], [4.649254762105819, 48.10820113114419], [4.642038512408703, 48.10680835026107], [4.702204261469706, 48.12195766490731], [4.761334829802257, 48.10146621555605], [4.822671614382464, 48.092484411674114], [4.879109506395346, 48.05826190975486], [4.905619878455374, 47.969017289108955], [4.896742099045704, 47.96112903644391], [4.868505544930407, 48.03994466869966], [4.84050342188289, 48.05824081779021], [4.884496757436785, 48.04649418802558], [4.918925093456498, 48.02653660809496], [4.95522825102083, 47.97637361497718], [4.957139294410426, 47.91474309191485], [4.941157008320628, 47.87926212666049], [4.928308668897528, 47.86455052591954], [4.9399824442383204, 47.889386134636005], [4.940673130863132, 47.93329580799752], [4.919033425477456, 47.97152543207887], [4.884655637270352, 47.992053643263155], [4.841293495043551, 47.99292657804149], [4.804743808739575, 47.97452636292679], [4.813257339209598, 47.98514644123871], [4.865781230221613, 48.010893939111455], [4.9367112012675785, 48.00168336268593], [5.015525735549849, 47.93792321568067], [5.046867154268547, 47.90348997246321], [5.074319802320851, 47.861432274121036], [5.086917036236837, 47.8288285506067], [5.086649595048231, 47.77731351388098], [5.055697120284917, 47.723065565539635], [5.008515624824073, 47.695821895714424], [4.979363083178994, 47.69032804364819], [4.96417705476161, 47.68998204309962], [4.981284086569163, 47.69533336624732], [5.01625784158523, 47.725773067392716], [5.029331341826158, 47.794488203935266], [5.00765720223676, 47.83693911508596], [5.012792928704493, 47.834021371898245], [5.0448588368645, 47.79385636867193], [5.05442393443741, 47.75658038036949], [5.054222969921964, 47.75450086973657], [5.057109514571458, 47.74042316847483], [5.053579026609227, 47.74913145614039], [5.03941068740749, 47.766783503854995], [5.0147030542729665, 47.78223722808513], [4.986893378553014, 47.78602626885784], [4.960708733765031, 47.7805724947807], [4.945664368938183, 47.772237672059454], [4.954363278164536, 47.780490517112895], [4.99976472982135, 47.803018758678235], [5.075960107327197, 47.79442878525711], [5.114626876505702, 47.765196721746506], [5.131202213333689, 47.74625413095015], [5.132308669322304, 47.74500392151993], [5.12882745429715, 47.74724536602678], [5.134219670945485, 47.74502720379374], [5.126392445736028, 47.746878395061266], [5.11855669829282, 47.74778522210557], [5.11426558089482, 47.74736939764269], [5.1013303999717765, 47.74358344460647], [5.087513738491893, 47.73634283827533], [5.073782068494945, 47.723024155357265], [5.076642573021204, 47.72838330893057], [5.1020784955442995, 47.752277728388066], [5.136785309483882, 47.770497370465876], [5.200756112213986, 47.774254779583295], [5.257073776426449, 47.74317757032641], [5.284306796845786, 47.699138011351046], [5.285987941968963, 47.69017045131892], [5.270787843307228, 47.717706711492475], [5.259362444770259, 47.729319632581664], [5.266575455732798, 47.72496804713185], [5.277794450232528, 47.72021135069291], [5.296251447606115, 47.7147575561868], [5.328248549354257, 47.695159129931845], [5.356915177795293, 47.65841168226722], [5.36274730216127, 47.63678666378149], [5.336941135750737, 47.66980271092359], [5.291276702812467, 47.6880266528204], [5.26191440545638, 47.684602742198074], [5.279775741238598, 47.6958438137254], [5.318401576940367, 47.70783046756368], [5.3811353245348945, 47.69822731386602], [5.417435455233427, 47.67128147867448], [5.402482825273111, 47.68066834264929], [5.346578149592472, 47.692722412911365], [5.313382026666282, 47.681963770790645], [5.29546643862316, 47.66661199383832], [5.339710755730613, 47.7014480512924], [5.396689552925479, 47.696102821046345], [5.356963393576813, 47.681085920615445], [5.3658972216569, 47.69039098599076], [5.413295108051035, 47.7147748416711], [5.4610562626083174, 47.71888155795717], [5.503088362188101, 47.707412454124906], [5.532169965056668, 47.68886964169106], [5.556633641150093, 47.6635692311372], [5.576446378548185, 47.619738420816724], [5.57643866964795, 47.571965585499285], [5.572939540607677, 47.561744601708455], [5.571450257054675, 47.607495074660285], [5.5546564169491655, 47.640367619813496], [5.562851106307683, 47.632239549450624], [5.579602886802708, 47.60769699482616], [5.58941534185191, 47.58433425886209], [5.595777846341609, 47.55541220480848], [5.593093665727403, 47.51533090972808], [5.57491079431029, 47.47414096173918], [5.552020441176453, 47.44954431411736], [5.54070689054796, 47.44091356430682], [5.5243524533118284, 47.42350981993294], [5.4961939450070885, 47.40681851504797], [5.471417024966899, 47.40006819404226], [5.453663972088265, 47.398531626801066], [5.459383749888628, 47.39993231447838], [5.475697119593733, 47.40798102902759], [5.498662105141501, 47.43082265894337], [5.5056406915278835, 47.44254988625043], [5.506658025161424, 47.4466597532258], [5.502386550598225, 47.48804534630504], [5.464608386902461, 47.53696048508074], [5.440383857473978, 47.547321584894675], [5.447544050018779, 47.54666047724531], [5.480695261072646, 47.537010000247015], [5.5230546825402955, 47.50623075353021], [5.546719390821254, 47.465526031355886], [5.552933262441487, 47.43406411720995], [5.553079055539361, 47.4241861586191], [5.552543661283783, 47.42793335401627], [5.5462296728411395, 47.44243765141405], [5.527471300339597, 47.465312779617825], [5.517017201551186, 47.47255244761971], [5.532989381940429, 47.46552874922959], [5.5724327505037135, 47.433287620966674], [5.592809548613766, 47.39270961537024], [5.597771227181243, 47.36636011059038], [5.598639789437896, 47.335274787321154], [5.598052786610716, 47.3388124694611], [5.593061409511662, 47.35145260715098], [5.581280620558235, 47.36915055232785], [5.618815064367606, 47.31316262522042], [5.5944911013253344, 47.203439487065936], [5.586723051929807, 47.1652985662355], [5.564329430179162, 47.129149302535424], [5.476239773936591, 47.02905014257978], [5.453974929596549, 47.008596854095174], [5.420104747358336, 46.98864463012461], [5.391348136437327, 46.98109953189679], [5.387434294364205, 46.98018968345853], [5.374150578658636, 46.973300268500225], [5.349514480922607, 46.9656810517536], [5.36706998743597, 46.976207581187595], [5.3915711024325965, 47.005505416008646], [5.400311222835512, 47.03867338376653], [5.398031248547068, 47.06206173902134], [5.391905766029045, 47.07694064443935], [5.40105727415297, 47.06129001966169], [5.4087683499267305, 46.99393811300632], [5.378214716527342, 46.93718047720935], [5.34571973453338, 46.9136376601546], [5.309652693027162, 46.90002603746337], [5.262233824688493, 46.881900992801334], [5.226945477959206, 46.887012549279454], [5.238448385516444, 46.88687534190787], [5.185599412207248, 46.866465183471504], [5.0639998498764305, 46.86230552172204], [5.017733871196278, 46.87909129136085], [4.998170766874386, 46.89666288074426], [5.027777248735986, 46.883838200862996], [5.052217349701353, 46.88207200571448], [5.005781184831479, 46.87038095824393], [4.925462278778848, 46.86423861269244], [4.802666344461715, 46.82620476148772], [4.748864364939429, 46.82396058203254], [4.7650876019762975, 46.82792345769671], [4.777870731998254, 46.83379974676431], [4.7575521223988115, 46.81994461947473], [4.723244328371161, 46.80629387898066], [4.679908166412679, 46.80294792352826], [4.631012071672933, 46.81627166501403], [4.587893276660777, 46.855459264559734], [4.578045216733165, 46.87946688882303], [4.60163521623375, 46.85642417809788], [4.557682394005796, 46.86224228208017], [4.507661958188884, 46.899218296350305], [4.48079312804906, 46.94672298877511], [4.511888095064961, 46.926316985558806], [4.540918063684079, 46.92107709117719], [4.523781206266535, 46.91782691609801], [4.491695629834111, 46.91958370050543], [4.403294470322607, 46.94143375771102], [4.3601536201887345, 46.96729941953994], [4.341744015298514, 46.98914993688431], [4.376540783018961, 46.974231684688064], [4.400661500081455, 46.97288059698148], [4.376531049576446, 46.96617413582544], [4.314253852379214, 46.97292910988632], [4.265301012593629, 47.01174093769475], [4.253607432245348, 47.03212048429175], [4.26622875116625, 47.02163141752212], [4.282474698148798, 47.012434140204874], [4.263863315161712, 47.01530171428702], [4.220043970105519, 47.031914643489074], [4.18727459382304, 47.06109195278837], [4.1303535684807215, 47.09452595195045], [4.115740735908635, 47.20363608251446], [4.124680553169125, 47.211135443029406], [4.12889186595679, 47.17647451503406], [4.140661042419284, 47.16067843444963], [4.156354072527185, 47.15095630098791], [4.172658997952422, 47.14787932528293], [4.156902513451029, 47.14504049886612]]], [[[5.624616952334551, 47.160817940371565], [5.589049010899859, 47.16144581113358], [5.554341617845639, 47.16851709017182], [5.490008142133561, 47.19709220929283], [5.51597552755761, 47.19305934126861], [5.5057131549138045, 47.190547435548176], [5.435383379441766, 47.232351447672144], [5.413364590488337, 47.26365139284902], [5.401561213389283, 47.3015155305389], [5.399084210562104, 47.321949212678845], [5.398722772818757, 47.34687388940962], [5.400916451386235, 47.33634438462977], [5.415711249496287, 47.30903637903332], [5.436522618059571, 47.29033125077041], [5.432982798448814, 47.29106355238029], [5.403280699660403, 47.30854322038217], [5.3698443271588605, 47.34816034858595], [5.356102338716216, 47.39037264598374], [5.353414944460639, 47.4125998413809], [5.353560737558514, 47.418233882790055], [5.3575766091787465, 47.40052596864411], [5.374123317459705, 47.37274124646979], [5.398200738927353, 47.35481599975298], [5.412103949981221, 47.349825522754685], [5.3997521425260215, 47.35149241510533], [5.360015613097539, 47.366489514919266], [5.312305449401776, 47.42584265369496], [5.310231974838577, 47.4843002467742], [5.314939308472116, 47.50282411374957], [5.332157894858498, 47.541621341056626], [5.367514880406266, 47.57619697097241], [5.401186250111371, 47.59127768552162], [5.4252320279117345, 47.59650037319893], [5.439690975033101, 47.59753580595773], [5.421770054992911, 47.592455484952026], [5.396995546688172, 47.57771818006706], [5.40212910945204, 47.58512243569319], [5.420303558823547, 47.600045685882634], [5.41042120568971, 47.58790903826082], [5.398434334272598, 47.56124109027192], [5.396672153658391, 47.536519795191516], [5.399344658148089, 47.5220997411379], [5.403267113197292, 47.51332700517384], [5.410702893692317, 47.50242845054938], [5.406505583050834, 47.5060123801865], [5.379163742945325, 47.552486925339714], [5.378906459392323, 47.61023339829154], [5.3806793303520495, 47.61293241450072], [5.380979621451815, 47.57739757918328], [5.394596358849908, 47.54633476886279], [5.406052034943332, 47.533646358308935], [5.419313637811899, 47.52580354587509], [5.4413937373916825, 47.51985044204283], [5.468060891948965, 47.5224191583289], [5.4897507783431, 47.533355014009246], [5.4865566064231865, 47.52875207938456], [5.4208144470745205, 47.49756317895365], [5.280868206828096, 47.57378918187575], [5.326908511624116, 47.718728336042616], [5.346332495299256, 47.7401353201372], [5.37925415717533, 47.762081564670765], [5.420055352716405, 47.77324779411769], [5.435798938299138, 47.77415641687143], [5.446545678923628, 47.77525010523801], [5.47047992210708, 47.78143109441497], [5.521562114593142, 47.77983502068988], [5.585213258092144, 47.75553215868397], [5.581008813996072, 47.75651618235456], [5.575366619396785, 47.75687928198732], [5.570452734834984, 47.75653182235154], [5.647729560992102, 47.774278179578864], [5.636056983831012, 47.76828641549], [5.615984093844008, 47.74583872044589], [5.6045412397884995, 47.71405966232039], [5.605153539580292, 47.695992724590404], [5.601709577648467, 47.709755767802136], [5.601633838453394, 47.745218201450655], [5.607220353028516, 47.77175065977152], [5.610327052259144, 47.7732443135559], [5.612845308795205, 47.74569526648565], [5.600005226637932, 47.79099360072935], [5.622380221478495, 47.858445094871676], [5.657779900622251, 47.89428383976296], [5.772000849188531, 47.950640663580934], [5.766860495901678, 47.94628055018313], [5.782231430541091, 47.965446914401205], [5.812797256710636, 47.988861595974384], [5.850449881465401, 48.00244481816324], [5.861965904579506, 48.004206558521844], [5.836747147939614, 47.99235698967706], [5.807718215642193, 47.960622959498565], [5.798081781303253, 47.91206097440193], [5.802007925525554, 47.97673739873625], [5.872709662850946, 48.02951534484566], [5.859593315216452, 48.02206871219062], [5.849651884306668, 48.01254805807986], [5.868586963923416, 48.038168506842105], [5.892046321077321, 48.05888083156418], [5.934593046017312, 48.07753453108918], [5.999742666354585, 48.07178573148429], [6.052892340311509, 48.025505226930576], [6.066612171301379, 47.98484486373013], [6.06796703136151, 47.95287176025524], [6.064387973342769, 47.944635003585596], [6.048578895792806, 48.00017816475802], [5.987623329367988, 48.0394976337725], [5.9460131428232, 48.03689221056582], [5.936150783838314, 48.03218924701465], [5.9513578388595185, 48.042944582401795], [5.97853344067557, 48.05513650219476], [5.971070070624868, 48.050020060736145], [5.98536784350227, 48.0649504543981], [6.006679857111498, 48.082245658369416], [6.0333948608975065, 48.0970255613536], [6.0671873337902715, 48.10610142963248], [6.102790681175008, 48.10864139805049], [6.176059175144429, 48.097267896046134], [6.219499813186031, 48.077156716837955], [6.247671288881183, 48.054908728554004], [6.274726026090267, 48.01588092427934], [6.283639875477664, 47.97040481144368], [6.278483247672274, 47.984175418113644], [6.248149900611328, 48.03127291636524], [6.228126197345874, 48.042957879330366], [6.246399941074638, 48.03877961130839], [6.265563775185586, 48.030050162606926], [6.259921062854489, 48.03091134246538], [6.259072598100092, 48.0315106425276], [6.251595892517312, 48.02985487583178], [6.2457018290721615, 48.02771322494808], [6.267025479777849, 48.03924324453343], [6.308968575180724, 48.04955826420827], [6.384498541378011, 48.052406662397885], [6.4454512361330165, 48.03652045182586], [6.531886972654079, 47.9989891454167], [6.526966212679913, 48.00039870898995], [6.527707107805619, 48.00036316621604], [6.535812879516249, 47.999925787792904], [6.5379105406945355, 48.00009492595794], [6.537648318352331, 47.99999004586557], [6.532123520375565, 47.99762898055474], [6.5242287451596885, 47.99279655003242], [6.51738759280109, 47.98643518856614], [6.525357463853218, 47.99748800676507], [6.547259875925287, 48.01810539021669], [6.594424655668541, 48.03941422300941], [6.648754058990916, 48.03737778266136], [6.687232577134873, 48.02164172378942], [6.720280774836547, 47.997323006689655], [6.7389927290626845, 47.979670007878326], [6.736359704849658, 47.98137016442668], [6.731670478405795, 47.98356886112392], [6.760231855894537, 47.97607346963942], [6.787535260691372, 47.96445505422498], [6.811832154281361, 47.94890414852037], [6.935313492072567, 47.8359638843609], [6.858405954249901, 47.71231813269232], [6.856742207039643, 47.71276651428357], [6.859081377990958, 47.72243829414321], [6.856312816086532, 47.74352526571973], [6.882405582943895, 47.6831799027451], [6.887970400559671, 47.65117267961611], [6.886795242226934, 47.62443142792401], [6.882425638306118, 47.641687792936885], [6.876200140549155, 47.653431271044454], [6.869841817419863, 47.66119951930055], [6.883363250818082, 47.64882002328967], [6.902999293665539, 47.61703834751266], [6.910812027238638, 47.57234156916496], [6.889251388863545, 47.505887397111934], [6.801630179109176, 47.44519027393219], [6.704572123269361, 47.457716579675434], [6.703175215348484, 47.456538253680876], [6.6827433794885165, 47.44392287715652], [6.6472519225125595, 47.433800804403695], [6.609981332451105, 47.434116136353964], [6.591116991627621, 47.43917097458619], [6.6271626955738165, 47.44336388932443], [6.6576777064063215, 47.46205883698416], [6.641311248116018, 47.43416174911117], [6.569471436675731, 47.391649055947745], [6.50054218389391, 47.41016103056361], [6.5447705839133965, 47.42148744672745], [6.529138774687764, 47.409140102862146], [6.468931262857162, 47.39557786565008], [6.414244639204958, 47.41441732946616], [6.399133973086561, 47.42659798128122], [6.4171919699217765, 47.41940601822928], [6.427438597038475, 47.41772878648675], [6.359402737096983, 47.40903635759029], [6.364886483942475, 47.41129243172939], [6.380208355694653, 47.42343401582078], [6.350110099053591, 47.371913177803165], [6.295548236628708, 47.334698704904746], [6.244350235195494, 47.32740805059842], [6.214188396254166, 47.33201021952281], [6.227737034884266, 47.33350498762192], [6.249238983072128, 47.34136091786122], [6.258167880978399, 47.34759486107283], [6.271923626989365, 47.363669118953375], [6.26686011195798, 47.351947119420295], [6.2468459153183105, 47.32776410987609], [6.22304141815848, 47.310368010784806], [6.197295617367389, 47.29920541682118], [6.162599466296303, 47.29274305295794], [6.1472902399676075, 47.296900181100334], [6.175468261229939, 47.30953126352911], [6.150513682115995, 47.285307406022795], [6.112807515233364, 47.263092332655354], [6.010642398587522, 47.23734868361995], [5.967259721994782, 47.23637401712044], [5.931848473254681, 47.244049732356636], [5.949476460823245, 47.24555366385051], [5.749623799932709, 47.166006464841836], [5.679367558068913, 47.16691520830683], [5.6661531914657735, 47.17253654230078], [5.677557274012058, 47.17122783997263], [5.624616952334551, 47.160817940371565]]], [[[3.8297580080933384, 46.79963375469651], [3.7895309938999215, 46.799355598429294], [3.817260676118033, 46.81658320813173], [3.883464063473592, 46.83446589327716], [3.964518730833675, 46.87246163800881], [4.001975255895498, 46.881320058592166], [4.022931974312382, 46.881962679536], [3.989655484958279, 46.867365787641376], [3.9611638114408665, 46.83419559602868], [3.953736421704636, 46.80904206960252], [3.95459790391783, 46.797495287493284], [3.967185409771437, 46.76618464821617], [3.949334865808301, 46.7894093291329], [3.945233691335391, 46.869954112641416], [4.00042713228453, 46.931743552595044], [4.029784758038831, 46.937596293530824], [3.9959615698390407, 46.88899347705161], [4.008557188685509, 46.82256247926001], [4.028714586939244, 46.80169042631631], [3.9993855943168244, 46.81491849929051], [3.9498498582456305, 46.87437025585308], [3.9474584010729097, 46.94229822150539], [3.95592666344422, 46.91396687749322], [3.9893613280339766, 46.87932284170582], [3.9802310261623686, 46.87735926425082], [3.9262669508984858, 46.91031687709463], [3.8963202045036436, 46.990754437320334], [3.93114716916402, 47.07278386410918], [3.991650542522967, 47.103418703951085], [4.016099573429317, 47.10482898469675], [3.996786630984565, 47.09676989181237], [3.98270445194218, 47.0848949035691], [3.9710939386687305, 47.0667238230472], [3.9651129269552676, 47.04151292241307], [3.9681111173310297, 47.0163707873473], [3.954427801998282, 47.04221380348783], [3.9471160345500373, 47.082762826207556], [3.9522053248364197, 47.12238913407725], [3.977801073636341, 47.17540074073151], [4.024708127629175, 47.21129139489835], [4.102614470393853, 47.22152863573863], [4.15637215370635, 47.24607530419558], [4.208259757120778, 47.255313925052384], [4.26979540617696, 47.243274047211635], [4.318104029894481, 47.20622535651093], [4.3127366848382875, 47.209238285712985], [4.331699301851202, 47.206281859795126], [4.381475248833749, 47.18508858247788], [4.420420567754652, 47.142453515708254], [4.424370987406371, 47.132971062305245], [4.390272147620785, 47.15791889011368], [4.347814950423555, 47.164101864174555], [4.3542264999185445, 47.16741540301852], [4.4115692169810385, 47.17114031531193], [4.467855984701486, 47.14437806311569], [4.488820379811266, 47.12041658046006], [4.478463529677392, 47.12677024228898], [4.521194370165889, 47.11739629949457], [4.514112793733465, 47.117593083901994], [4.538899936315921, 47.121066908822804], [4.580981904935038, 47.11400301444119], [4.62482087195094, 47.085489011224894], [4.6567080418111155, 47.032579703649695], [4.640745605994204, 47.04417771791983], [4.708544783766251, 47.025451821902124], [4.754634783266835, 46.97336111117697], [4.755684723339224, 46.96429873544026], [4.723333928327067, 46.993688334985976], [4.69504783358732, 47.002374076471746], [4.67653967162884, 47.00076412101934], [4.660909877601188, 46.99504538052526], [4.677197268001747, 47.00661425323568], [4.697934398023703, 47.01631254230328], [4.721803635060571, 47.022121417967455], [4.769119655538285, 47.023371238512276], [4.887451721221152, 47.060593387307556], [4.973686815168522, 47.06778904175607], [5.024456650298648, 47.08013599428553], [5.070782751264015, 47.079159799137], [5.115329233125614, 47.058755119255736], [5.123320128803723, 47.048948708639145], [5.093402150123569, 47.06013247827796], [5.143540587792753, 47.0619928165285], [5.179857614483556, 47.078100658092126], [5.234074522040793, 47.08688545072055], [5.349949609732322, 46.99283622516108], [5.347444515251529, 46.95784054061676], [5.3472657320440415, 47.01332485034755], [5.382580285860726, 46.988317951852146], [5.389047498530807, 46.985204459048255], [5.388375960397341, 46.98509804651442], [5.394389040259566, 46.98504277965199], [5.427691155797081, 46.9778573292525], [5.462165524815867, 46.960208473091576], [5.472100139966467, 46.9518047161565], [5.458233739363143, 46.95880615449571], [5.469770373509389, 46.9574090986395], [5.536316420495091, 46.918878312224805], [5.556954520003319, 46.83157281013178], [5.541911193254077, 46.79411720503261], [5.529827469751547, 46.77632486878662], [5.5050281938326355, 46.75182482749497], [5.464273149357541, 46.731854326654606], [5.390241904513641, 46.7233826500297], [5.396346852826021, 46.72528376004878], [5.415622120783923, 46.73569997226541], [5.441818489324644, 46.76954137458114], [5.444763482464868, 46.83141052298124], [5.42061223159861, 46.87013824087632], [5.4112845095994615, 46.8771500629304], [5.4226707617176615, 46.871717674678834], [5.459838497959327, 46.842266344841846], [5.486191839885104, 46.77723921501185], [5.470563179342562, 46.71461947740149], [5.459699808077546, 46.70327897125517], [5.4685388806740916, 46.76394316260578], [5.440911468368342, 46.81396346909058], [5.466420208082447, 46.7965193106552], [5.491752701270564, 46.75651774931232], [5.516778272334901, 46.68965526008842], [5.524298985487584, 46.64819543147903], [5.515091816040296, 46.59251505817375], [5.498396481977128, 46.566000798419395], [5.504159206816285, 46.57636308101241], [5.50872496694929, 46.58869464336359], [5.505473016541329, 46.57351429481948], [5.490110636573442, 46.54114290353419], [5.460290755582908, 46.509849031325444], [5.429689606819232, 46.49401491559416], [5.421719936160127, 46.49245066607696], [5.440703028824046, 46.50667543315152], [5.45419903234303, 46.52612502654593], [5.460108623675937, 46.545594347969406], [5.459647151271529, 46.5635054136805], [5.454410129033241, 46.580721010188796], [5.444138507450777, 46.59563815892601], [5.429637793181017, 46.60850374359557], [5.41973739463787, 46.6139821997575], [5.448828005689046, 46.60355682359235], [5.477239480073313, 46.58631953314135], [5.515515038300127, 46.53942670813885], [5.522075058408511, 46.4689003435131], [5.493838150723548, 46.41571692029959], [5.4585027898051734, 46.38970400039889], [5.4297722469443634, 46.37847858672571], [5.3581055656628624, 46.36692126114031], [5.319981938093006, 46.355759541121856], [5.211765966624535, 46.3728920334468], [5.16102240650857, 46.39477094802246], [5.137521472993957, 46.414020699312175], [5.137307216618597, 46.4143476387846], [5.142789305609347, 46.41225325308818], [5.15088107629457, 46.41131756879735], [5.141853793583713, 46.410432916163856], [5.080943530601614, 46.39409737356333], [5.037907359446092, 46.39096724060885], [5.001966050135215, 46.39607314698272], [4.962313840171356, 46.40914348578381], [4.960427303380289, 46.4096056905614], [4.96584833562713, 46.40968815900371], [4.976866689244441, 46.41187704220671], [4.996166986489902, 46.42118028404215], [5.019042468037585, 46.44355942737894], [5.032430328748742, 46.47014974969636], [5.03117683944883, 46.46347619573349], [5.02417999672469, 46.44480723690128], [5.016708208744961, 46.431738286879764], [5.014727496329577, 46.42715890559666], [5.003640127697418, 46.408785798661846], [5.006296265323475, 46.414480109883286], [5.008431402935543, 46.42114006743959], [5.002502870681046, 46.389735514060845], [4.996908501596355, 46.37039284945955], [4.98733843500637, 46.34870792454444], [4.96435542804044, 46.313486726302344], [4.957212585322389, 46.30631660090457], [4.965662378356796, 46.320036440647975], [4.972533668333726, 46.3417607742406], [4.973961408690512, 46.36228840031813], [4.974733969853938, 46.357009816429056], [4.974929654878212, 46.337177078091436], [4.969251755320534, 46.309261544034435], [4.95941542290884, 46.28769833719396], [4.904849835883059, 46.20671127100779], [4.908155921558265, 46.21373260785402], [4.893444909924081, 46.164434535991546], [4.8874970042218235, 46.15381561028364], [4.893462047904482, 46.178074925907154], [4.893264779677632, 46.19754764817813], [4.89113692560005, 46.20716652175629], [4.877117052579776, 46.110820794426985], [4.707686209681611, 46.08205944033543], [4.644152052417725, 46.123732717379184], [4.624995059393369, 46.15794156023284], [4.613832556686281, 46.17730497186392], [4.603263277680662, 46.21984524371207], [4.605938022113665, 46.238057559584405], [4.620114217083551, 46.193161340435935], [4.647024847382455, 46.166011327599456], [4.612273489521651, 46.185439988364635], [4.577690306247889, 46.23964459795164], [4.574654016437812, 46.283639018082226], [4.575451075741402, 46.27539484062454], [4.59611980604659, 46.22426035553538], [4.629977603431888, 46.198478961121424], [4.636103207596666, 46.1992139285228], [4.6722872763946794, 46.20725269078482], [4.707539909576829, 46.23927722074243], [4.719576577752576, 46.26778152201148], [4.718819730682253, 46.2612111973879], [4.7084021067052015, 46.2285297782114], [4.676845726672837, 46.18929355000545], [4.630474618909347, 46.166188525790815], [4.57777750052678, 46.1634023800501], [4.534915819112867, 46.177258822095624], [4.505285625496714, 46.1982564485939], [4.497297555632665, 46.20658755951029], [4.521183089669535, 46.1943199335325], [4.563089508943867, 46.19028937250509], [4.587708605691582, 46.19934355532308], [4.578101024384084, 46.192114878120925], [4.5351922585123114, 46.177805281377104], [4.493393998780687, 46.175187354134955], [4.435650495213566, 46.18494805542816], [4.410988489963963, 46.19484519272947], [4.446039953398956, 46.19865460996911], [4.480712333237182, 46.22064396286927], [4.49525698729387, 46.24062316922837], [4.497913190699181, 46.24709271917514], [4.491721279636081, 46.223419033224495], [4.479274531916928, 46.19125184954865], [4.463219765457269, 46.16381440279705], [4.4139461620749865, 46.11658204032011], [4.369275703627557, 46.09069322802659], [4.338525999183636, 46.08011561670544], [4.316115209798779, 46.0752870830378], [4.294416429737518, 46.072886389354096], [4.274202691327338, 46.072925990095854], [4.252249445303073, 46.075370608453554], [4.218467022458451, 46.08423276432059], [4.188125535866322, 46.09000922670133], [4.196271149375266, 46.090209373244065], [4.170625619847229, 46.08387825988307], [4.145202843137677, 46.081389375827506], [4.119647644933098, 46.08287028807958], [4.075268188130865, 46.092828082920924], [4.072357224870547, 46.09360452448226], [4.080721861444432, 46.09419225998584], [4.0218291973471185, 46.07803675087549], [3.986222325663558, 46.07650349603374], [3.951420057365568, 46.082196910486985], [3.924478568123287, 46.09369196562302], [3.902860463489036, 46.10722942918182], [3.909173160113389, 46.10470995165311], [3.8856120946131725, 46.10944663885311], [3.857434299939466, 46.120261049005016], [3.817894570382797, 46.15290605747775], [3.7973626679369863, 46.20051210944048], [3.795642387976814, 46.23082532642717], [3.7989760158199877, 46.25603592753892], [3.7993836717911096, 46.23949972256456], [3.8017568871137897, 46.22664082131659], [3.8046582598279457, 46.22041949570018], [3.7911412428185027, 46.306421199072915], [3.9300916613492216, 46.39975191838491], [3.9326533264229044, 46.402555925251505], [3.9230341508226796, 46.39050589021401], [3.9047325046152075, 46.35687559029578], [3.9016867572957974, 46.3392375473482], [3.905337886537151, 46.30713508416138], [3.920180206174409, 46.277350838958874], [3.931038854903263, 46.26531911370043], [3.9271791960352354, 46.26851229229962], [3.9155403229545067, 46.280678261020206], [3.9047546716998034, 46.29503832338312], [3.894496184630086, 46.314713037563074], [3.8870143266013533, 46.34159234241312], [3.8865072281270763, 46.37136661112209], [3.888438891959079, 46.38225286393294], [3.888263137901653, 46.359846268439526], [3.8968566404032843, 46.33005471249573], [3.9058302754835457, 46.31566106810191], [3.903661578178584, 46.3179833451475], [3.887630080111557, 46.344590791326965], [3.8792678672657117, 46.38016759512892], [3.8807431335397156, 46.41282268460389], [3.8917898990080073, 46.44710499128281], [3.8896061092035894, 46.431972843284726], [3.8930854164775486, 46.40413766647318], [3.9021912376120977, 46.3829473382136], [3.900889397234868, 46.38449431131967], [3.8903638257131683, 46.40350987741223], [3.882196353079782, 46.43076696073341], [3.880964794346913, 46.44268001527101], [3.883686129380324, 46.43180993857852], [3.8947447731284757, 46.40969023778357], [3.915952524798061, 46.38821077620187], [3.933429690697236, 46.3782679876173], [3.919312198710894, 46.383364178688716], [3.9106179558627487, 46.38804488722882], [3.9180814319173076, 46.385848750970474], [3.89175224821777, 46.38830799653474], [3.849331381648976, 46.39712080658041], [3.8277308192825084, 46.40593433084018], [3.806277783491025, 46.42019702475259], [3.797693875093482, 46.42866256496085], [3.8123115969415915, 46.417515507589464], [3.7956192571706913, 46.425154358418055], [3.7768942102320437, 46.440619140613286], [3.795122594797197, 46.43009443086054], [3.818129036633742, 46.42360002590948], [3.8273174204826845, 46.423058831538675], [3.800381634279524, 46.42232551616104], [3.7669629911570888, 46.430827701930895], [3.744966457901635, 46.44297806666758], [3.739556397485408, 46.44721680299237], [3.753170933006936, 46.43927630840833], [3.767666962998468, 46.434006501387664], [3.7534773194794404, 46.43675587982137], [3.7301868845691235, 46.44598125560206], [3.7177034260034056, 46.45374378955015], [3.7306544265746795, 46.44782694090713], [3.715283012267235, 46.451430843670316], [3.6725536999915134, 46.47636895579729], [3.6406519752081294, 46.534436469005946], [3.6447878795616537, 46.58896742607717], [3.651782558629474, 46.60353936077807], [3.6460594567228783, 46.5841823588237], [3.645776911989252, 46.58735083715304], [3.6484033103588884, 46.577610127078685], [3.6628027121684172, 46.55190110441694], [3.6869841435475124, 46.531594287806335], [3.670644176061025, 46.53833148337501], [3.6243834656818152, 46.584668223158], [3.615801656524234, 46.60215255021935], [3.6299578233231564, 46.584487729524156], [3.651870581461954, 46.56947354979564], [3.651198266838156, 46.56909133119519], [3.62842150656705, 46.581246346824074], [3.604212958748514, 46.60172918109076], [3.605263122365615, 46.60111169775726], [3.580511128876455, 46.62258107142648], [3.562016044498641, 46.655795519715454], [3.5590700134825224, 46.66586782972821], [3.5643749232587623, 46.65535869390714], [3.5326828345473875, 46.77798773669413], [3.755054624183332, 46.85071052043372], [3.819678724260011, 46.82348484672376], [3.8297580080933384, 46.79963375469651]]], [[[3.265309445215454, 47.39141734798619], [3.205274710424216, 47.39862892477988], [3.168402807199078, 47.420119914911915], [3.162953064388736, 47.42856552720246], [3.1737083930837775, 47.423121921898094], [3.1124900872682826, 47.430832450681905], [3.049052495804606, 47.47487078032844], [3.0262997249361887, 47.5250714472963], [3.027317795384783, 47.53599372952987], [3.0498509395118463, 47.49994480782002], [3.0793677891097704, 47.48189233695106], [3.0991193625863405, 47.47876078551959], [2.9933098718540516, 47.463307909412634], [2.911383086726109, 47.486037855860495], [2.8827031431178924, 47.52056180480174], [2.8546761111474623, 47.544609324098815], [2.829554946044648, 47.58918848347357], [2.8293730208688523, 47.65769241343754], [2.8399959060112745, 47.672409399606686], [2.8373740531634586, 47.624130703459436], [2.844566498634095, 47.60508132100791], [2.8428649239636545, 47.607815865808604], [2.845140796691863, 47.605378620411294], [2.8273171417975087, 47.616481590028116], [2.8338106015123405, 47.613860529260826], [2.8436394146908563, 47.611473225254294], [2.823761867429079, 47.61374959723662], [2.7716129378937056, 47.64012047039815], [2.7409505287619087, 47.682374988787686], [2.7310289314576206, 47.72457962741004], [2.7340334109941216, 47.75964972464134], [2.7448592066887274, 47.792635869626295], [2.7637706420187746, 47.81985980126178], [2.7919516644170868, 47.84197404781336], [2.817970512791179, 47.85387382237349], [2.8436689646648663, 47.86049513948379], [2.87907524221715, 47.863535159426895], [2.8998373923525493, 47.86267095060579], [2.896292158750389, 47.86227990080005], [2.8876623962180377, 47.86026878724731], [2.9171477432011974, 47.87342631168765], [2.9482869155961366, 47.88176789048043], [2.932104689431468, 47.87219116353609], [2.9095444558999586, 47.843857601808416], [2.901253823313592, 47.80800112965469], [2.903088273845069, 47.79082296484853], [2.8976139297483114, 47.81861711923309], [2.9072631861072407, 47.868998976940844], [2.923628952089263, 47.895707124249796], [2.927473281338868, 47.899587504658136], [2.9130482422045523, 47.860921042373654], [2.9224324653124616, 47.80597092529192], [2.9156878661826027, 47.8118894153837], [2.900161841949605, 47.8473372502985], [2.8924737693292406, 47.90727699349783], [2.9187265691892588, 47.97243462174513], [2.979007708051486, 48.00751374527079], [3.002495850911901, 48.00834869077136], [2.979908921752717, 48.00218582511197], [2.9686125837648185, 47.99609077849761], [2.9870757565710733, 48.01146916095026], [3.01102820012707, 48.02563033809812], [3.034666403936995, 48.03521530624254], [3.0259993084135375, 48.02948904874657], [3.014663136493718, 48.01881076470483], [3.0238842373211114, 48.03533571178226], [3.0186425342703593, 48.012785309173616], [3.0174271182622836, 47.9944782164364], [3.0215939383599886, 47.98365024633905], [3.0353517523396336, 47.963640215402854], [3.03852487493818, 47.95952509102414], [3.006566611637896, 47.97715245254607], [2.9838110245617933, 47.99507564882925], [2.959074926718482, 48.02542675215438], [2.9370456911560447, 48.08104136648975], [2.947905756845846, 48.065415716992774], [2.9590575299481268, 48.05496970747526], [2.9657291541716857, 48.05126730674526], [2.967759483122276, 48.05038159157075], [2.9421952179768516, 48.05536011282795], [2.9342595030524268, 48.05604844041714], [2.8450444730433575, 48.09673480241987], [2.833278053570351, 48.19514581029006], [2.8363585692861992, 48.20914209137149], [2.8473655056014704, 48.23863280867628], [2.86578939657883, 48.26594148404298], [2.8929282103879914, 48.28923988351492], [2.9212727957701032, 48.30349367912696], [2.9462462675217833, 48.31092340936059], [2.9343924481168244, 48.302685003531096], [2.9264872748697313, 48.29438019758397], [2.935405036112061, 48.308113930876935], [2.9438391659201226, 48.31841342117011], [2.9496450959761638, 48.323931627701555], [2.9397430316977764, 48.3092400522192], [2.930377260627465, 48.258827611751066], [2.9458989094621457, 48.21536253858037], [2.943987172398197, 48.21643539668748], [2.9270543673103147, 48.24120634904695], [2.9164746590854524, 48.26988980262913], [2.9127471003771186, 48.29251668764777], [2.912587082491233, 48.31352903228166], [2.9158242644032626, 48.33698348271586], [2.925535524324197, 48.36429486055069], [2.9391716145658067, 48.386483417537825], [2.9396071998513733, 48.38544401341806], [2.9318038785649847, 48.369554337265015], [2.9335865122898777, 48.37701801499496], [2.948927342377614, 48.41046825349654], [2.9775763974415597, 48.43947623674813], [3.0184180754001804, 48.4588523113542], [3.0850914656019808, 48.46060670339006], [3.0635203481375477, 48.45553379876878], [3.0596527067021544, 48.45508596512924], [3.078970044658367, 48.46352131987384], [3.102684080703172, 48.46967542030212], [3.1277580773692177, 48.47230583794312], [3.1954759793790264, 48.468684734249926], [3.2064062904831196, 48.46559976248173], [3.202818893745132, 48.466104261147], [3.306937528990274, 48.47786895467769], [3.33458517618608, 48.475458077554535], [3.352129442245358, 48.470868327544146], [3.3335910233010844, 48.47065005935969], [3.29758798490016, 48.45618169053438], [3.3003076963695004, 48.46506113602643], [3.389202113297926, 48.51155323365596], [3.491634472864125, 48.463689971732904], [3.5145337254598643, 48.40829377564493], [3.514804650224807, 48.40361013848003], [3.4972497830462945, 48.43483779364147], [3.442199295927407, 48.46544112700758], [3.4406258601093542, 48.46995947049099], [3.4850649604820334, 48.46539655095232], [3.5337067021181516, 48.44760959207095], [3.561078733995927, 48.43325849480788], [3.5841707611037608, 48.4175672263252], [3.6580597214900017, 48.35175064564021], [3.6780993408533775, 48.329537291257765], [3.7001950701223203, 48.29291748772341], [3.707453793113069, 48.25151335872525], [3.7066031774979966, 48.24744958940159], [3.704238864184638, 48.264147118278046], [3.711051793957908, 48.242481978877244], [3.7119847922571836, 48.20144579825787], [3.6952232325430217, 48.1574237400414], [3.668722011799455, 48.128077156937266], [3.653559076268302, 48.1188667153948], [3.674244764560878, 48.14839202320651], [3.6654310100013068, 48.23544129247297], [3.6587028196985725, 48.26077927531754], [3.6944447938632385, 48.24035944822448], [3.6922751584246507, 48.240315742741394], [3.675586428662973, 48.242093682846615], [3.6480430980629546, 48.23273459052678], [3.61598645354262, 48.20190023503024], [3.618982320207072, 48.20909954342094], [3.66073856125869, 48.248550242476234], [3.7231883011222946, 48.26213760792654], [3.781506593379693, 48.24476101668708], [3.8200459044262964, 48.211881980456546], [3.836467933058463, 48.182480683267386], [3.8366710295674493, 48.18071034854128], [3.822263275923072, 48.199473151727474], [3.8257911756746346, 48.199846445322834], [3.854586231696016, 48.174246033434784], [3.9339107352181615, 48.08245066214687], [3.9536146307750686, 48.04678069779433], [3.945830263095547, 47.96016877597947], [3.882020834687395, 47.91087598231863], [3.8686725067443506, 47.90985598612079], [3.9074342768217782, 47.937266404690625], [3.929455667444276, 48.001918176401375], [3.9056216678189535, 48.06114549508597], [3.880639462396334, 48.08056971620721], [3.876940586718825, 48.080931742981655], [3.85701419890027, 48.081774802249036], [3.87790174248455, 48.086691981485934], [3.9377798445083405, 48.07828980783049], [3.985044305762825, 48.039457762127334], [4.004713225646535, 47.990295711297435], [4.003404032035578, 47.955052009150926], [3.9995257495228183, 47.97812629213707], [3.984220224129082, 48.00511270418672], [3.96193507472767, 48.02274225042541], [3.9452631305933306, 48.02887603029807], [3.952946379335204, 48.02838439785056], [3.990882408738854, 48.03128858121203], [4.0112668630891735, 48.02982226554404], [4.029058942954726, 48.02646890283958], [4.047158398073931, 48.02057134786971], [4.037976566559937, 48.02188241155725], [4.014355137280477, 48.019911520557514], [3.9956347489969875, 48.01288935755025], [4.017602678255161, 48.02700611065354], [4.061953503351069, 48.03803445605897], [4.094248257836021, 48.035608884570884], [4.108722001282831, 48.03171555102387], [4.113515169988827, 48.03210126306857], [4.109435919018564, 48.03150403407983], [4.089814417824754, 48.02419137417619], [4.070181182046397, 48.01023338485912], [4.075040098335405, 48.01614845209932], [4.1029284562847215, 48.03766925625434], [4.147672203370934, 48.05310282490535], [4.202157398818868, 48.04955722549545], [4.236344453831133, 48.034083772520894], [4.237096112552678, 48.03205188985943], [4.192751123288606, 48.03861583722036], [4.137870083635851, 48.012642430861845], [4.114907026753966, 47.97402285656412], [4.111757046136906, 47.95096836127848], [4.111136469155928, 47.9533114557796], [4.1125542867379785, 47.98367703707679], [4.141845868743399, 48.04092010394127], [4.2319503679924875, 48.07147628563243], [4.293572232791042, 48.039887754417364], [4.310882219518284, 48.01834950515601], [4.313171606037795, 48.01623193655946], [4.310698336228693, 48.01801511252526], [4.295292303361903, 48.02239017129509], [4.3731076394848385, 47.977421049815604], [4.36332990965825, 47.850825782318815], [4.362681295945797, 47.84979211487896], [4.327065743446608, 47.92043705514312], [4.258152165655303, 47.945112480908634], [4.306173701490986, 47.946239101125805], [4.345654338747869, 47.93773907150487], [4.389081358781766, 47.906470002923136], [4.432246279993239, 47.82433819110555], [4.438578508933156, 47.75200475040182], [4.389673526646068, 47.67986133506529], [4.336565242181365, 47.67119771131984], [4.355997541833563, 47.710321295954756], [4.356081484127439, 47.67489088095071], [4.342281225567985, 47.62573193370112], [4.321983303973488, 47.5925414301319], [4.298533122633643, 47.57134618812482], [4.285630672349587, 47.54493253093469], [4.205198753808903, 47.44686574066602], [4.192659113696862, 47.44248716389827], [4.214151254407528, 47.47591936121399], [4.209742192442563, 47.4178632495826], [4.155235339100315, 47.355177026376325], [4.119432313728781, 47.34149986575394], [4.1305804489009565, 47.34756859986488], [4.151586751798922, 47.36937078650273], [4.164762902726157, 47.40933298484431], [4.160668935999, 47.440530295513206], [4.147256234459576, 47.45491298851365], [4.110831373243297, 47.474917850950725], [4.118528650250579, 47.473662642287294], [4.163083437697194, 47.450317317202824], [4.195845079061621, 47.40280271755866], [4.179786418102569, 47.27161567971776], [4.066761229104966, 47.24177422732772], [4.084435926336003, 47.2463298123961], [4.1040678871099585, 47.258322891414], [4.099838015511811, 47.25155948029265], [4.053835915604213, 47.2196051376079], [3.9754886147332815, 47.21556124205397], [3.895886685561316, 47.268418806026304], [3.8765982792417573, 47.33039897217988], [3.9265510825108674, 47.29603740943473], [3.8819422769081693, 47.26744963859031], [3.787655998031089, 47.3157256712561], [3.769380331633341, 47.4031702711765], [3.779494788217285, 47.428280535747355], [3.7795473297178686, 47.395575931551576], [3.7953680768993503, 47.362758236754736], [3.8260630305004284, 47.33965419524679], [3.86174193594333, 47.33288437076276], [3.8886339806625285, 47.3391264996761], [3.9093771088672127, 47.353595844221104], [3.922136719504248, 47.37044973518703], [3.9144902675119546, 47.350871170499325], [3.886021536150837, 47.31460084655103], [3.839795148076966, 47.29007615167835], [3.7935799226706752, 47.28652438191473], [3.6747979524185945, 47.320370331526966], [3.6036315977463413, 47.36554577632715], [3.610980210503232, 47.36337600118779], [3.5937062232160515, 47.36285317062629], [3.535076998337274, 47.379986298176526], [3.494198577584277, 47.423269059572895], [3.4913005300955895, 47.43110146068258], [3.498673524233567, 47.42258076457139], [3.4653347081522403, 47.44478888215817], [3.435503481728923, 47.47847043394057], [3.5424255951522374, 47.473590153125144], [3.5941310893142915, 47.5208059959373], [3.543987726590948, 47.41078193243689], [3.4099034687830083, 47.40897421721622], [3.4244103465672144, 47.41220569539051], [3.4058407945378972, 47.397116799112716], [3.3613090867702398, 47.38172985892929], [3.3072298311147224, 47.38454159992503], [3.27274372810999, 47.40296426645453], [3.304753467111544, 47.40282859919092], [3.265309445215454, 47.39141734798619]]]]}}]}