{"type": "FeatureCollection", "features": [{"type": "Feature", "properties": {"name": "Bretagne"}, "geometry": {"type": "MultiPolygon", "coordinates": [[[[-2.447019992448788, 47.35363976848234], [-2.4997510636479894, 47.35657821650056], [-2.5818272612420183, 47.42217923775516], [-2.5784621697692667, 47.45755046913046], [-2.594255166935489, 47.50103221986545], [-2.512363648059262, 47.59373557061521], [-2.4323695354271697, 47.59960570989564], [-2.391671877371965, 47.606902848064074], [-2.4632422648530254, 47.51781080195386], [-2.3835648264580125, 47.40928248971482], [-2.401524464789396, 47.4062019404618], [-2.4387797442641665, 47.407074997023905], [-2.520106940387493, 47.42838804968508], [-2.518510918207014, 47.4283932524246], [-2.5150726430161265, 47.42844627620687], [-2.5521150718045145, 47.42046173342496], [-2.5893654967585342, 47.420487089082286], [-2.571596708535487, 47.42533405566234], [-2.5823643409548653, 47.41982709637502], [-2.6434599915072066, 47.41581175575979], [-2.729637230774951, 47.54139822509881], [-2.642757588443329, 47.618322922199646], [-2.6494777091167983, 47.61565157822895], [-2.659773169934381, 47.606262267233454], [-2.644976542828539, 47.480772734331225], [-2.5580342511257785, 47.44969184518382], [-2.60415387051496, 47.442086021144135], [-2.616461277452247, 47.44314857788695], [-2.5382599604353917, 47.54136081113366], [-2.6080533729601894, 47.636665842068965], [-2.573156221036674, 47.62332757644163], [-2.535281457319903, 47.58661192395512], [-2.5366990818250694, 47.46815764042885], [-2.6504823224217855, 47.426711132569544], [-2.684796176384372, 47.4329187421062], [-2.6152636387003674, 47.447059232823435], [-2.5863507960846923, 47.45060662926591], [-2.6740206301579965, 47.40444366844311], [-2.723733555275138, 47.412869981478366], [-2.716917161394194, 47.41257766581099], [-2.767973732621922, 47.400519100477716], [-2.802460960902782, 47.39811447112609], [-2.8368854780749433, 47.40118421820547], [-2.873810130452767, 47.41362208893552], [-2.9173030528550528, 47.44474785965087], [-2.9294091213801643, 47.46148537841051], [-2.9163764537640886, 47.452518167160356], [-2.920226860226313, 47.4536058957013], [-2.926497444643007, 47.46038806416623], [-2.899903424192536, 47.44762603444894], [-2.9120892403726084, 47.44911398222602], [-2.9905553020580338, 47.52599363969917], [-2.985718582245421, 47.58259518878064], [-2.9675292083944136, 47.488311235005455], [-3.0087461588306716, 47.548391314091205], [-2.915235056491626, 47.66399314857225], [-2.820154444611106, 47.65586283087544], [-2.8053590004576567, 47.63572968467211], [-2.8808784017543183, 47.63935109410246], [-2.891709673379175, 47.63625589250091], [-2.8399581243251872, 47.65373908309419], [-2.7865228302764895, 47.64459716997436], [-2.856247627338139, 47.63825212616385], [-2.9116393109829413, 47.57976349089905], [-2.8352940123608934, 47.66424508891362], [-2.7508167162390795, 47.645308703610546], [-2.7611343234590233, 47.64926296586546], [-2.76540292153622, 47.648424435226296], [-2.818891263651431, 47.57692704622262], [-2.8276488094810723, 47.56695110953538], [-2.774924934079336, 47.65492433677303], [-2.7794164756262374, 47.59309571679364], [-2.6652226671258097, 47.5516581303601], [-2.6177827884897624, 47.68262429005063], [-2.6132178921072664, 47.68449129437402], [-2.601202629323305, 47.590433264278815], [-2.65878350004428, 47.52796878791561], [-2.6148844690608892, 47.6029059850898], [-2.60147151801685, 47.627523817856144], [-2.644690825397325, 47.524112236815014], [-2.6835986496979913, 47.505458831064], [-2.7584635833262645, 47.509360418761766], [-2.7834505930536744, 47.525990634246334], [-2.872165390681774, 47.654247305146576], [-2.737900469120183, 47.725639539416946], [-2.8220294334728293, 47.67059370724234], [-2.8022982746197727, 47.550988330302474], [-2.784446275925705, 47.5425683402029], [-2.6927624685867655, 47.61603017106601], [-2.6755322105446018, 47.63102666312267], [-2.776978852773737, 47.531704580783156], [-2.8147028356530543, 47.53177635772297], [-2.788412198731298, 47.54729259396754], [-2.8086359820275115, 47.52579793855928], [-2.86317873689841, 47.50374943829754], [-2.984074720162254, 47.519236059116146], [-2.9901336781186547, 47.672462678118656], [-2.9833786781186546, 47.672462678118656], [-2.97907947711678, 47.53443493621067], [-2.896260919332019, 47.51208010000738], [-2.8697255067678062, 47.52535427527221], [-2.894832062794641, 47.509361807682744], [-2.9991336462375484, 47.521160147567684], [-3.0416854551683827, 47.59371494382483], [-3.043796654364807, 47.63831893501873], [-3.0163003887978417, 47.698348884374326], [-3.030237625261286, 47.61280783986433], [-2.971708633167115, 47.53988277821765], [-3.023055426748499, 47.56621359272188], [-3.05619647025988, 47.61133423451373], [-3.0302005201444304, 47.58615058793556], [-2.8980534834449854, 47.599551552882055], [-2.876873110009476, 47.68249546088901], [-2.8724384298320134, 47.67102045286792], [-2.8676745054808057, 47.646343492163595], [-2.8686650256949897, 47.629710978191014], [-2.876372683715683, 47.651487483776705], [-2.8821064564699506, 47.66031422991356], [-2.8819589846116163, 47.660299333554235], [-2.8379370071072803, 47.60518914295069], [-2.844816022220627, 47.525679269946274], [-2.8523947555470763, 47.51176385397251], [-2.9381553004986074, 47.460792766786554], [-3.017884259608509, 47.49856064419196], [-2.9695454509614, 47.47583532252476], [-2.970414822316233, 47.470959907270206], [-3.0344223189886104, 47.50024825799929], [-3.042056769447231, 47.508193253726844], [-2.9283217821053307, 47.52055285223342], [-2.889862992291545, 47.566393007409815], [-2.966688734229792, 47.47993894880863], [-3.071504804190618, 47.50545061652145], [-3.103995016616252, 47.56319658913], [-3.0644597822306885, 47.5221587411052], [-2.9502111565209272, 47.532344063907836], [-2.9218974557090633, 47.6005382332504], [-2.933003388262127, 47.52501294128714], [-3.0439071439675005, 47.482916632815964], [-3.0773628784979286, 47.492366937105885], [-3.0559626931072366, 47.489005645563324], [-3.0532649613875114, 47.478622969947175], [-3.106064804351568, 47.47684650935563], [-3.2037424967524184, 47.580103558320594], [-3.1435111602537593, 47.672744596728315], [-3.190726197002488, 47.58868049667074], [-3.1469826294779435, 47.505668500901564], [-3.130503722959677, 47.500906447586424], [-3.0779811795474514, 47.509630349058426], [-3.0360273113533305, 47.61716887419591], [-3.0798074445269297, 47.67467848688971], [-3.0724762529116783, 47.669562365577704], [-3.0274225035530526, 47.62355357777647], [-3.029071309071883, 47.54167429396693], [-3.03142474149831, 47.55851788092048], [-3.0342891284174667, 47.564700535133746], [-2.9906958937150523, 47.443681212156925], [-3.1091030557143164, 47.37930842150387], [-3.0982091971180994, 47.38482388424963], [-3.0956651519882588, 47.382764424898916], [-3.1870725895232286, 47.39494510464491], [-3.239749267877344, 47.478892544234945], [-3.245369311145345, 47.517165648286884], [-3.2371464126292175, 47.56136177660825], [-3.228392192194772, 47.57654487187764], [-3.2316688321942633, 47.560053884792474], [-3.2311911037426837, 47.55646987563518], [-3.226973218912511, 47.54666602696047], [-3.2215027093974125, 47.53917069773582], [-3.2172006242116957, 47.53606987964502], [-3.2096567959677507, 47.532198722191616], [-3.2201723414096675, 47.53516053793844], [-3.2608675729125065, 47.55680494712573], [-3.2985825514882254, 47.61964777682283], [-3.294310653077887, 47.68085819456757], [-3.2533646896582624, 47.754831849379464], [-3.20624057556747, 47.73525498663463], [-3.202933865949296, 47.66168583652654], [-3.2143138089798775, 47.691275046779936], [-3.2178529768607205, 47.71618969487553], [-3.1719291582998244, 47.647891245109776], [-3.0888041465681666, 47.63587906587083], [-3.100730082030029, 47.63267153814827], [-3.192013220363687, 47.639791901585845], [-3.2397140162501707, 47.74882726573054], [-3.212954211513907, 47.685114535104894], [-3.100324092583525, 47.66331281511521], [-3.1159968656241386, 47.649184174546164], [-3.188917649421147, 47.64705522827924], [-3.1873249112860655, 47.649018936305744], [-3.0933750306327323, 47.740259237722924], [-3.1351733050826445, 47.83253508540257], [-3.094890117610633, 47.80181491749593], [-3.0719188697759003, 47.76532912513867], [-3.0745205385594976, 47.65763511649339], [-3.1255451942473544, 47.61798418209269], [-3.075570630171846, 47.664847953913146], [-3.0667618702947306, 47.689372025032455], [-3.130345104180661, 47.6109309732736], [-3.1771781647732116, 47.6100351623293], [-3.1302345662496487, 47.62294152609881], [-3.151181794016989, 47.609205524459], [-3.1102512903814996, 47.673570552379644], [-3.1368798822284405, 47.76888044299714], [-3.0960382140105134, 47.66002997241302], [-3.1420826453313917, 47.60320324435533], [-3.1198604868213313, 47.6307351112281], [-3.140921012904641, 47.59350133048038], [-3.227128842081414, 47.556442134509986], [-3.285747023966849, 47.57627594049966], [-3.3030940096728085, 47.5925434451412], [-3.3060773157221974, 47.590390325367395], [-3.341721404128937, 47.59724347424974], [-3.4575146379393185, 47.68509748337053], [-3.3499357849783955, 47.801821846235924], [-3.3067002205734313, 47.799752032204786], [-3.344259072099568, 47.769894394305624], [-3.3657006590722047, 47.6416723984664], [-3.32911563581887, 47.608660648116384], [-3.331355780164288, 47.60921884234113], [-3.4313962249412153, 47.64279964683731], [-3.431355203193278, 47.78670031044759], [-3.376379828237615, 47.815341066565516], [-3.4242533751937705, 47.78240132348949], [-3.44335878711061, 47.73742875197758], [-3.4376842699237917, 47.77047321172798], [-3.377406023448653, 47.832454728845875], [-3.328051663356359, 47.83763693893987], [-3.3753049433004523, 47.82041071810792], [-3.387653161051261, 47.81658231548599], [-3.3604684546983394, 47.84895181548783], [-3.3685321651499276, 47.83111617798455], [-3.3261059255533696, 47.69728870803081], [-3.2462033612354095, 47.68873067199718], [-3.2861129401237905, 47.66354336077484], [-3.3356001984583177, 47.644018920451096], [-3.2837384322444696, 47.72638111719788], [-3.328848730788736, 47.82249905021207], [-3.3040918335268157, 47.805660131625515], [-3.2714109747537865, 47.7612298234226], [-3.288105962872019, 47.653911662360414], [-3.4484723049588886, 47.60459663312781], [-3.513371526238755, 47.62259335786843], [-3.5372968885407525, 47.64395512694545], [-3.569158525981901, 47.67202600195703], [-3.581848468480863, 47.69072359576018], [-3.586995848024596, 47.693666609569256], [-3.6056328484222995, 47.714008770248995], [-3.557180892305262, 47.68419230804974], [-3.555148412535769, 47.67501332903646], [-3.630687899306396, 47.727619517712036], [-3.6476308029239735, 47.765610427889335], [-3.6533638376823694, 47.80603826946747], [-3.6461747695435966, 47.84798629527932], [-3.6294668015030744, 47.880575198285236], [-3.606161841546544, 47.906888054616566], [-3.570378826402269, 47.928567085276676], [-3.524588725111532, 47.9375626420153], [-3.4837722457765206, 47.93119068526352], [-3.478118772600487, 47.925752595921296], [-3.5123957807028705, 47.92239370699273], [-3.537734253181599, 47.90582147628596], [-3.5510310214719976, 47.888171303188194], [-3.5419594927729245, 47.907045246135404], [-3.500466472265271, 47.94764648404879], [-3.4468258635559463, 47.96428206979315], [-3.4353404630756508, 47.95997330935398], [-3.471974095147141, 47.93827001970594], [-3.486131734740628, 47.91566148124454], [-3.4857039338211466, 47.922438862531486], [-3.4847440960760085, 47.91223194693262], [-3.4761665572233302, 47.895574173160156], [-3.44859684635158, 47.872576615634564], [-3.4249035892497006, 47.866446660339044], [-3.47681143159315, 47.85876140685139], [-3.530719431739316, 47.87059383482092], [-3.5732057354805464, 47.89256495364418], [-3.5670958030141455, 47.890787680976004], [-3.6458200258556817, 47.8845131339565], [-3.7200225171378762, 47.926690670845694], [-3.7592221200707203, 48.001226109206016], [-3.752330918737466, 47.99241856491429], [-3.7706560880664726, 48.00704972419125], [-3.7826666974239243, 48.01398824922584], [-3.818988802728518, 48.05456098376334], [-3.8318287209759516, 48.12442618099419], [-3.8028336959409215, 48.1942381567965], [-3.7516280721611803, 48.23336369741681], [-3.566758526488071, 48.285716189490124], [-3.5328096037169083, 48.27961136011174], [-3.441788334666839, 48.28401307034621], [-3.396770612503087, 48.272312396523525], [-3.347971075843058, 48.224215180362236], [-3.336291434760404, 48.176222268899295], [-3.3369650560645496, 48.175224966878716], [-3.352891967980455, 48.21791218958601], [-3.395597040518491, 48.24781816260846], [-3.4175927431364173, 48.25083760824074], [-3.374350651334242, 48.2652969609468], [-3.3140816358866902, 48.26487536689088], [-3.2642872406381476, 48.23553245446819], [-3.260826143443573, 48.23016842554947], [-3.2799489409373352, 48.24263588621738], [-3.2848997855348823, 48.243934825534495], [-3.183858974433782, 48.253659860144865], [-3.2021603189203427, 48.24509628787268], [-3.223399924165072, 48.22347018663945], [-3.216322351371442, 48.245178162792755], [-3.1729756379952794, 48.28924135006966], [-3.1093585835395703, 48.30712636159122], [-3.020614547279811, 48.3029154100139], [-2.9558695926199103, 48.27790000714113], [-2.919859312648704, 48.230998114947], [-2.9158562936945307, 48.21259024838985], [-2.955728429148817, 48.25041531510122], [-2.9986748867185233, 48.2596565581937], [-2.951340758349404, 48.27131257361004], [-2.892529700830813, 48.26571739082673], [-2.823677599806802, 48.237818148395846], [-2.785081370781234, 48.23229181454405], [-2.7296302579926786, 48.204440799739984], [-2.7055566963975517, 48.16768947450972], [-2.746299103732926, 48.19086700148645], [-2.7944565257530796, 48.18845658692036], [-2.7716127432529216, 48.20595760045484], [-2.664335892390764, 48.22889757064163], [-2.5755618998257166, 48.17824565404682], [-2.5800992943150343, 48.10069819205574], [-2.644476166457834, 48.13426108140069], [-2.6510151435239675, 48.13686647423393], [-2.617540736568583, 48.158677160489646], [-2.6277584677564785, 48.14399806340173], [-2.6334547182030086, 48.128279596997935], [-2.628475793913896, 48.17562890466729], [-2.583831348813017, 48.24046890097901], [-2.5227179933297643, 48.2637968496817], [-2.4153350178825614, 48.26691445419216], [-2.367613718470507, 48.25592625502058], [-2.3367805331485405, 48.24052454751945], [-2.3076326277587564, 48.21623985221867], [-2.294203269440965, 48.19403846768331], [-2.3309225461071454, 48.21424655209468], [-2.363254474381601, 48.215572623426304], [-2.3277175160388803, 48.23094882325094], [-2.258739700284643, 48.22951178273003], [-2.202815610214948, 48.19627416641909], [-2.179864976248459, 48.17151476778154], [-2.170799531506484, 48.15272884515208], [-2.2029921116459814, 48.17325224208588], [-2.2282190795735715, 48.17801231595706], [-2.209311577050217, 48.18060300462479], [-2.1577358728927245, 48.17497475608693], [-2.0907336777333385, 48.12220260366065], [-2.087247346122805, 48.02092693935365], [-2.1487611844574532, 47.962023476902274], [-2.208627764187093, 47.95169855737511], [-2.178099485660487, 47.988730649631165], [-2.186809208955161, 48.05919319072822], [-2.2250690313848036, 48.09267683530689], [-2.1382808522665524, 48.08028118904892], [-2.070676092793154, 48.04795728105199], [-2.04178993065602, 48.02452061451874], [-2.0187882761681544, 47.99393620406674], [-2.0046443522958546, 47.95831675923228], [-1.9998180595253572, 47.92370091115519], [-2.001264550658205, 47.89707940406091], [-2.0064649303540705, 47.8764677873128], [-2.0078729401504587, 47.844463227586076], [-2.030229927601972, 47.9098266960248], [-2.061901411061079, 47.9481049877348], [-2.0122638518088256, 47.93350215178171], [-1.9578003506040333, 47.87058391294762], [-1.9553158911714377, 47.79773246180858], [-1.9741886110002862, 47.75456667857857], [-1.9979553647044384, 47.72481481421073], [-2.024826967170537, 47.704320868877765], [-2.0541967088605873, 47.6918168798642], [-2.0815937319852313, 47.687025104639254], [-2.062789444734709, 47.69584115689293], [-2.0292408277003076, 47.737714552115236], [-2.0384874386211504, 47.81947603722337], [-2.086299105027495, 47.85586672657945], [-2.024628616116141, 47.84549376118356], [-1.9629589680448383, 47.7551936107881], [-2.001553321556956, 47.65978064564843], [-2.06564383735409, 47.63386251686367], [-2.0944471760173995, 47.634269685531144], [-2.077124118837894, 47.639580275655376], [-2.0390332499284924, 47.67316886600482], [-2.0263235032677853, 47.71508104317937], [-2.0276990466637734, 47.72776437553984], [-2.03298795509162, 47.739710689696636], [-2.0240359649644013, 47.727910299939964], [-2.0085285864188682, 47.690265345086665], [-2.008429150308702, 47.6675712932044], [-2.0308020717336066, 47.70877524630068], [-2.02206424298605, 47.707323905491364], [-1.99820282648477, 47.67630412824966], [-1.9838930747068184, 47.62868359791379], [-1.9929919920696308, 47.580485284097065], [-1.9906720698484888, 47.589285862705644], [-1.9878885877624393, 47.62459767485748], [-1.9858573825830144, 47.605879340381136], [-1.9988203588590252, 47.55707241349704], [-2.0070361061132265, 47.544365854875835], [-2.005317769741797, 47.54851061710218], [-2.0207011791143037, 47.49725448328865], [-2.053724339820298, 47.45469952093866], [-2.0940847820413877, 47.429793289695965], [-2.106055084292321, 47.42671446163638], [-2.0883931300355987, 47.43800702191038], [-2.075294174779894, 47.45273558389501], [-2.08271579425767, 47.43871292424567], [-2.1095614417118354, 47.40912038796228], [-2.1453603864057578, 47.388398304495276], [-2.1950898856462646, 47.38176887332909], [-2.2452816203841883, 47.39805199868477], [-2.2807335706551886, 47.432162674816325], [-2.2968305418571338, 47.47025489614369], [-2.2991160077932613, 47.49863499471655], [-2.2985623569578992, 47.49774176586985], [-2.2846040873979403, 47.45237465420285], [-2.2389750665751653, 47.41364825306829], [-2.1955674434514902, 47.40877234125339], [-2.1949391139936174, 47.4058760587459], [-2.222551290008768, 47.398425596995736], [-2.2585019350899858, 47.39539597623487], [-2.293848883632678, 47.40237949912598], [-2.315362308182453, 47.4120154754351], [-2.332378944189386, 47.42365750454891], [-2.3296169651570184, 47.421848902734375], [-2.314887581473672, 47.413022987620934], [-2.293995367380512, 47.40779350578643], [-2.268968137190268, 47.40866166047995], [-2.257952868921793, 47.41210231744644], [-2.238806274450345, 47.424331667647685], [-2.2200148125428942, 47.444950234520554], [-2.2220131348828995, 47.44094624830689], [-2.234038608424885, 47.4241566859137], [-2.2482997238247044, 47.407971763988535], [-2.280667642030988, 47.37970117704473], [-2.3217553864938245, 47.36240066150909], [-2.3546752806295626, 47.35840493365261], [-2.3672279901355084, 47.35912827551582], [-2.364616581915817, 47.3592642236808], [-2.3881202343469816, 47.35550880361855], [-2.4204421241967724, 47.356945871246054], [-2.4481185435852386, 47.36463139998587], [-2.4581154388904145, 47.36907962669443], [-2.4441618456246266, 47.366445482731514], [-2.422562573025502, 47.36750346575689], [-2.392550090563613, 47.382110307336305], [-2.4022845962773784, 47.37119902653984], [-2.4282816951135073, 47.35818644329909], [-2.447019992448788, 47.35363976848234]]], [[[-3.069169460319017, 47.42054504155208], [-3.0876828482156795, 47.426205362562264], [-3.041927931466804, 47.423448756108414], [-2.9687235370988567, 47.35448838555655], [-2.9971152924133753, 47.23042575145776], [-3.086912479785295, 47.19684200609526], [-3.184919467297038, 47.20245835597628], [-3.2554916277615358, 47.21743027236271], [-3.330748587267889, 47.27660932890344], [-3.3369602141345163, 47.324902702144236], [-3.332261196250408, 47.303387702619865], [-3.344314025029645, 47.32156398074842], [-3.3576804223288073, 47.41256172972801], [-3.3251544921665803, 47.458769873599735], [-3.298604997369711, 47.482391360220824], [-3.2154073301565473, 47.49145145129923], [-3.1980896266548524, 47.48283650441857], [-3.1966639391076934, 47.484384226013375], [-3.135990001465111, 47.46291290961928], [-3.092280814730163, 47.43864537633942], [-3.0848109962672705, 47.43222547685237], [-3.069169460319017, 47.42054504155208]]], [[[-3.448111054983583, 47.732698745049966], [-3.564718867174509, 47.67440479762455], [-3.597727150243259, 47.68016242115516], [-3.6201656055676366, 47.67917494814684], [-3.648488324251302, 47.682695036767974], [-3.682196253714373, 47.69593838572671], [-3.6939972346804137, 47.704900739571826], [-3.6664118526731273, 47.6951269946507], [-3.6970088464323934, 47.69281422576333], [-3.7648829722254162, 47.71599561544405], [-3.7762573233215866, 47.73189285989962], [-3.7206181677477597, 47.71341472337506], [-3.786446509911648, 47.69422022456722], [-3.8180572882412105, 47.70725325514666], [-3.803480900899858, 47.70322136193731], [-3.8299922235792234, 47.69981391555829], [-3.910114106803837, 47.719834991693894], [-3.939217165289776, 47.7535199627588], [-3.9418641200706426, 47.75655167293063], [-3.9331022352707556, 47.74932141880915], [-3.955935242644495, 47.765541240484566], [-3.989517682775336, 47.83402416927583], [-3.968327194247946, 47.79849561516487], [-3.910079628978739, 47.75650976949116], [-3.934608273586158, 47.763016031857305], [-3.9882147290071517, 47.796330325460474], [-3.999069012981147, 47.817193765758525], [-3.9866738334240313, 47.80219293416372], [-3.9892969869378323, 47.80381842646755], [-3.9082604702918275, 47.84348304217804], [-3.8792495453502447, 47.88141804524585], [-3.9093435433825507, 47.80426664849085], [-3.9863823166867305, 47.753832439908635], [-4.128480445384031, 47.867064070231244], [-4.025446920898418, 47.95427979931527], [-4.052469968423391, 47.94703877435354], [-4.085595631128026, 47.920294610267085], [-4.077277485236457, 47.8035264321201], [-4.000311972188826, 47.76722866028056], [-4.008028262712466, 47.76724271517385], [-3.970033187145516, 47.78488711149066], [-4.010601191051648, 47.75851163540913], [-4.102690828974385, 47.77819804910082], [-4.0947164189803695, 47.77578336954622], [-4.115708319998017, 47.77777277568596], [-4.159316384091392, 47.79516332436615], [-4.196305929429131, 47.82812421806506], [-4.222275849139181, 47.87120964975281], [-4.158872880338637, 47.827521051884034], [-4.044283092938515, 47.894458189280265], [-4.052923273691225, 47.9513207690485], [-4.060429848702151, 47.96096050529357], [-4.023493166318612, 47.923519690430275], [-4.038570215185526, 47.8005457048313], [-4.1091187565741, 47.769676969033064], [-4.099534495791071, 47.77218396329308], [-4.0928095882159194, 47.775066942280326], [-4.166391100865473, 47.75598414460783], [-4.204825902063139, 47.782695138921646], [-4.116471141863787, 47.802175346556865], [-4.098218656590846, 47.90520255173986], [-4.076849027951903, 47.87915822450048], [-4.102392177184831, 47.7843058097286], [-4.088650856207889, 47.80762288750561], [-4.109332321881346, 47.91269667811866], [-4.082029321881345, 47.91269667811866], [-4.064862896428919, 47.786734638632275], [-4.139076437370802, 47.72465895014196], [-4.172230809618407, 47.71128996881973], [-4.217248411490303, 47.70275009268188], [-4.446227188698976, 47.74039049875642], [-4.471163150044177, 47.81069521781303], [-4.473269310679257, 47.83457232380442], [-4.446649912875628, 47.90079063260258], [-4.384865718361549, 47.935204604087666], [-4.363274805795859, 47.93680297167746], [-4.404573987476692, 47.9205383797754], [-4.442611794647307, 47.86087692090877], [-4.440944739154132, 47.827807853954866], [-4.452894576006421, 47.84642428036067], [-4.458967096495521, 47.86651459335488], [-4.458696312658284, 47.86440629171496], [-4.491314963377767, 47.89326330480057], [-4.563817936621347, 47.93128324198947], [-4.53095723436671, 47.926339840617096], [-4.495328516834382, 47.93494309789369], [-4.5094720455269135, 47.92380893356394], [-4.583495999920362, 47.90658871545256], [-4.636269845861774, 47.93165042075975], [-4.62320923000751, 47.927734961184925], [-4.660381222405395, 47.92658696979382], [-4.826997770453231, 48.02553035581319], [-4.784783316107044, 48.12156872176441], [-4.796840614396234, 48.1097284831844], [-4.7926287053299745, 48.11610472375724], [-4.796823380824354, 48.10620268880428], [-4.8022811130156375, 48.092832129778884], [-4.789369817413779, 48.12372492898763], [-4.7412684755342, 48.16621741298411], [-4.666981299326941, 48.170152484105316], [-4.645658403059603, 48.15869950731545], [-4.67850670283558, 48.16719279713388], [-4.359348962374991, 48.21567573729261], [-4.308342850146901, 48.204006723589835], [-4.349653192239262, 48.18841098315557], [-4.375586266695637, 48.15856440194771], [-4.375679155384097, 48.141305061816276], [-4.361587312424477, 48.09685635974621], [-4.374879378321486, 48.107783270222605], [-4.392477264163396, 48.14321364286012], [-4.385044427542822, 48.14011684797135], [-4.352248716614008, 48.11238098629105], [-4.385096720394082, 48.11553708845822], [-4.416428411416676, 48.12873183688439], [-4.4437547837461855, 48.149950878434844], [-4.464600375811701, 48.17800190200342], [-4.42580425554775, 48.14385813915247], [-4.412451405525112, 48.12646924266323], [-4.466650976495926, 48.14937663069385], [-4.432861333551607, 48.15757357389637], [-4.4185229970930955, 48.16692711781945], [-4.434344315451599, 48.14162051161109], [-4.481674480502282, 48.09647302263887], [-4.633820667983608, 48.11259327718026], [-4.63568508703724, 48.24782690118818], [-4.643547987300266, 48.198374279657784], [-4.631459967518406, 48.15203747230266], [-4.650173615655522, 48.179420831768134], [-4.663558445374896, 48.23612278847456], [-4.6334854465563815, 48.310554821906585], [-4.612789333513604, 48.32717649428563], [-4.646872549795076, 48.26055173764652], [-4.608366284611097, 48.17878926785284], [-4.576227671543107, 48.16537561099836], [-4.706054780533273, 48.206179142128086], [-4.723685342332663, 48.276469212956464], [-4.715035511674047, 48.33322519619508], [-4.63003007933917, 48.39000509170588], [-4.591279817754392, 48.389337921785916], [-4.579836660770151, 48.386586392595206], [-4.593241405253555, 48.38691117323785], [-4.642503301847022, 48.363972591146926], [-4.672894237325813, 48.29528624758289], [-4.667614614459699, 48.26491465374104], [-4.677194003979286, 48.311154471426995], [-4.631891372510006, 48.407655958861795], [-4.559788524894134, 48.44596901647264], [-4.440675049522906, 48.386294866594426], [-4.453642956143506, 48.349161949643815], [-4.502476681994464, 48.394987999113106], [-4.412631910361448, 48.39906829173687], [-4.373038188175906, 48.38674062298209], [-4.360660833921613, 48.379478398246384], [-4.373922396210501, 48.38454697931641], [-4.386230390240299, 48.387016998292516], [-4.389512483567799, 48.38698347152764], [-4.341585899710594, 48.39631523404847], [-4.167498026420527, 48.330938786183054], [-4.226909087980721, 48.205110998100125], [-4.260500997494903, 48.19510173031717], [-4.190675410072917, 48.28146896519983], [-4.263453528711758, 48.388223533901936], [-4.263011419805188, 48.36558165595413], [-4.256528616127705, 48.23517884963358], [-4.232218991895534, 48.206958595304634], [-4.300372427647811, 48.238303846567455], [-4.260849064595172, 48.2251940059008], [-4.201085622555829, 48.22357070916544], [-4.2615974805348396, 48.211422163754634], [-4.332049375391916, 48.23612607532364], [-4.318591138519055, 48.23451849453188], [-4.2704070277312685, 48.22434699408318], [-4.415368245972489, 48.27955021481447], [-4.377579080584607, 48.40983237120152], [-4.349237271247619, 48.42591618600339], [-4.379482787226643, 48.40054625315472], [-4.392122353768725, 48.38519892529985], [-4.354465105558964, 48.426684433012525], [-4.340242365593175, 48.434223128037615], [-4.364217228794075, 48.330965315373824], [-4.263357177478132, 48.2651989072368], [-4.277291679082492, 48.25670588506269], [-4.388208989567306, 48.27121546558818], [-4.395406678118655, 48.42600267811866], [-4.388001678118655, 48.42600267811866], [-4.388001678118655, 48.29202732188134], [-4.276487276879098, 48.275125677721384], [-4.2529313017244075, 48.291551211267354], [-4.264154771806084, 48.28121705625325], [-4.308985768916086, 48.25267230430808], [-4.344922025865226, 48.25302496270108], [-4.35682307216746, 48.24193719208366], [-4.493053636844913, 48.28512765390007], [-4.465390020950962, 48.41795985398862], [-4.446395164657296, 48.429593178460486], [-4.498465722893444, 48.35337477724862], [-4.414662450561037, 48.2487810602992], [-4.370538837792745, 48.25336355848779], [-4.400623982434073, 48.24225964386293], [-4.427294252839749, 48.23717265010844], [-4.521894679813681, 48.2622315203527], [-4.543956368153027, 48.38472800623124], [-4.452082604826533, 48.470956970243186], [-4.42787652989268, 48.48435345267675], [-4.385833345503088, 48.40333809061309], [-4.280033540685648, 48.33195769928984], [-4.309028353387457, 48.32068613885792], [-4.341387751901167, 48.312674490141696], [-4.407232337815794, 48.30558735819837], [-4.424321531595012, 48.3005106516731], [-4.492970618386974, 48.272211142608064], [-4.545303668419227, 48.263285693013266], [-4.5787456875011445, 48.25231176173818], [-4.6221551943213575, 48.24850945244337], [-4.657072455377699, 48.25331435452168], [-4.689801385021329, 48.26234018577141], [-4.659127491106615, 48.26780017055881], [-4.6023903842520335, 48.31953171330899], [-4.594662014522208, 48.341435924258604], [-4.620000593131946, 48.27957777135769], [-4.686886490585154, 48.24318304181797], [-4.767820049602672, 48.24281194869831], [-4.821085011859494, 48.260419959534076], [-4.864935821960302, 48.30768929778898], [-4.865431543692815, 48.43353653477537], [-4.841819802417725, 48.44136314927602], [-4.860515593574311, 48.35679869117744], [-4.8781957755669, 48.385679680416864], [-4.884490725764178, 48.44523311720643], [-4.868268299797832, 48.501626423962314], [-4.81898276099716, 48.55471582159925], [-4.826893262287744, 48.5356306504535], [-4.834118167595494, 48.42592537210133], [-4.867153160976126, 48.45329385603464], [-4.851946844004924, 48.568818056605814], [-4.813824759110831, 48.61806817824459], [-4.740075487511233, 48.666534898666754], [-4.678490298275307, 48.65803338840605], [-4.7873077571547675, 48.610891187662695], [-4.806669823769777, 48.58583991511273], [-4.723898321553574, 48.67038048008906], [-4.687711034546621, 48.67855403501146], [-4.636854882314618, 48.68169632668196], [-4.596126037842309, 48.67450323473755], [-4.581496181726299, 48.66539288137246], [-4.673545124446083, 48.59518623703563], [-4.679514243839224, 48.52805740924841], [-4.702540250730602, 48.634830348269624], [-4.607864329297535, 48.70823806156785], [-4.541599456359638, 48.70096212285413], [-4.629431543815632, 48.6136016647752], [-4.651966040829533, 48.57635523991651], [-4.638466046631317, 48.6674344448195], [-4.652480654137072, 48.61159811951748], [-4.617919711588796, 48.542134567776735], [-4.647006687694881, 48.56822984518538], [-4.634339678118654, 48.700335678118655], [-4.491376508893776, 48.72944999893595], [-4.484001196209599, 48.73005402831209], [-4.4460567162038265, 48.74147758327588], [-4.504924689200923, 48.66151621231564], [-4.449188595297917, 48.553104529976444], [-4.503839211791726, 48.58669554626869], [-4.5013132902406765, 48.72389627359197], [-4.42240169307762, 48.757948425789344], [-4.401087673184209, 48.766939620948094], [-4.354423385350147, 48.77823392920474], [-4.28289645205092, 48.77194496203568], [-4.203292351125913, 48.692149071235335], [-4.227568895153792, 48.702936068457504], [-4.305588589972386, 48.74069704858341], [-4.280945413206857, 48.75135980583405], [-4.2453317614629995, 48.757484299752996], [-4.210583871021377, 48.75408596477949], [-4.1947299336104065, 48.74919658808408], [-4.264788138517452, 48.7204797496276], [-4.270792347631647, 48.59377750169913], [-4.3029064936037384, 48.61741436274467], [-4.282606393886716, 48.73768264804341], [-4.240578152061245, 48.76965576187294], [-4.208667295858456, 48.78486821587895], [-4.173832380203154, 48.79437732893917], [-4.1355070995498515, 48.79908203085547], [-4.088012223595045, 48.7959809299846], [-4.111860198509833, 48.788839993458], [-4.121645911960576, 48.79012963815499], [-4.040332450661673, 48.789040673082546], [-3.9953870906025513, 48.75367217594027], [-4.01948401332937, 48.77105483901314], [-4.0943302063988956, 48.78018289747039], [-4.128602271611844, 48.75977908814614], [-4.147454625837801, 48.72921180187328], [-4.1513622912986605, 48.68712308537968], [-4.143443033992334, 48.76163568472116], [-4.06144362369443, 48.81216534763384], [-4.062047785857588, 48.81192262069709], [-4.038379067628934, 48.821509244862554], [-3.959717732367492, 48.83179156016298], [-3.8762511718973425, 48.76987854805557], [-3.876662309188025, 48.68490106048126], [-3.8745776165061296, 48.700886309762446], [-3.9010369732978383, 48.777426573619884], [-3.8820881718948748, 48.766152848046325], [-3.8902973218813455, 48.62784332188134], [-3.8970523218813455, 48.62784332188134], [-3.884320756581819, 48.74621953952905], [-3.899632445438533, 48.76821067902923], [-3.8606146124427703, 48.72209064089236], [-3.8504238578657977, 48.656027112496226], [-3.8902519084574405, 48.73396461900695], [-3.970817612584651, 48.76585893473104], [-3.9206192245157894, 48.78084229475378], [-3.7938502661520204, 48.69720382713426], [-3.8603027054370105, 48.58111697849688], [-3.8253625960765154, 48.61189960107323], [-3.815055284663197, 48.70524659722677], [-3.840656677528344, 48.73801192603637], [-3.8114004135141477, 48.72565874389084], [-3.8528875387869888, 48.72961812552767], [-3.9443088876874643, 48.63631112507033], [-3.9517148876874644, 48.64310612507033], [-3.943881659474193, 48.65932701408967], [-3.935658459200468, 48.606504388492034], [-3.9469812030417297, 48.63192895719972], [-3.937237530597901, 48.74575528016977], [-3.8007769330363783, 48.77093613025538], [-3.7687062281958905, 48.73929699091875], [-3.781989264120585, 48.75329611396503], [-3.890707321613874, 48.75525286174909], [-3.9400768669064825, 48.688219152339244], [-3.9299079761764126, 48.744618553717444], [-3.8531335720605346, 48.81555798243796], [-3.8340409106450077, 48.81067528069625], [-3.8955852877443893, 48.77261748464136], [-3.9066814243381205, 48.748714675051346], [-3.9097478416343217, 48.73030589829354], [-3.8525459841964826, 48.82378026550721], [-3.7514431274131725, 48.810141195499554], [-3.770092471829378, 48.81700465462696], [-3.7205875741463923, 48.81833546346687], [-3.6819742647360205, 48.80814190774825], [-3.6561090982482964, 48.793202980431964], [-3.66920273833488, 48.79702285930709], [-3.6815722610796957, 48.79792690388118], [-3.5733032036367227, 48.78084359591763], [-3.5385423233685604, 48.6869967315367], [-3.540150839837753, 48.64641512590413], [-3.5455906755160433, 48.661875489441066], [-3.551096825196612, 48.66958161903405], [-3.5038317243465635, 48.62937156365211], [-3.481235259999954, 48.59520218073181], [-3.469208666138693, 48.556195346395896], [-3.470584315910397, 48.5042168296191], [-3.4908958935215044, 48.4597186530946], [-3.503093805358533, 48.451867685143014], [-3.504926514175671, 48.512215998185205], [-3.5472495484845146, 48.55763333541323], [-3.54291002599665, 48.56053173248543], [-3.497338510794355, 48.537451972425295], [-3.4596740908988997, 48.48122363826042], [-3.4568301504423635, 48.42050480486838], [-3.4790290460418754, 48.371065604949735], [-3.5204228378571893, 48.335248620236705], [-3.566132556946802, 48.32143130997715], [-3.584296170763872, 48.32235107338398], [-3.5519762207635104, 48.33586989136696], [-3.523251827382493, 48.36906966858723], [-3.5148553124728967, 48.39861673372999], [-3.530587381248917, 48.448206925365], [-3.573685062235596, 48.48370282809385], [-3.5470464762699785, 48.47646475095442], [-3.521414880270942, 48.46404098417186], [-3.494429711388029, 48.44260379664935], [-3.4701426351474147, 48.4057967306762], [-3.461531131219284, 48.36905146069553], [-3.4662339955280927, 48.379631415956226], [-3.4350279796642953, 48.33459338368201], [-3.423015686664245, 48.2790114972886], [-3.4422722270505677, 48.21096940069013], [-3.4609171471714104, 48.187326916901775], [-3.4542116438738564, 48.21855895845736], [-3.452148927276006, 48.15216685351532], [-3.533746466626324, 48.09071774303215], [-3.66483392783882, 48.053178302583184], [-3.6467843040590786, 48.06914384320349], [-3.633125279024048, 48.10168981900581], [-3.642077197271482, 48.14784701623667], [-3.6654353025760753, 48.17602775077416], [-3.660131911933527, 48.17373627580875], [-3.609725081262534, 48.132645435085706], [-3.5888598799292795, 48.10599589079398], [-3.5722494828621234, 48.061461329154305], [-3.6075159741443183, 48.08081086604349], [-3.5762881969858547, 48.090576319023995], [-3.5236842645194537, 48.08633704635582], [-3.462944568260684, 48.05876016517908], [-3.46864456840685, 48.058594593148605], [-3.425630410750299, 48.06644533966095], [-3.3659231536484198, 48.05468938436544], [-3.31167944277667, 48.00934582683985], [-3.2885779039239917, 47.95120405306737], [-3.2859920661788538, 47.91170713746852], [-3.296440265259372, 47.852280518755464], [-3.324417904852859, 47.80326198029407], [-3.384387536924349, 47.76657269064602], [-3.4269321364440533, 47.76527393020685], [-3.3992635277347287, 47.775141515951205], [-3.373304507227075, 47.79954875386459], [-3.3708689785280024, 47.8013286968118], [-3.394097746818401, 47.76665052371404], [-3.4449022192971293, 47.73412629300727], [-3.5044492273995127, 47.7274934040787], [-3.5410477542234795, 47.73956731473648], [-3.523215274888468, 47.737567357984695], [-3.496761173597731, 47.74260891472333], [-3.476030158453456, 47.75501394538343], [-3.4644351984969255, 47.76759480171476], [-3.4570872304564033, 47.782825704720686], [-3.453370162317631, 47.80444773053252], [-3.4553691970760263, 47.82070557211066], [-3.4625561006936043, 47.835932482287966], [-3.448111054983583, 47.732698745049966]]], [[[-4.995804237340615, 48.562685054923946], [-4.970354850970904, 48.539320618849814], [-4.979595303090875, 48.54836472685096], [-5.022546579996054, 48.56988570840358], [-4.969371916214413, 48.546622538290684], [-4.955066211380981, 48.407270541484294], [-5.0641444524333865, 48.350088540898064], [-5.170951253155606, 48.36900827524764], [-5.179971464967289, 48.51826590966126], [-5.102384978545604, 48.551849751402536], [-5.0955335961062245, 48.551116157050636], [-5.1814950527093995, 48.49583377702393], [-5.155829658336745, 48.37991228797622], [-5.108001314385238, 48.36336674237055], [-5.19624804054096, 48.38102346364974], [-5.215142527241752, 48.52190037490889], [-5.118909430882995, 48.5770313350408], [-5.062218464950546, 48.584822788926175], [-4.995804237340615, 48.562685054923946]]], [[[-3.7018107701238465, 48.76525025350171], [-3.6039291997691745, 48.7821762988603], [-3.6023075258357213, 48.78126037076246], [-3.662317034391212, 48.727699020412416], [-3.6749861833566158, 48.67841418956401], [-3.6835855953491694, 48.740190503124005], [-3.6350017014203266, 48.817047591425386], [-3.6273106290732255, 48.75359032048656], [-3.5948244614402065, 48.66024935059844], [-3.6618847557522356, 48.72076472428372], [-3.6766671200646233, 48.82140585734429], [-3.6189380308565062, 48.88703658090097], [-3.5976620383047777, 48.891277299395114], [-3.6007561440493685, 48.89378721091635], [-3.5623279899250644, 48.93019186917714], [-3.485040274522063, 48.93898739442318], [-3.473694105455278, 48.93350698030414], [-3.447634476278929, 48.9335563441479], [-3.4123679171209482, 48.91993469343427], [-3.3220883075166627, 48.84294123565594], [-3.365898552108987, 48.73805846342449], [-3.3482543595496956, 48.75552247698682], [-3.345789583799554, 48.75839035350123], [-3.342904420008521, 48.850487050864125], [-3.4103525923371545, 48.906543980316606], [-3.42108445444251, 48.90452443407899], [-3.440569653655035, 48.89670591514998], [-3.4314881733837774, 48.904223313940435], [-3.405081743269843, 48.916800773605075], [-3.322285659552304, 48.93719278187096], [-3.298965167329988, 48.94662778324874], [-3.2604276087685307, 48.94898709688218], [-3.2851413992907252, 48.944383622553566], [-3.2563349073275285, 48.968654844524146], [-3.1531298868100786, 48.949454134914255], [-3.1090462517068036, 48.8748312082005], [-3.1098531186765936, 48.815537405461846], [-3.1350381561724627, 48.75774628487661], [-3.1334833202687284, 48.774845890638815], [-3.1320122993832387, 48.835165540738814], [-3.139849604976981, 48.85197138383927], [-3.2399018588728197, 48.89224071381837], [-3.3049415584513966, 48.85414983088068], [-3.278887423246969, 48.88761163768744], [-3.235450949019922, 48.92343064142494], [-3.211290073801015, 48.93703138562806], [-3.1654236943039304, 48.96034163742256], [-3.1538598439826018, 48.957403236949276], [-3.1588370685857097, 48.96466046359501], [-3.0931262720067956, 48.97608818753116], [-3.030248891805402, 48.950359404890285], [-2.990810798787719, 48.897596688828074], [-2.9876766688881555, 48.823894501616515], [-2.995522249636268, 48.81135408770805], [-3.004813798668099, 48.88685272381898], [-2.978375215527819, 48.84446358850481], [-3.0023664840399396, 48.76327180606349], [-3.013622898684473, 48.7397235563687], [-3.0322918506328906, 48.71657831180631], [-3.034375790536722, 48.726165245721596], [-3.0547673218813456, 48.830665678118656], [-3.1632539934420807, 48.849145138827886], [-3.160460199750231, 48.870654058315715], [-3.0958712387426734, 48.91923737617602], [-3.0669303754347803, 48.91985073372348], [-3.0727209037060903, 48.92122047909775], [-3.0286521849768446, 48.928802978995066], [-2.985060097705029, 48.9213143934326], [-2.9088514465913713, 48.8331094274633], [-2.9188303293437023, 48.83944232705714], [-3.0009055167759424, 48.91307187520336], [-2.9677371356308346, 48.90461971745236], [-2.9151043772685448, 48.84855746448403], [-2.9293967139823556, 48.746202742849], [-2.989991951934574, 48.709801696926945], [-2.9845462364237387, 48.71169557553763], [-2.956898378404192, 48.74225509445454], [-2.9559561259586133, 48.83820344452118], [-2.9918001922506217, 48.87317122087267], [-2.989548796898956, 48.87287164579434], [-2.939373273843767, 48.871357801764006], [-2.8497032426140123, 48.822589901058784], [-2.83473280013585, 48.75142811787854], [-2.834882799326773, 48.76292399184198], [-2.842386019693115, 48.70423028441578], [-2.9011566119992835, 48.64996702668133], [-2.864850740652183, 48.68201492807067], [-2.8632179080484095, 48.78829689955637], [-2.887240506564082, 48.816360112694106], [-2.8584042297813914, 48.79963844772235], [-2.8254874187229175, 48.77292709925054], [-2.82362721524084, 48.76766961017238], [-2.749603777196829, 48.72089172034808], [-2.7247987124846653, 48.66627580098498], [-2.7202005923492725, 48.65701024164593], [-2.7123434340622166, 48.60109108189202], [-2.725422747793623, 48.56421462115746], [-2.716541077723524, 48.61031065385692], [-2.7406887323818987, 48.66767403307889], [-2.7662018778172914, 48.68644758422308], [-2.7565202841089858, 48.68354035172493], [-2.733067968771438, 48.67166804662044], [-2.624966861002588, 48.60623013742435], [-2.625544139246057, 48.511142533649725], [-2.6416225342268884, 48.483825302554536], [-2.664127118956528, 48.4609420830072], [-2.6380418845898532, 48.56043276736096], [-2.7036303361100322, 48.63179665275139], [-2.6666149709537965, 48.61862332499533], [-2.642565976130144, 48.60250929481708], [-2.638612024707995, 48.59836744119457], [-2.7207863627257525, 48.6013421734134], [-2.778958855349305, 48.53034099286966], [-2.777559230168125, 48.55581089184711], [-2.7254210402717307, 48.62724097259282], [-2.648830348486716, 48.63802114142261], [-2.6641053006552338, 48.63336638711004], [-2.666535370129439, 48.63287124708135], [-2.644988499904769, 48.6558487547192], [-2.6241681886874106, 48.67236324670133], [-2.592872911450323, 48.6881689321332], [-2.571149067908537, 48.69346406328728], [-2.522984453854102, 48.712930512034674], [-2.5489232433780042, 48.68130709340498], [-2.5330782346021197, 48.57548750236274], [-2.487263168472739, 48.54581951292438], [-2.5873139026957066, 48.65543980179328], [-2.4479697212750473, 48.758953368419405], [-2.3688882128745075, 48.74228531148659], [-2.375910017533407, 48.73641464624794], [-2.4190440831428974, 48.74455140697373], [-2.403669017967193, 48.75121897698812], [-2.3980681014195384, 48.75360998253328], [-2.298482807865619, 48.79699530572493], [-2.2265551737279297, 48.73809776165097], [-2.253471158288076, 48.76513661376962], [-2.2860646277431322, 48.77615944941141], [-2.2152551945157613, 48.752536723355185], [-2.196068129904278, 48.619408935324834], [-2.2261330811315014, 48.5891434916854], [-2.213443053059709, 48.60180411918896], [-2.2178514763040265, 48.59520828535054], [-2.2348347771287633, 48.57636811706339], [-2.230563148064513, 48.6367078340057], [-2.3093302587702587, 48.72012981494906], [-2.343121847637098, 48.71571966112249], [-2.317989821944546, 48.73224876676137], [-2.224891987740583, 48.746632902651136], [-2.1574101771350285, 48.690715341308234], [-2.1484875535051056, 48.65998472255805], [-2.176386925391091, 48.695223589711624], [-2.1688084855558154, 48.694443685295575], [-2.130578965867715, 48.64993870958756], [-2.118694533846084, 48.61677054707326], [-2.1644114440674183, 48.668867813313625], [-2.257640111920579, 48.669497326051676], [-2.281213512026624, 48.64503663155733], [-2.291146352363233, 48.617723335056105], [-2.2086471154151277, 48.714618652959906], [-2.094270414385381, 48.635104070629936], [-2.1064877474404975, 48.653192541296306], [-2.1634514802523617, 48.68238849100138], [-2.2414825106371774, 48.64535696230486], [-2.2381244003587266, 48.53418124710863], [-2.2012558407191514, 48.50402854599721], [-2.271216247218774, 48.588378575287415], [-2.219954751155487, 48.69382627917101], [-2.16874249911319, 48.716979096834656], [-2.103562572381279, 48.71221896662049], [-2.202740928781279, 48.67118938321925], [-2.2041777361611734, 48.54687378655525], [-2.2195282770803986, 48.566215032818], [-2.2365636154402, 48.67630919968284], [-2.114972416569811, 48.745822203809475], [-2.004930441753798, 48.73812964375995], [-1.9672538596406004, 48.70202962983185], [-1.9372840938070772, 48.660193205645776], [-1.9318149873122583, 48.63933265214877], [-1.9437537024737144, 48.66115964025903], [-1.9685314291867937, 48.68106211345813], [-1.9115562286017727, 48.633638532795665], [-1.9198270622813143, 48.52663383315338], [-1.908386546577579, 48.57941217587562], [-1.9002323889277086, 48.60583816307299], [-1.8771922732811661, 48.5482804825297], [-1.9271741783888532, 48.598301130632045], [-2.0197218043599046, 48.60771476947211], [-2.039347228572095, 48.53566254690468], [-2.0478384778604837, 48.526433861016756], [-1.937257474566205, 48.65036057175204], [-1.8460583780371227, 48.606043655579995], [-1.812615540864468, 48.52539982116472], [-1.8110465547799695, 48.46864320769204], [-1.8381240864564004, 48.41287037756382], [-1.8620960931591848, 48.38934678773788], [-1.8539566064555455, 48.41024124002931], [-1.8533220193178095, 48.440821849198166], [-1.834891116735046, 48.38490721749203], [-1.8338343034619262, 48.336163260133006], [-1.87536212595031, 48.268543546056115], [-1.9299226169199544, 48.246472733975615], [-1.9338876464762909, 48.24706509329952], [-1.893101473599098, 48.269110917419844], [-1.865997967954619, 48.32309500974364], [-1.8607313285917615, 48.31821378297004], [-1.8713539533482748, 48.25701630944765], [-1.9494162625647462, 48.185943409816204], [-2.0309296673758053, 48.18497500861852], [-2.060634286562043, 48.19495781409117], [-2.047156156389438, 48.19696513117679], [-2.030277884064473, 48.202605801259224], [-2.0397369032691643, 48.19213011660556], [-2.0893525854285717, 48.1647596446167], [-2.138236115842236, 48.16309737422522], [-2.107735859210445, 48.17794135900798], [-2.0895273115187827, 48.19896510714533], [-2.1051389433191967, 48.163844204943636], [-2.1417013533546, 48.1314541727729], [-2.148569534749878, 48.13135446127138], [-2.128035233900745, 48.15608093916057], [-2.1337481189736014, 48.133962282443704], [-2.159906218639541, 48.094694890943536], [-2.2007230621255935, 48.06499441081857], [-2.2269361948776116, 48.055214388014676], [-2.2547088478531983, 48.039167188055906], [-2.2843504839611195, 48.03570717674906], [-2.316139525618399, 48.02120137657369], [-2.3810774538928543, 48.020637447905315], [-2.4342987305590347, 48.05130353231668], [-2.455541372241244, 48.081618147781334], [-2.4451814668514595, 48.07244945248055], [-2.435902281529493, 48.06794574497941], [-2.4351809821174384, 48.06790154580784], [-2.492616006670236, 48.0660751503183], [-2.4640206511869827, 48.08032709902099], [-2.437548206086104, 48.116075095332704], [-2.4355352817969917, 48.09950640300206], [-2.448043532243522, 48.05623393659827], [-2.481267263431417, 48.01228883951036], [-2.5562708564760324, 47.96073152576607], [-2.6321558335421664, 47.93464091859931], [-2.7396427056849655, 47.980091807944255], [-2.7429941001742835, 48.068854345953184], [-2.6806301076092365, 48.02956242935837], [-2.688975256747079, 48.02382839954517], [-2.7230834742469208, 48.001625413079644], [-2.793476896267074, 47.99651099851354], [-2.8527653036024487, 48.03230252549027], [-2.8619137420073213, 48.05443720026001], [-2.837510629218766, 48.03928618545596], [-2.876104400193198, 48.04481185160415], [-2.9413942991691866, 48.07177860917327], [-2.936373241650596, 48.07187342638996], [-2.975281113281477, 48.0610294418063], [-3.043693570851183, 48.070798684898776], [-3.093761706305469, 48.12121375161015], [-3.1027446873512963, 48.150047885053], [-3.0762924073800892, 48.118217992858874], [-3.054041452720189, 48.10572858998609], [-3.0929374164604293, 48.10780163840878], [-3.0724743620047206, 48.11632664993034], [-3.0437396486285575, 48.144107837207244], [-3.052284075834928, 48.11993581336055], [-3.0937616810796573, 48.07701971212732], [-3.141615025566218, 48.05817213985513], [-3.298666214465118, 48.0444091744655], [-3.357273059062665, 48.05818811378263], [-3.3971398565564273, 48.08381757445053], [-3.4040047593618525, 48.09242754553181], [-3.36684436411331, 48.07196063310913], [-3.334217348665758, 48.069365039053196], [-3.3752632568635823, 48.055368391759266], [-3.443686959481509, 48.053685837391534], [-3.517438032019545, 48.104225810413986], [-3.5363969439354506, 48.160161033121284], [-3.5362145652395958, 48.17067773110071], [-3.525852924156942, 48.13279281963776], [-3.4866333874969127, 48.09363760347647], [-3.455547665333161, 48.084486929653785], [-3.553578396283092, 48.08069263988826], [-3.6648129381842014, 48.18100015674154], [-3.6341950727239944, 48.23498714648468], [-3.654104356126144, 48.225109041542645], [-3.6291408528285896, 48.29549708309822], [-3.6175717729494323, 48.30725059930987], [-3.622942313335755, 48.2844285027114], [-3.6161160203357046, 48.24969861631799], [-3.6374680044719074, 48.27629258404377], [-3.6510048687807166, 48.305022539304474], [-3.654455364852585, 48.3281512693238], [-3.6392662886119704, 48.30468220335065], [-3.6256171197290583, 48.293331015828144], [-3.617015523730022, 48.28910324904558], [-3.644186937764404, 48.29654117190615], [-3.696512618751083, 48.336543074635], [-3.714200687527103, 48.41478526627001], [-3.7027941726175073, 48.45718633141277], [-3.66624777923649, 48.50001010863304], [-3.6149438292361276, 48.519988926616016], [-3.5897774430531983, 48.52002869002285], [-3.6145251621428103, 48.51172737976329], [-3.6396149539581244, 48.49028039505026], [-3.6527618495576366, 48.46063919513163], [-3.6504439091011003, 48.42116636173958], [-3.6251714892056452, 48.38363802757471], [-3.59730997400335, 48.36807226751458], [-3.6331804515154857, 48.37703466458677], [-3.689501485824329, 48.435196001814795], [-3.6902121946414668, 48.52248431485698], [-3.658246106478496, 48.5692353469054], [-3.6651316840896033, 48.550599170380906], [-3.6667933338613072, 48.5252066536041], [-3.662062740000046, 48.50975381926819], [-3.653044275653436, 48.496196436347894], [-3.6941531748033882, 48.529814380965945], [-3.718073324483957, 48.560634510558934], [-3.7362791601622476, 48.60725287409588], [-3.7018107701238465, 48.76525025350171]]], [[[-1.9366824008012329, 48.439006099179004], [-2.063742899121071, 48.520722174806664], [-2.061797511115642, 48.55032597985993], [-2.0663058675440853, 48.528440929251026], [-2.058500668965655, 48.65101072963015], [-1.9330698290634116, 48.680152567633094], [-1.9032836016561452, 48.659206953413836], [-1.9137018416084763, 48.66694874240599], [-2.02708596577113, 48.64213200260787], [-2.032087731206029, 48.516939306959685], [-2.0092583754363296, 48.50105115288006], [-1.9923496054357863, 48.49590970290901], [-2.020100217206351, 48.49973664587541], [-2.071246111306594, 48.53065080175606], [-2.10075503513867, 48.57341788403194], [-2.127628012454892, 48.62853826868202], [-2.1117725647549546, 48.701953518976126], [-2.0843158596793265, 48.735315050491145], [-2.0433101208751183, 48.76063959982465], [-2.0363289412687595, 48.759796755605095], [-2.0793652663582596, 48.71374476773096], [-2.0869268685454925, 48.6932728168274], [-2.0599220751190344, 48.75514150005558], [-1.9941084549197816, 48.78962550687031], [-2.0300204069538275, 48.73330737832509], [-2.0388830442207078, 48.734655388010786], [-1.7586613162574232, 48.76469671381193], [-1.751939101387502, 48.67579592065148], [-1.7501109478474015, 48.72852410224489], [-1.7658902992553203, 48.76111347145431], [-1.7363697891712333, 48.69378217352371], [-1.7678838964900292, 48.628252162953295], [-1.7717232478776208, 48.6860037347684], [-1.7979610334348033, 48.71530921153828], [-1.786408041266386, 48.71544994446581], [-1.7275313674349244, 48.71519038671274], [-1.6662940982990186, 48.720911975246224], [-1.620019972585795, 48.737932867978024], [-1.545933300096449, 48.73173582443241], [-1.4998236796604008, 48.68598864253029], [-1.4915421247378136, 48.6679981429771], [-1.4895357323861567, 48.661880838005175], [-1.4915608848251676, 48.66630554794595], [-1.4897435783261117, 48.66338038321836], [-1.4711473415888485, 48.63926308483657], [-1.4674224489313115, 48.630566358260246], [-1.4618223688527918, 48.624074351754786], [-1.4482301065396233, 48.59576793863715], [-1.444522511090622, 48.58149433866004], [-1.4475180820472322, 48.588672887766286], [-1.447625284330085, 48.58918829760982], [-1.4306920420707963, 48.56818632269918], [-1.4406115917108593, 48.57572179472909], [-1.4140783307573384, 48.56326738226025], [-1.401466555472112, 48.55421390537551], [-1.4121308913884265, 48.5589992454125], [-1.4247328836146622, 48.56254588079541], [-1.423115608756267, 48.56240486268795], [-1.4138997274470975, 48.56507031761502], [-1.4133930146736688, 48.565264690330196], [-1.3932249148725033, 48.578496973980776], [-1.3679212192069616, 48.58965725636288], [-1.341239422544896, 48.5963463933903], [-1.3465533574244735, 48.5941419882449], [-1.3527898102643667, 48.59047466843506], [-1.3560139948116992, 48.58799999040527], [-1.3399782992791722, 48.60450600756321], [-1.3009804727831717, 48.62906324985365], [-1.2485275008028212, 48.63700749718175], [-1.2098605271620178, 48.634394397848], [-1.0855894599765126, 48.60947059025241], [-1.0648286599467536, 48.59824644297311], [-0.9984827994662705, 48.55788300367203], [-0.9796808557081864, 48.449073015764476], [-0.9827873901811612, 48.431719714770864], [-0.9826858276213343, 48.431539915878076], [-0.970812131790954, 48.359951602308854], [-0.9692050604519447, 48.32966495628807], [-0.9730910499316767, 48.29264930927766], [-0.9875914443180935, 48.259978882312026], [-1.0092448214115843, 48.23103854164256], [-1.007610343843543, 48.23409151477271], [-1.002532012332942, 48.254201632167415], [-1.0050857639030395, 48.288772774959114], [-1.0232087902607068, 48.321132313129226], [-1.031737992096196, 48.33043289100657], [-1.015849417087114, 48.315120774229904], [-0.9956995026952089, 48.28450943705119], [-0.9881249270446615, 48.26516785801617], [-0.9840823337824811, 48.24987971920777], [-0.981962974672821, 48.23462200701236], [-0.980374776808862, 48.23082665275447], [-0.9707702285030263, 48.184086162473264], [-0.9713091069629739, 48.154602441124084], [-0.9876665995023276, 48.10917744074633], [-1.0148599572030559, 48.08097109937829], [-1.0128903236427267, 48.08279917127796], [-1.0006989661831185, 48.095470701384215], [-0.9838998991973226, 48.13477794392994], [-0.9734784701561114, 48.11523687651057], [-0.9775992524069363, 48.12720802555961], [-0.9845010437086582, 48.13969326035594], [-0.9973890433490717, 48.153583532016086], [-0.9824203001890232, 48.14467759242011], [-0.94922411964853, 48.10016014508134], [-0.9415928283337769, 48.04868185675677], [-0.9440062421382458, 48.03618074606575], [-0.9440603310603161, 48.04578656991497], [-0.9398507773584275, 48.025685039815556], [-0.9401768392559982, 47.99495230287785], [-0.9538277927992813, 47.95185969073587], [-0.9827752048160425, 47.91965425406498], [-1.0064831542619552, 47.905716606451755], [-1.0280633257554874, 47.897524899790405], [-1.0486477070141844, 47.8925330644049], [-1.0685573977900358, 47.889697819106516], [-1.1031583794752513, 47.888153066593034], [-1.1043047354424822, 47.88811594067401], [-1.1017091383297999, 47.8888485200316], [-1.0982602015368816, 47.890401315296586], [-1.0935710840343458, 47.89342285185224], [-1.095992941747435, 47.89109585781751], [-1.092793300505545, 47.89479916244206], [-1.0891659543317171, 47.90065595584747], [-1.089637089807082, 47.899065956479234], [-1.10045674014404, 47.86395441140591], [-1.1130630984759045, 47.83667636002522], [-1.1232863169897607, 47.820178735467], [-1.1229618179382501, 47.82100543420047], [-1.1321062465756853, 47.79333242039506], [-1.145492079019834, 47.7677969248311], [-1.163270274199103, 47.746241002986025], [-1.1589835834313602, 47.75525005422871], [-1.1950492753025372, 47.69751350483308], [-1.3702260984741719, 47.69366700583579], [-1.3989345345777235, 47.701577399365526], [-1.447461102310039, 47.72926379027315], [-1.4649309760984162, 47.751931032682954], [-1.4492124025479098, 47.73662939153083], [-1.430810657042572, 47.726294119126095], [-1.424760776101102, 47.72476208855778], [-1.432015309495199, 47.72519729116965], [-1.441290250518339, 47.72554465451983], [-1.4265419474889445, 47.730698951145534], [-1.4442659871166015, 47.718698856973205], [-1.5542286148313662, 47.68289325042713], [-1.562563431453926, 47.6785353214706], [-1.5618556705482185, 47.67896760397546], [-1.5611229904353008, 47.67956573743163], [-1.559371838510466, 47.681484338940685], [-1.5739472699199548, 47.664938019348426], [-1.6138572349308908, 47.63969137587611], [-1.6560148487940394, 47.62287372163307], [-1.7949606098151936, 47.592963296214755], [-1.822156809729096, 47.59239883448576], [-1.8543948132207158, 47.596524481436845], [-1.8665043317550185, 47.60279817361544], [-1.9056901439666554, 47.590032323178455], [-1.9387564753930113, 47.577764587335075], [-1.987708859662978, 47.576594556001616], [-2.0065853102695432, 47.57428743973606], [-2.0006685742421295, 47.57583539439723], [-1.9914051817197551, 47.579452658847764], [-2.0079821547765806, 47.5703222732567], [-2.0125984751351282, 47.576894125410035], [-2.053430528984473, 47.538995380043005], [-2.1747059282663934, 47.569880753699316], [-2.204594849691298, 47.6285967067956], [-2.203945413581132, 47.64769465491333], [-2.1954700350355987, 47.62490370006003], [-2.2057220449083803, 47.63889931030336], [-2.218458953336227, 47.66767562446015], [-2.226316496732215, 47.713406956820634], [-2.2096307500715073, 47.77755513399517], [-2.154729881162106, 47.82390972434462], [-2.105458823982601, 47.83396631446886], [-2.0877461626459097, 47.832637483136324], [-2.1310066784430437, 47.81223335435157], [-2.1618450319551616, 47.734114389211896], [-2.118609383883859, 47.668950238816436], [-2.1342388949725053, 47.66169727342054], [-2.2052985613788496, 47.70913996277663], [-2.2153791722996927, 47.81087544788477], [-2.1693725552652907, 47.865074843107074], [-2.131738268014769, 47.880636895360745], [-2.1096512911394125, 47.88397512013581], [-2.125267032829463, 47.877271131122235], [-2.1380106352955615, 47.86758918578927], [-2.1441773889997138, 47.85994132142143], [-2.149426108828562, 47.845911538191416], [-2.145535649395966, 47.801624087052375], [-2.1102321481911743, 47.7591398482183], [-2.082962588938921, 47.7492170122652], [-2.1887260723980284, 47.787847303975205], [-2.205677059849541, 47.87401877241392], [-2.2044050696459294, 47.9050982126872], [-2.199059449341795, 47.926696595939084], [-2.1996699404746423, 47.91600508884482], [-2.1984036477041453, 47.90874524076772], [-2.1931797238318453, 47.896019795933256], [-2.18516406934398, 47.885079385481255], [-2.1780099072068464, 47.879198718948004], [-2.197109147733448, 47.88912881095108], [-2.2857709686151964, 47.90211116469311], [-2.355452791044839, 47.95167880927178], [-2.3655245143395134, 48.05852935036883], [-2.306520235812907, 48.126103442624895], [-2.233934815542547, 48.14298052309772], [-2.268290653877195, 48.105917060646355], [-2.265112322266661, 48.02426339633936], [-2.2187201271072756, 47.98449924391307], [-2.200828422949783, 47.9807829953752], [-2.217538920426428, 47.97829768404294], [-2.267419888354018, 47.983913757914124], [-2.3187064684935166, 48.018105154847916], [-2.340643023751541, 48.052559232218464], [-2.3334703897850515, 48.04484983358091], [-2.387320725533682, 48.13139879518453], [-2.323895805122388, 48.23013961198532], [-2.2939909378744066, 48.24191558918143], [-2.3038257813604592, 48.23357310905646], [-2.3161618810263986, 48.21596971755629], [-2.307526766099255, 48.244301060839426], [-2.2730404652501224, 48.287901538728626], [-2.2435886466454003, 48.30355582722711], [-2.266923056680803, 48.281427795056366], [-2.265022688481217, 48.29488889285467], [-2.2331241407895552, 48.33375464099202], [-2.182123884157764, 48.358222625774786], [-2.1449854145714284, 48.356866355383296], [-2.1648930967308355, 48.34812988339444], [-2.1482481159355267, 48.36410819874078], [-2.084787843610562, 48.393392868823206], [-2.0193677134379575, 48.39065418590883], [-1.9898323326241951, 48.38070699138147], [-2.0154477374352537, 48.37472859018379], [-2.051608046651725, 48.34366769055235], [-2.060274671408239, 48.30470621702995], [-2.064940032045381, 48.343638990256366], [-2.0298825264009017, 48.41502508258015], [-1.973012353523709, 48.443200906700476], [-1.9591793830800455, 48.44432126602438], [-1.99805187404969, 48.42649045394389], [-2.029779696538074, 48.376230739867], [-2.030436883264954, 48.34293278250797], [-2.0500619806821905, 48.404858150801836], [-2.0501093935444543, 48.44928075997069], [-2.0259299068408154, 48.504057212262126], [-1.9979579135435999, 48.533091622436174], [-2.0067114452200303, 48.51005879230796], [-2.007800459135532, 48.48177817883528], [-2.0041096219628773, 48.48348834442001], [-1.929542525433795, 48.45050942824796], [-1.9366824008012329, 48.439006099179004]]]]}}]}