{"type": "FeatureCollection", "features": [{"type": "Feature", "properties": {"name": "Corse"}, "geometry": {"type": "MultiPolygon", "coordinates": [[[[9.393156862044224, 42.72474165089282], [9.573849053705374, 42.580311096528064], [9.544708715972888, 42.546605772707565], [9.50351899576063, 42.522716900064395], [9.393156862044224, 42.72474165089282]]], [[[8.470607318722584, 42.376856669965974], [8.521521372537014, 42.46733760811158], [8.566292126405644, 42.49095428800188], [8.576515673588483, 42.48512118449792], [8.511268764400798, 42.433113329383254], [8.508492340499204, 42.431458396467605], [8.527829700230287, 42.46795210414633], [8.530157844932086, 42.469171570314636], [8.536334740677711, 42.479209314604255], [8.582601911851564, 42.51285363513926], [8.613476391053842, 42.516022381166515], [8.575032660189015, 42.48337994659532], [8.562086218050407, 42.4492853621803], [8.567443790017595, 42.48616076612481], [8.590380374030724, 42.5216684827948], [8.578879034404846, 42.45204105641891], [8.635952516933127, 42.38288367006552], [8.615159149764926, 42.3875748096668], [8.557796958256965, 42.46804512606282], [8.567183618142067, 42.52315281676497], [8.583879440786744, 42.56456632942138], [8.630170894283049, 42.607515846558194], [8.67160828144575, 42.623566552761005], [8.624986651751229, 42.570878786634644], [8.61193445283128, 42.52498849066724], [8.61818621289176, 42.54276375724472], [8.614151547996604, 42.540517646649555], [8.65276189130577, 42.66174913637764], [8.73764527092619, 42.67395632324035], [8.770646088749364, 42.66206627675775], [8.81218718698004, 42.61489391036875], [8.766308408117203, 42.65586188872324], [8.736414224517244, 42.67226865450647], [8.79803244977267, 42.65686138529424], [8.806430174777976, 42.65011774904794], [8.774342809219414, 42.6580031921508], [8.741930757290387, 42.65128762687488], [8.724209817608248, 42.63832488951298], [8.718056896674598, 42.62990052421834], [8.715587487462649, 42.57629850221015], [8.711531333211084, 42.640823623873885], [8.822649502312625, 42.705960567055925], [8.880612662733503, 42.729062786576414], [8.992603913938598, 42.74676959495507], [8.972257240065977, 42.725101426698046], [8.966172370987948, 42.73121334051895], [9.050528578114077, 42.80835333443567], [9.086223168636302, 42.8268683114964], [9.134766061751419, 42.83478844179046], [9.17558406222088, 42.83463564711877], [9.183611529833094, 42.83252764387102], [9.192219772049063, 42.83312900462736], [9.266186569514423, 42.81815396876825], [9.30688885612526, 42.80107019244654], [9.331316429934711, 42.78343285980414], [9.349583640826719, 42.76386069938672], [9.363324090993364, 42.74312723493418], [9.33880090767902, 42.759253621413414], [9.24853905296153, 42.76473160640988], [9.243563951184587, 42.773786942669446], [9.24257925519245, 42.751892695472336], [9.233021452762006, 42.77011001234664], [9.241090806489352, 42.79450608244682], [9.24779228635227, 42.75949507982276], [9.248871695396595, 42.75548599877997], [9.205689594316668, 42.83755159421116], [9.24009804240432, 42.904090833816625], [9.23759976923867, 42.84536563617973], [9.231097389654, 42.85485966839127], [9.227939527123267, 42.91245091875758], [9.246831707868111, 42.95869827282663], [9.270171877829402, 42.98484418074918], [9.261317791376976, 42.94353265449255], [9.267821857965938, 42.88786328381992], [9.255763039511706, 42.93371601033328], [9.262228450834012, 42.97273748035905], [9.263757131171799, 42.922685036066966], [9.270085539981814, 42.897035396026254], [9.246321485398298, 42.94923700686066], [9.242686136138568, 43.00389881053314], [9.272944518329291, 43.071269647120445], [9.34081069531731, 43.109038165465364], [9.388847895236946, 43.1104618546322], [9.446925333614036, 43.11434032131892], [9.49896252780872, 43.08105877241556], [9.49050268415428, 43.08678716325745], [9.546997055278425, 43.04589967702212], [9.555949457074819, 42.943204965968064], [9.544094250738308, 42.92802870290114], [9.553121373362137, 42.97601004374987], [9.539942892819823, 43.010715020653116], [9.56550683518813, 42.97212881641948], [9.565490545126265, 42.92182877477853], [9.584103622731849, 42.83993370816403], [9.580884658477842, 42.78304851542336], [9.549607524630858, 42.69657172639377], [9.551387253634054, 42.693903834624244], [9.54924236278702, 42.677134448884715], [9.548000489290319, 42.63199655919205], [9.527097847079188, 42.58852851723828], [9.517172549784991, 42.578283536695515], [9.53582712972217, 42.607149092352834], [9.537900488667617, 42.671738683182355], [9.504568128959589, 42.71844562744642], [9.48312436031074, 42.730069177958626], [9.47073122206199, 42.73327934235824], [9.519582927252353, 42.71206203756901], [9.553170489397191, 42.65973961615283], [9.56003366522876, 42.637894317169156], [9.557159877823615, 42.58563909826478], [9.553531112792953, 42.6308326309771], [9.537549164785858, 42.67003963558112], [9.559982388228997, 42.63425573389094], [9.558732457144792, 42.63468915625673], [9.54323110884912, 42.65400249073529], [9.526304387573367, 42.665462861502085], [9.445969165535066, 42.64069128100667], [9.416518234670162, 42.54224724752115], [9.419802926298008, 42.53382084978173], [9.430343487906043, 42.69317266835591], [9.599909705955165, 42.6391228961304], [9.62178878758498, 42.598472140565725], [9.631852553466267, 42.553139223034215], [9.629973994832008, 42.48994672307176], [9.628203204747892, 42.48798988539797], [9.645774897945973, 42.44030310608781], [9.633046262101068, 42.385714595809894], [9.632522799346074, 42.384329024564806], [9.632246324814725, 42.38275128762719], [9.631738286819655, 42.38369966396591], [9.631411937701959, 42.386012941753435], [9.650179127790938, 42.3462571238094], [9.65930401382507, 42.302019776122265], [9.651525104225964, 42.18222856753317], [9.659579191589433, 42.14595060259153], [9.65464966563138, 42.11717909103813], [9.653087266907646, 42.10166553877375], [9.641801298549932, 42.067537005577705], [9.614126849747068, 42.031176005819276], [9.586225498075176, 42.01147538178127], [9.588747946845565, 42.013464485396646], [9.571821690086685, 41.98693770668506], [9.490766634349024, 41.89923664227052], [9.482991056733987, 41.89528471192176], [9.499451616109463, 41.92593938528385], [9.502626707269112, 41.91085243448102], [9.454832314786296, 41.779700905529424], [9.382506037472908, 41.763666223934926], [9.393107330976633, 41.764678288862584], [9.334097993307767, 41.73634037272679], [9.28129354456165, 41.736546636441375], [9.136474429884249, 41.81392666738051], [9.14656256022936, 41.91536497256803], [9.145337520748512, 41.89565909104132], [9.146713790547455, 41.88607832927466], [9.124174205073924, 41.93289182547212], [9.11845395797445, 42.02454340583205], [9.14361449771003, 41.96436816409672], [9.151334214680016, 41.927009910086845], [9.094889222389591, 41.95153538252063], [9.050453889999645, 42.00845698386255], [9.040752982994091, 42.051099091171096], [9.04751460169226, 42.039489671640624], [8.985102153506304, 42.09429806915569], [8.965020398993953, 42.12821246199736], [8.96012867231424, 42.151511922921955], [8.98316963557467, 42.12459522197759], [9.016349191580023, 42.1097156191891], [9.006523535221213, 42.10842481043625], [8.959894022427111, 42.11855500492102], [8.816412312220614, 42.19695037427379], [8.786794546894226, 42.244867091356944], [8.791034458830245, 42.25768223697521], [8.842376604239547, 42.228434892407286], [8.81978565887521, 42.220308039909185], [8.68149448008307, 42.2461774178035], [8.606031122954889, 42.276467687653245], [8.56743899362671, 42.27816864972071], [8.470607318722584, 42.376856669965974]]], [[[9.476570736514828, 41.91944317306159], [9.49429774207905, 41.848195121384094], [9.502859117275351, 41.78513056138592], [9.497671873376701, 41.67861956446511], [9.46074157644157, 41.623126178529006], [9.433901292114067, 41.60865337638293], [9.44349429920562, 41.61447046187952], [9.452211363171404, 41.623861508867215], [9.45287539655139, 41.72551842995414], [9.456659777476657, 41.73926848721958], [9.474001611791701, 41.628652111631496], [9.446834762533737, 41.57766361676813], [9.384627708007969, 41.54227316199074], [9.35255399697586, 41.540817093086474], [9.398840079474484, 41.5559137778225], [9.441597255866391, 41.62433260163555], [9.415406719294504, 41.54692406889611], [9.307296805862517, 41.52788704213517], [9.30701988107818, 41.52777072836334], [9.307468100911088, 41.52790419099406], [9.373342027253033, 41.568010919532796], [9.39004006005648, 41.589910832135786], [9.36325592993433, 41.54611255442704], [9.374868516542168, 41.6253482955336], [9.299992401337615, 41.691313266784185], [9.303711399956697, 41.699653325674454], [9.37736491382799, 41.69911724325062], [9.45054566494302, 41.622107565625214], [9.440182979792604, 41.53677031655378], [9.406002822755903, 41.49322590265486], [9.360092411309447, 41.466853282408465], [9.340669836424377, 41.46328936915975], [9.364954082246655, 41.477555142388624], [9.367439028177062, 41.47708109615204], [9.325427259428116, 41.44319622490769], [9.354502317670475, 41.486917973253156], [9.362938604012092, 41.55728050893826], [9.36986689890527, 41.5166488066962], [9.362890829209764, 41.476289563789955], [9.357556274759613, 41.53988981247065], [9.344418132434653, 41.5725482960538], [9.37901207513959, 41.48649065202345], [9.3496860152415, 41.41663973598786], [9.363624641746165, 41.46179620780265], [9.366977984569722, 41.44119953307433], [9.293269811234591, 41.37113124178544], [9.255990106029493, 41.35400504388675], [9.284959498354452, 41.38124948878833], [9.298109664630939, 41.48944540206519], [9.296123084569484, 41.49996698037093], [9.323316524116313, 41.42677070030447], [9.296520460220146, 41.35526687341357], [9.298726676276658, 41.36606466878111], [9.269526169919079, 41.488163971720105], [9.17717529500757, 41.50033894678395], [9.188384263952743, 41.50911068219338], [9.314618300903236, 41.50440347381471], [9.340920927998443, 41.37970896988675], [9.327634727952342, 41.35002249391583], [9.312234409670161, 41.32380602006811], [9.282022552325632, 41.29166705743542], [9.21352826219534, 41.26614430440778], [9.152697660340863, 41.277990693079296], [9.124737750947023, 41.29656403242592], [9.13188509444644, 41.2936697020369], [9.100623943239611, 41.29733010282856], [9.005406445654307, 41.36213610068488], [9.029982639138177, 41.49272299933036], [9.07249066314381, 41.52436114287395], [9.023045735303116, 41.452981068171226], [9.06174995127046, 41.35541266348405], [9.039519203265588, 41.36215694429153], [8.967521358112274, 41.448211118841954], [8.986792312375385, 41.51276436100849], [9.018238436676707, 41.40359751761315], [9.106286182817591, 41.387011920619805], [9.026113207304887, 41.36270140115127], [8.931995867673848, 41.46949331535442], [8.973025772088896, 41.55000644527979], [8.973884023024311, 41.55045666308175], [8.958752952455646, 41.53557441424413], [8.95662161376397, 41.41908714320577], [9.058551738000082, 41.37857547912608], [9.069109904794313, 41.382815640298844], [9.003550941756142, 41.36983278782025], [8.946757929049904, 41.39991597894275], [8.961333692136476, 41.391256956583305], [8.958351805665933, 41.39057920675551], [8.954020788804877, 41.39193403380748], [8.920256518849373, 41.39040583024953], [8.869216819671614, 41.41182055375442], [8.859629672778608, 41.41957939996302], [8.873281907703378, 41.41313454198613], [8.830006293777682, 41.42677370530314], [8.793629883536589, 41.46639701150249], [8.800859257288655, 41.45715502340542], [8.832919790620767, 41.43207998582075], [8.854086351246147, 41.42585568019426], [8.851414373618123, 41.425455075872186], [8.819303677292563, 41.43043527217177], [8.739620648434498, 41.53228830583166], [8.768216919164797, 41.59023811121191], [8.773910038429316, 41.483021620797345], [8.805896331791491, 41.45347803497577], [8.815252404505893, 41.45237714401395], [8.818375244831362, 41.45010695264113], [8.783929901863665, 41.45611270571456], [8.749974062802368, 41.46893393099511], [8.697559398905723, 41.52766259314831], [8.696914791128096, 41.57038882539918], [8.728449750064367, 41.51112106596178], [8.685637818488086, 41.553499810627734], [8.69375115623439, 41.644662908454706], [8.702474708756679, 41.66969880434358], [8.772109407538265, 41.73456561723983], [8.82027999300153, 41.73262807436903], [8.826896974150406, 41.740029036722795], [8.800874559393389, 41.71681041161857], [8.807253081643443, 41.73283467972487], [8.85048203362911, 41.76645456041036], [8.856713049185066, 41.76802771691487], [8.828719683622564, 41.66047362227004], [8.886911540592472, 41.59621655246843], [8.825127905259622, 41.60957142214513], [8.804719506373694, 41.60958739412772], [8.750013976818327, 41.620391388589105], [8.679228923624242, 41.697711846540855], [8.70105916448294, 41.68803013648728], [8.773919013746971, 41.64362114918017], [8.735874075991854, 41.632118269101454], [8.608190398415442, 41.68080334676249], [8.61247168305802, 41.784726241111], [8.61891219234507, 41.68833461487102], [8.68067640706111, 41.64209191017015], [8.651235681125447, 41.647731135414986], [8.642577841937797, 41.65078388229381], [8.55551470722801, 41.74104010066493], [8.644434174475492, 41.8519980080332], [8.670881132126551, 41.85492046492693], [8.653274595591697, 41.84650495132968], [8.634664995696301, 41.82800189472902], [8.622601603433463, 41.79322237567879], [8.640908114016295, 41.730792822678026], [8.624403049522467, 41.74399336567854], [8.638321752502712, 41.87509588535446], [8.719268000957145, 41.9037853417537], [8.719340982367413, 41.904217249311664], [8.690582592249639, 41.85757255133867], [8.70190321756488, 41.771522923232325], [8.721870101969053, 41.75405134476013], [8.738624203383925, 41.74700566357813], [8.651007591882525, 41.839469212854496], [8.74282683949442, 41.94484756735033], [8.69197272972212, 41.865651543903724], [8.710351541627183, 41.79995883408896], [8.700648109085574, 41.81558385427739], [8.746948849853984, 41.77993460240292], [8.693070773930984, 41.820136922120945], [8.743677382659254, 41.975546857541644], [8.737293138815474, 41.970977785427834], [8.715700404092876, 41.95358784829587], [8.718602907701493, 41.95354967343901], [8.718697127615926, 41.8571561667882], [8.767416775272743, 41.81402907987385], [8.72314268743284, 41.841019229399734], [8.704059791463267, 41.86548893207487], [8.716048013941965, 41.85310692760168], [8.741254356079294, 41.838211164953336], [8.759006327424647, 41.83441837582455], [8.767367715664854, 41.835481492886075], [8.740735687257445, 41.82351415068489], [8.702463831608716, 41.814711441547395], [8.658836467089946, 41.812440457427776], [8.661480321353405, 41.81375685913945], [8.58420948159092, 41.80540850277429], [8.507404092118119, 41.91894091442151], [8.519757552463464, 41.94524208209389], [8.530471947611886, 41.88975601989903], [8.491507121245759, 42.00090551786862], [8.61685693899887, 42.07088710481653], [8.598204577494903, 42.06098339782511], [8.571112692407196, 41.97491004406993], [8.558777006936236, 41.979883168644434], [8.59816698154502, 42.0892505685434], [8.648509694280854, 42.118941684672606], [8.671049601817442, 42.12413221527437], [8.668982524744244, 42.12388794720466], [8.717355007179215, 42.14176657659726], [8.675797500679295, 42.11780543389053], [8.649213202481965, 42.027748641035195], [8.67589131533128, 41.98593713927073], [8.654178733373803, 41.999997420460694], [8.624153817800321, 42.04336107249913], [8.648050846432461, 42.02340843734736], [8.690177078656276, 42.011160303985726], [8.641607372430753, 42.00733347786683], [8.582268268474266, 42.040818324770555], [8.581008361272861, 42.04751706755497], [8.601137512076887, 42.03419860767213], [8.599364429959579, 42.03400341586362], [8.501298053662252, 42.08077293877686], [8.505954795214295, 42.19537381405004], [8.495376940067766, 42.12864734274971], [8.542522544941164, 42.06151386688751], [8.5576273069546, 42.0563276238356], [8.569946971094447, 42.054978569944474], [8.460413496027453, 42.141121426082414], [8.543745324181568, 42.2521655750708], [8.536637899694416, 42.24985335611046], [8.508218980800951, 42.21885346436906], [8.523050321881346, 42.10379532188134], [8.495055321881345, 42.10379532188134], [8.485498250261992, 42.24094233090396], [8.511070042267388, 42.25949774029031], [8.481804687380606, 42.19568147369202], [8.508941888215945, 42.131906564566314], [8.470343974902306, 42.17865351477734], [8.475408915151087, 42.20358865196228], [8.524506481513253, 42.13464355070732], [8.516526240121403, 42.13565345952256], [8.45053602460809, 42.20079750069242], [8.487220514461157, 42.320501477049945], [8.55193243323363, 42.34401160428595], [8.569557378554622, 42.34194687280251], [8.550307650518679, 42.3363485673321], [8.556973360097636, 42.34030264621326], [8.584396064831667, 42.351062489152866], [8.628305570758522, 42.357762451612906], [8.624498779148857, 42.356431889673004], [8.633334246879562, 42.36153628794307], [8.672899921518441, 42.372457516275986], [8.67569505135069, 42.37146219425793], [8.60841329986961, 42.333802845537846], [8.599214075836132, 42.23637835942038], [8.616202377268833, 42.20789134810821], [8.621562421346454, 42.20484362958828], [8.57211623335283, 42.22690170944878], [8.543518909406927, 42.2627077405752], [8.54826755772483, 42.25714051551333], [8.618031114416512, 42.21941435868874], [8.636039634614475, 42.21320613794581], [8.561592178083755, 42.220517913312065], [8.5124504437905, 42.269090090487126], [8.50618128916394, 42.35690527515554], [8.554119728986146, 42.41182534359134], [8.534997048212013, 42.34558035778498], [8.588546855206793, 42.25543064562813], [8.609523472469098, 42.252768114091765], [8.466390090314052, 42.28740986181928], [8.459923531662401, 42.354650764479146], [8.464773498338797, 42.30871478456797], [8.451525180360724, 42.34653043061639], [8.449885157908238, 42.38974273274529], [8.515849860608663, 42.47990565643428], [8.586151713688576, 42.478392613681635], [8.586232965244829, 42.48053338268304], [8.60530500637329, 42.474551350279285], [8.64801087704511, 42.472012312346756], [8.73738751991693, 42.4382085821965], [8.81996434112479, 42.42030796009081], [8.870235395760453, 42.42648510759272], [8.945131541169756, 42.38517376302479], [8.972399453105774, 42.31937090864306], [8.957723687779385, 42.33848162572621], [9.026847977572888, 42.30701499507897], [9.027064464778789, 42.30736718956375], [9.054328808419978, 42.30607638081089], [9.102274364425329, 42.28526277802241], [9.13854332768576, 42.24189007707804], [9.149735601006046, 42.20489553800264], [9.140375846493697, 42.220353930844304], [9.209755398307738, 42.156442328359375], [9.23224901700591, 42.1087989088289], [9.233492110000356, 42.08906101613744], [9.216520777610407, 42.11029861747937], [9.186443785319984, 42.12390408991316], [9.29866550228997, 42.09069783590328], [9.31749804202555, 42.00501259416795], [9.317051794926076, 41.985790174527885], [9.330898209452545, 41.964027670725336], [9.344096479251487, 41.91790490895868], [9.339751439770641, 41.863615027431976], [9.31837357011575, 41.89706933261949], [9.31598245543835, 41.93351536355863], [9.291566006692234, 41.93176562727321], [9.319568669023365, 41.95066771113741], [9.37556596252709, 41.96354577606507], [9.476570736514828, 41.91944317306159]]]]}}]}