{"type": "FeatureCollection", "features": [{"type": "Feature", "properties": {"name": "Grand Est"}, "geometry": {"type": "MultiPolygon", "coordinates": [[[[4.862940622356179, 50.24939007000462], [4.889660969918006, 50.21828905300796], [4.837930250305829, 50.24318418891248], [4.8908229463217925, 50.24354389850468], [4.96416319478207, 50.178298488105895], [4.969168283487854, 50.1057944772142], [4.963327844832721, 50.082539492898036], [4.903190879981844, 49.99255815119635], [4.8293154092439545, 49.99425994518154], [4.8986078661202574, 50.00562167774334], [4.9204569259212505, 50.02790306147484], [4.926049166798857, 50.05799452679079], [4.927524282150767, 50.05158529099099], [4.921579871371231, 50.00438984843312], [4.879932102038143, 49.93429873591409], [4.880872430891381, 49.982814291253234], [4.848210032710217, 50.03033626981556], [4.897990801591863, 50.01628383610366], [4.951556634293126, 49.95400372664923], [4.961648751930494, 49.89248104318122], [4.950783091115661, 49.85113757696363], [4.94306398761939, 49.837243762305995], [4.937206200105794, 49.82407644064387], [4.919188863941383, 49.79810749508041], [4.918713814660885, 49.80185701423334], [4.93476495993189, 49.85778344459996], [4.921041110027994, 49.90212755810354], [4.93074222448056, 49.89181878978651], [4.947349354792493, 49.8509586770139], [4.939853684036047, 49.83603183970367], [4.89669744179057, 49.87879621019315], [4.883643392332906, 49.88414457630415], [4.890276894802694, 49.8851291250373], [4.937211792590828, 49.89557026094659], [4.965169329922755, 49.89692973340227], [4.986604592391582, 49.89583887399004], [5.033253066445631, 49.88026877136342], [5.070772430081024, 49.8562912953909], [5.072778162799481, 49.85580569325807], [5.118103990561142, 49.845939763689415], [5.154708051242936, 49.82462940273398], [5.197479246108792, 49.78448565674625], [5.199664916354818, 49.78347956733418], [5.200805636495364, 49.78215168290847], [5.192953252810437, 49.78280687066746], [5.2278793991345385, 49.790495121008036], [5.28664251546677, 49.78750839211143], [5.3384133993251055, 49.759152386173874], [5.37811550254677, 49.72423700593685], [5.403670692293731, 49.624422762359075], [5.352670064789077, 49.55778629627432], [5.370519276200565, 49.57643842298479], [5.390646585457035, 49.628244173980775], [5.377129873821674, 49.671299802834056], [5.337142597686292, 49.705229505687214], [5.310863362875233, 49.711065462403376], [5.275246424031069, 49.701151166833554], [5.25254940216797, 49.684471316061604], [5.261641079551341, 49.694987267650774], [5.309313310387044, 49.722480466767756], [5.364898164703456, 49.722263965137124], [5.382334754090924, 49.71612903476979], [5.420663433070669, 49.70613190768809], [5.479766203036933, 49.6551851358458], [5.471552541237248, 49.53546386894511], [5.40680287866384, 49.49147429792979], [5.3946334666106335, 49.487762381274145], [5.343359929857805, 49.45842217714112], [5.294838273728414, 49.443710136467914], [5.2300564311807065, 49.45374053736749], [5.186530733540448, 49.491568506007035], [5.179677029563195, 49.50396618433891], [5.2031362228368625, 49.478571108652915], [5.232261683097557, 49.46403053048747], [5.242412426100414, 49.46267920063619], [5.201293277838616, 49.460124044735494], [5.17320995073723, 49.46319272184864], [5.14332154708308, 49.47278532751993], [5.1172276201375135, 49.488695268180905], [5.134897357038936, 49.48514694756006], [5.156479818508573, 49.48782279561424], [5.168717612484756, 49.493312863651134], [5.1788946975289845, 49.5019926791894], [5.192690306606141, 49.52397671491841], [5.199507796372044, 49.549415036377226], [5.199850576154537, 49.550504820846776], [5.198051807262155, 49.53280930537573], [5.196707024674762, 49.53146582930863], [5.197426557907971, 49.531368959570116], [5.18095401202241, 49.47028333687529], [5.148319706189612, 49.43561886777857], [5.141369909755997, 49.428679268247016], [5.158967421610585, 49.45250112108595], [5.1709302731361095, 49.50470740761022], [5.1677464414568846, 49.52393853147496], [5.167078080698246, 49.52380946909375], [5.145050833797829, 49.549766723183886], [5.155981670037192, 49.545912440025575], [5.189055946596655, 49.506208902694404], [5.199128097424442, 49.47440953289372], [5.1987777432574385, 49.47402855049668], [5.19479993907509, 49.48672299876326], [5.205795565227879, 49.46502426365002], [5.2136648068649025, 49.41521938335574], [5.2011483669402265, 49.36995649511194], [5.1688096130973635, 49.31486923820799], [5.139662272346784, 49.288520585177324], [5.121809005440251, 49.27181268893838], [5.132280617239871, 49.29264457010849], [5.136199027655043, 49.321259368286064], [5.131146530750633, 49.3454924194003], [5.125613198771713, 49.35730715842337], [5.133620653140344, 49.34553236920816], [5.148646088937367, 49.30548024628253], [5.137620558581751, 49.23251254018413], [5.096018004570583, 49.189932257940896], [5.070192423111182, 49.17656459014873], [4.985200427778517, 49.13588245090937], [4.918405258976096, 49.15697695440862], [4.9204536546223725, 49.15493084205289], [4.841339772767479, 49.13626874040058], [4.725890389636839, 49.152521465848494], [4.621690942282675, 49.136121066597234], [4.551440910964129, 49.170518605171395], [4.532338506634236, 49.197985934968194], [4.5475539378480825, 49.18892777243596], [4.551663319766281, 49.1869259606257], [4.4456462621603885, 49.176155493250384], [4.369178724020368, 49.19261329833586], [4.332469498002406, 49.228197352111074], [4.368716155560542, 49.22012341380734], [4.357992345886531, 49.217567775609545], [4.310073660191911, 49.221888695752675], [4.267425075557372, 49.23958097021588], [4.240811896196033, 49.25956929823777], [4.16246108464518, 49.30061909077994], [4.152487525238983, 49.302323279961065], [4.002304161568975, 49.32247713961262], [3.982024701996328, 49.345950540540336], [3.9408473647376874, 49.39007219270936], [3.9565813183574123, 49.49293326777707], [3.9850345520416783, 49.521421078380165], [4.022809734018434, 49.54027504307685], [3.9848295593748935, 49.496147409466246], [3.983392250705313, 49.40438289124408], [3.9701225188013134, 49.41747138501194], [3.949612777992154, 49.45179718689555], [3.945043449674938, 49.520770394813994], [3.9805880472432436, 49.5786774391309], [4.00143853577649, 49.592051940739935], [3.975101627383983, 49.54757705680753], [3.974816925421472, 49.50209091556844], [3.9686735004304863, 49.51816757433101], [3.9677359216919244, 49.570545412735875], [3.978288966262864, 49.59867966335578], [3.9732668391592787, 49.571797728646565], [3.9809092622751283, 49.53270844342595], [3.981882586297763, 49.52871339119762], [3.9703039768095576, 49.54950029710825], [3.9654552269901826, 49.56326269608537], [3.956703410009519, 49.579343941899715], [3.94919331547261, 49.648974897332685], [3.9971042946669315, 49.7157602108888], [4.034670672153182, 49.73352226661781], [4.0665956338102545, 49.73920742265616], [4.08227987772385, 49.738254471753535], [4.0680728480433865, 49.73474535940511], [4.052607300963635, 49.72474654098566], [4.058827464080428, 49.73499550390953], [4.083747627274357, 49.75587096473267], [4.112067909973014, 49.771882899623826], [4.1240728259597885, 49.7755361771829], [4.115588602299779, 49.77125220629042], [4.1291790128395665, 49.78204068936282], [4.166339996334536, 49.80381854658725], [4.152379987182204, 49.78920826078868], [4.13716062644678, 49.758019052387375], [4.13850171120006, 49.725034113748485], [4.15700247133126, 49.69150132412941], [4.13615245761353, 49.707004865279416], [4.110238008307731, 49.76926531889009], [4.123869116497996, 49.848779978761634], [4.142143171936837, 49.88256458758717], [4.160737013547175, 49.90408257304421], [4.158139225933253, 49.89861676419376], [4.151327260579757, 49.87773575531025], [4.151286588991734, 49.8556371841685], [4.158236830086829, 49.83405930485624], [4.158680285080539, 49.83181773817168], [4.149230213510288, 49.841007628840664], [4.121380797869264, 49.88751671492632], [4.118131045970612, 49.93411630153504], [4.1378666774376, 50.016891201230806], [4.281719472730038, 50.06007107245897], [4.44510035490638, 50.03203783170497], [4.438242229687785, 50.0322009023057], [4.443810318929879, 50.033387575613865], [4.583729769513675, 50.078089682351056], [4.6209331989513664, 50.08134231368765], [4.5964323593507, 50.06889583387666], [4.5805158216286435, 50.05257482271652], [4.578191858109556, 50.04840844505824], [4.580663852784456, 50.052601104427794], [4.587196576204613, 50.016808517311], [4.588449239319453, 50.011552262532874], [4.573596018750994, 50.06061214753525], [4.586101671940838, 50.11960058689576], [4.6132756793922285, 50.156644061448915], [4.746703570255675, 50.24418580193767], [4.862940622356179, 50.24939007000462]]], [[[5.3447973766067856, 49.69741694788158], [5.466295107914386, 49.67910713511724], [5.534732540295467, 49.59925199549916], [5.552334803196359, 49.556712690218305], [5.5526565806589065, 49.50885650694137], [5.548515546660228, 49.494778915991674], [5.5468938523503235, 49.532286270330246], [5.509764894462377, 49.583344904210726], [5.5613336286875725, 49.55008227185326], [5.566530565686316, 49.44483254260093], [5.55720814752685, 49.43176922667816], [5.564086320865092, 49.46730422481019], [5.558377060416283, 49.49671429957609], [5.568096019997972, 49.478341067857315], [5.5539548527836695, 49.49389093712685], [5.537165716854741, 49.50432876270616], [5.519954762181931, 49.508682188318915], [5.565100941896503, 49.511367109578714], [5.566932080867448, 49.51171757695605], [5.5869319363068275, 49.523138628157476], [5.64716882473724, 49.535726154235576], [5.711711594843709, 49.51663056808252], [5.766323064316734, 49.47684557778982], [5.798141835719136, 49.441994602427414], [5.816179514169628, 49.41147076935013], [5.828248101315143, 49.37057825875303], [5.827719486149279, 49.33143717565378], [5.825730955079686, 49.326098578558984], [5.815337173080405, 49.367499829183274], [5.786328120102116, 49.399172150895915], [5.814719350375212, 49.386394041839445], [5.8580808405932085, 49.3168129030267], [5.842734637264582, 49.23925231390294], [5.812000086972002, 49.20509133333609], [5.820759708174115, 49.22453360940392], [5.820841516021518, 49.22379599370945], [5.811453303778921, 49.2569313405057], [5.782400813342094, 49.288395853659964], [5.834039404926403, 49.26082125969822], [5.861141263452865, 49.16746991695212], [5.845565340385639, 49.12434781263755], [5.848844260398205, 49.13871829510014], [5.848713399155652, 49.145222856986194], [5.842479281691403, 49.16364846284608], [5.813483005486853, 49.19368712745072], [5.775936168773727, 49.206326397126524], [5.8326940295963405, 49.20935886506624], [5.898916054058517, 49.16631019291063], [5.93816196365927, 49.08104518304687], [5.941895258178938, 49.03537264249709], [5.928818843262181, 48.99253751246649], [5.912171970293504, 48.9674948430959], [5.916479871389937, 48.97999452263232], [5.916044583208558, 49.01289208810647], [5.898277936700556, 49.04726537412014], [5.878520687089904, 49.06332873982191], [5.898415478127443, 49.053257695093684], [5.9314580909164984, 49.02010331106023], [5.948085036242648, 48.9771240990946], [5.948328069840256, 48.937802318362756], [5.93276258540746, 48.89504382186575], [5.88792537626684, 48.85365903855933], [5.829057993443906, 48.84186947282097], [5.80594625395143, 48.84703125170273], [5.832740953702653, 48.85170027035227], [5.834055896534367, 48.85073164195704], [5.843971400703518, 48.86161361229647], [5.855459179434367, 48.88718793443088], [5.856855010329497, 48.92493920478526], [5.847884771631074, 48.9502952863856], [5.850370587973189, 48.947532437147714], [5.872185198768605, 48.90178874152965], [5.879074000953375, 48.84739510783852], [5.873026962334318, 48.79973451609935], [5.849623715173937, 48.734444750663336], [5.829850058213181, 48.70486640739454], [5.807549266830333, 48.684377190854015], [5.81733344497495, 48.70141004028023], [5.8190921990580895, 48.760637691706826], [5.7985362437633565, 48.796172449912916], [5.820442090690832, 48.778346182335056], [5.847684326203883, 48.7307537184516], [5.857936363005924, 48.626200224581424], [5.850411939062374, 48.57839250996968], [5.8139935215672, 48.52524065358954], [5.797251919254053, 48.52079262627039], [5.8157940221483475, 48.56246600668387], [5.806013109307479, 48.60865524844225], [5.779000986458053, 48.638661109792125], [5.806949399949309, 48.628718962341715], [5.836459913927395, 48.60319508771495], [5.8560537984905965, 48.57006223645444], [5.864372889934692, 48.53621451245819], [5.863637837292743, 48.511855729008886], [5.863772813162952, 48.47955226321858], [5.822542041608695, 48.40664303534681], [5.775212008481404, 48.37475392374335], [5.723913874992506, 48.36305833482102], [5.687468123572495, 48.36802561692552], [5.6446952469407154, 48.345056206754705], [5.602069753454203, 48.33797335302774], [5.567060452627021, 48.34066316452819], [5.577620699426623, 48.34251243087848], [5.535622101092325, 48.323184578171066], [5.476384450659472, 48.31190233167384], [5.41359151908906, 48.32830248136764], [5.291429254924079, 48.405284770050514], [5.268003965547374, 48.431066966766764], [5.249524062271516, 48.467115502791465], [5.245895427203369, 48.48611471638906], [5.267005508872038, 48.43753015233446], [5.306318165827062, 48.40883189127399], [5.310626446377343, 48.40776079089488], [5.2779638352108496, 48.40775235450277], [5.241413520518259, 48.41460334734138], [5.144640719338182, 48.45131559947006], [5.0753386509700835, 48.49025609168021], [5.028608846679425, 48.50725011185188], [4.980997568905975, 48.53445616357537], [4.957200752506833, 48.55252966049014], [4.9348889117335375, 48.57721646560001], [4.92151508980431, 48.59825609526195], [4.909243752567141, 48.62537679037776], [4.91391900534606, 48.63599488857466], [4.901383579499968, 48.650784997396386], [4.894641205144563, 48.707862086722336], [4.895133908956795, 48.70266688520625], [4.9118247843400855, 48.67952462666763], [4.900606772200644, 48.684127658932056], [4.86700438983062, 48.70116032832334], [4.844183334707522, 48.71775812300438], [4.815495912615619, 48.7588370680011], [4.808677641958921, 48.82343978540592], [4.834877851619766, 48.87835366155636], [4.84356117742966, 48.882153046919335], [4.832222103998807, 48.83128639083711], [4.837934215506803, 48.80550685362365], [4.829855890527173, 48.82178024492603], [4.821542000276211, 48.85884516932851], [4.823588304159344, 48.89810844528771], [4.83962569978248, 48.94308163767324], [4.862375943764267, 48.97622821480887], [4.899279372846986, 49.00449917695397], [4.932325174813111, 49.01602672824703], [4.9649635956589675, 49.02161748221675], [4.9595299684717835, 49.01981310948422], [4.948095249208108, 49.01371501425494], [4.938856557287124, 49.006479628536944], [4.932178534610911, 48.99859640791485], [4.923860650097461, 48.98253078916375], [4.919887675289807, 48.96787412510813], [4.919729381309063, 48.96003283693745], [4.917381577121911, 48.98558171990169], [4.932430426634124, 49.03921580373868], [4.958494869745639, 49.07131323671674], [4.978239124349981, 49.08571821399922], [4.974155978761248, 49.082768923174214], [4.950076784334698, 49.05877321082153], [4.935831768980207, 49.0243654328885], [4.9407639197161926, 48.97596131800628], [4.962534334380537, 48.94428410751278], [4.981116643555344, 48.932949019241775], [4.9484110642833405, 48.94391488733547], [4.909426036718698, 48.980201771315095], [4.889239182481818, 49.0263937037181], [4.887168323204564, 49.08225287893525], [4.8878295771321945, 49.078327135416096], [4.886951743320675, 49.08074326105859], [4.858290602299188, 49.14148800164043], [4.856789451943848, 49.18950493472464], [4.871397090369734, 49.23093790306674], [4.889094290049766, 49.254264569896115], [4.8839871138453335, 49.237789228571756], [4.88952648132906, 49.280837027446005], [4.969567576888817, 49.34940740985127], [4.989313995429416, 49.3590897420591], [4.961377441418249, 49.32705545981587], [4.9515819110626325, 49.271337753717475], [4.960105346859656, 49.246071630791846], [4.957564801228287, 49.24886484157663], [4.944253469249367, 49.274281580599705], [4.936432972344957, 49.31158863171393], [4.941889382760129, 49.353891429891505], [4.962292994559749, 49.392455311061624], [5.004687727653216, 49.43610741482267], [5.0149163869026365, 49.44260676179201], [5.019183633059774, 49.45295550488806], [5.014093193135097, 49.42830261664425], [5.018226434772121, 49.39561373634997], [5.011250060924909, 49.407291001236736], [5.003228256742562, 49.43207144950331], [5.001955902575558, 49.44089646710628], [5.010182053403344, 49.41674309730559], [5.035828329962809, 49.38602755997442], [5.019777166202171, 49.39386127681612], [4.990587919301754, 49.429728530906246], [4.975681558543116, 49.46816146852503], [4.971265726863891, 49.49312859238979], [4.983536578389415, 49.54854287891404], [5.0082540902440025, 49.577944731752986], [5.013388293810388, 49.58324513222142], [5.008351987977591, 49.571320663124716], [4.99776744209203, 49.543041040429884], [4.997872975325238, 49.55303017069137], [5.001186192737844, 49.56807869462427], [5.000001423845463, 49.55827117915323], [5.0003442036279555, 49.567686963622776], [5.009007693393859, 49.603101285081586], [5.032121302471016, 49.6378513208106], [5.057502387515243, 49.65953913634886], [5.096196181491426, 49.67852120438575], [5.144144642961065, 49.68493305243994], [5.191874379862486, 49.67424273181909], [5.224798452916919, 49.655436672480064], [5.213806049262769, 49.65902927815135], [5.205586722161383, 49.66007795526451], [5.250115573899586, 49.66253079936381], [5.277670316902443, 49.65880746951253], [5.322571777163137, 49.63899289134709], [5.3531929704368055, 49.6034258156611], [5.351305266459552, 49.60492349399296], [5.316129568819294, 49.63427146263252], [5.271517726271587, 49.642345863532086], [5.260922070142194, 49.64064182285888], [5.312700533389366, 49.670209618725856], [5.3343251213361595, 49.67787970207021], [5.308335458762752, 49.651050131054895], [5.3447973766067856, 49.69741694788158]]], [[[5.734503943111849, 49.648727352846706], [5.780725576332118, 49.64556587464081], [5.805643022490049, 49.63600007918007], [5.8329212784688265, 49.628395687411086], [5.881078864106085, 49.59127768624284], [5.880566955849736, 49.59108437004621], [5.887082653222739, 49.58963368358465], [5.99179026797849, 49.55943509945889], [6.034219896176677, 49.48179668579318], [6.042090792503609, 49.42557303843394], [6.031847383096152, 49.381195882059785], [6.0215176996438595, 49.36388651143112], [6.021761952997634, 49.39798996656541], [6.004047106077114, 49.43448627747487], [5.987567968883302, 49.449612751010825], [6.001229370235613, 49.442189268512855], [6.027465921284776, 49.41974974455963], [6.048032078520766, 49.38823883328022], [6.052365958652683, 49.3725083734717], [6.036693889972175, 49.392373554322305], [6.061858656974347, 49.380113092547674], [6.09620036657509, 49.33189035569899], [6.104268302789225, 49.29900445337919], [6.1176123025803975, 49.264773118724065], [6.114145766476051, 49.19945222361699], [6.07716199045537, 49.146583856711004], [6.062210293674975, 49.1385075492525], [6.086136087321068, 49.19161587988749], [6.079258344547852, 49.23730727094978], [6.092418954978264, 49.220675626260636], [6.115145689218459, 49.16095215117581], [6.090939169562023, 49.07305526073168], [6.03420385267984, 49.027863302774364], [5.988546849471566, 49.01565247012988], [6.0226183075163915, 49.05093504369829], [6.030937962102504, 49.11235888463365], [6.030282232015725, 49.117649626853], [6.015924204586732, 49.12892066097434], [6.082637244709862, 49.107717480747574], [6.116744837743336, 49.07975420558401], [6.139122499474452, 49.04149817315978], [6.142341745821485, 49.02078339961503], [6.118287300898241, 49.05580301764797], [6.094297171522462, 49.07110202725272], [6.1483143131042555, 49.05805129206449], [6.189771842232476, 49.029076299227114], [6.196310952364302, 49.015605935916305], [6.16782623797225, 49.031472674545185], [6.303872280936048, 49.02993111538243], [6.352433552652322, 49.0145193254099], [6.392710053471971, 48.98465722947609], [6.420168200407204, 48.931735158706374], [6.417693757616655, 48.87113710157723], [6.391710611608371, 48.82869683978901], [6.380714936052984, 48.82009689555168], [6.3900128038739, 48.832257041769445], [6.39666572761606, 48.85048858509788], [6.397318186536556, 48.87332314284995], [6.391031703760664, 48.89317759627021], [6.386609231012062, 48.900459095204184], [6.408217453894269, 48.87322057443069], [6.377490905072725, 48.8788451342921], [6.390142787323218, 48.88372389063317], [6.440308584047031, 48.88882580719002], [6.490355328350262, 48.876197732495356], [6.533681471745837, 48.8542255379145], [6.53368530808126, 48.85360157211179], [6.574583187156983, 48.85357188901366], [6.623772312008848, 48.83351078834434], [6.660445016422681, 48.79404063458775], [6.651229198451553, 48.8009644644096], [6.655837054357343, 48.79951410070552], [6.70599153434486, 48.786706022267694], [6.749188930088929, 48.758715734929886], [6.8814276735708795, 48.71927113057772], [6.872237745895252, 48.71994153986333], [6.901021628500214, 48.72543543150922], [6.940554715760222, 48.72521166853691], [7.016906406956368, 48.69953912992031], [7.1856495448616995, 48.49912969248666], [7.085943843791976, 48.42344130868029], [7.022023791486322, 48.3881583157508], [6.966671292384065, 48.34653094199486], [6.878388682935111, 48.31984302126429], [6.8658136183619805, 48.3356038265233], [6.868759077445054, 48.31478639035951], [6.814649821037014, 48.296318459469745], [6.717924803417394, 48.31801874974223], [6.630637113468362, 48.32879130224018], [6.5679925634882235, 48.37420523165684], [6.5469212913570995, 48.427797763219985], [6.551120864308049, 48.422365016107165], [6.593904539918434, 48.37963005963779], [6.632265482692186, 48.37274193608673], [6.528551919351806, 48.31815563637855], [6.460689874505101, 48.31439244984256], [6.4327591715305354, 48.298434194611815], [6.315152692440382, 48.32295272654828], [6.318211010569121, 48.33803266246031], [6.3634235095909775, 48.304064145991454], [6.308686545520497, 48.30885556488127], [6.248471642587761, 48.333822461055874], [6.281949848522681, 48.33783902736551], [6.350199617044716, 48.362990314644485], [6.333336803746623, 48.34254494949235], [6.345164861866574, 48.36305745898018], [6.329319419008479, 48.33479292494487], [6.160825848252784, 48.30026366912386], [6.208443775583862, 48.32854823527121], [6.231419169224795, 48.31455717832177], [6.133943217488919, 48.26271375470655], [5.9646918657134, 48.25823546545311], [5.861416289287833, 48.31646050117429], [5.86719938009369, 48.33944508471145], [5.839550247030337, 48.318688252871574], [5.794460741351693, 48.353632642648456], [5.7736358965971135, 48.4380594081635], [5.804805780970051, 48.496537688923155], [5.815908291987757, 48.50670027070334], [5.811460511976795, 48.5003497016132], [5.805094912277687, 48.48461764990815], [5.8031655217486025, 48.46981123289624], [5.806927726437891, 48.44943252902971], [5.822873173965912, 48.42074888594699], [5.846616180647502, 48.400616974138295], [5.842026159092033, 48.40220029733286], [5.841128885085186, 48.40197787308632], [5.843879370775752, 48.40312472092665], [5.81761573629009, 48.39098884984961], [5.75360642480845, 48.389624640774805], [5.682816949042722, 48.43997219159313], [5.665078162707256, 48.487896270991115], [5.665485110065309, 48.515151487541814], [5.670376201509403, 48.495739763545565], [5.6822360860726056, 48.47585691228505], [5.703484600050691, 48.45756103765829], [5.668591013541947, 48.47189889020788], [5.629800890692522, 48.51405475155775], [5.616329977851652, 48.57709799331612], [5.648318080745947, 48.65427937372961], [5.6820704784328, 48.675561346410454], [5.662570060937625, 48.64706149003032], [5.657947636994076, 48.62832377541858], [5.656597673796117, 48.6717122815484], [5.672677909309168, 48.64356581766495], [5.669401756236644, 48.643449550087084], [5.628719800941911, 48.69933230829317], [5.634126555025051, 48.78162995971977], [5.661928733169668, 48.821470809145985], [5.678825941786818, 48.835983592605466], [5.670830284826064, 48.82407124933666], [5.678539037665681, 48.846365483900655], [5.679083999046625, 48.84939489216147], [5.680524801231394, 48.84463725847035], [5.680191412026811, 48.84246556285228], [5.674063228368926, 48.8513707136144], [5.660258989670503, 48.88819679521474], [5.662006820565634, 48.93794406556912], [5.680480599296482, 48.976812387703525], [5.7048101034656336, 49.003360358042954], [5.761673046297347, 49.038647729647735], [5.812593746048569, 49.04692074829727], [5.837030006556094, 49.04171052717903], [5.79886062373316, 49.03273296144067], [5.762329414592541, 48.999698178134246], [5.750807930159743, 48.96919968163725], [5.751006963757352, 48.9430619009054], [5.763721909083502, 48.91117868893976], [5.787360521872557, 48.88692430490631], [5.782425312910095, 48.88792726017809], [5.751638063299444, 48.911262625879864], [5.720951416791442, 48.968861911893526], [5.722142128610063, 49.02724747736769], [5.737436029706497, 49.064795156904104], [5.75014515673782, 49.08240248753351], [5.743088741821062, 49.057189357502914], [5.74475803634073, 49.03010481695313], [5.7426059459414835, 49.041541807089374], [5.78637197040366, 49.01479713493375], [5.772291831226273, 49.00635960287348], [5.706662994513147, 49.02460287254927], [5.664702718308598, 49.072021537153915], [5.651436600844348, 49.112331143013805], [5.650427739601795, 49.16383570489986], [5.6581446596143605, 49.19415818736245], [5.662916736547135, 49.19406008304788], [5.685358595073597, 49.12705274030178], [5.682329186657905, 49.115232146340034], [5.633370696221079, 49.1659006594943], [5.620862483978482, 49.22090000629054], [5.627096291825885, 49.27447839059607], [5.643985913027997, 49.3135866666639], [5.669545362735419, 49.33927968609706], [5.660835159406792, 49.2837350969733], [5.696110649624789, 49.22535995816056], [5.688773879897884, 49.22457784910409], [5.6385828269195954, 49.27391617081673], [5.626037044920314, 49.337159421441015], [5.62932051385072, 49.35669282434622], [5.629979898684857, 49.34431574124697], [5.633786485830372, 49.32941723064987], [5.637672164280865, 49.322623397572585], [5.632270935683265, 49.328420422210186], [5.617756405156292, 49.340073431917475], [5.640023175262759, 49.33585384576442], [5.663610063693172, 49.33842137184252], [5.644013919132552, 49.32716842304395], [5.596935058103497, 49.31391689042128], [5.499785237818069, 49.30970181168108], [5.459898283145259, 49.31985723729384], [5.42416914721633, 49.34172106287315], [5.402513980002029, 49.366168932142685], [5.373384939583718, 49.42070170042391], [5.364159679134907, 49.46188777518981], [5.3751698524731495, 49.51460677332184], [5.384611434313685, 49.52793145739907], [5.402749150052755, 49.561396289331626], [5.463039281461183, 49.59646487559239], [5.491844194412252, 49.61088613836462], [5.548170443961455, 49.62343636724567], [5.602090958078063, 49.61120730962133], [5.591782117905829, 49.61233897499494], [5.5556106720862815, 49.60216861692742], [5.517669975145388, 49.56541769194745], [5.5239187766076805, 49.57929579205871], [5.5696818987943315, 49.622099547872715], [5.636030691891914, 49.64342710464215], [5.689957302123533, 49.637810957655574], [5.709698529038629, 49.63128029687379], [5.702080198609016, 49.6307495783], [5.675335023516867, 49.62268261968609], [5.68575791972849, 49.63240567341497], [5.734503943111849, 49.648727352846706]]], [[[6.35217726412411, 49.555112718208896], [6.351015598385503, 49.554719680864196], [6.33748676579197, 49.55238632017158], [6.350667770888543, 49.559080665147384], [6.384873014692364, 49.56646491928812], [6.42391951991319, 49.56318862381894], [6.536977357721342, 49.52607540589435], [6.579548607723991, 49.49817330405124], [6.606695425443124, 49.46236281342545], [6.61902593067499, 49.42561371735979], [6.599567488188844, 49.340997541181906], [6.614923652912917, 49.37456058052158], [6.589110226159581, 49.47283651151727], [6.648094345241917, 49.42928681522103], [6.677710137060952, 49.35697155482568], [6.626019449209371, 49.26271643064645], [6.606291101683858, 49.26097074926733], [6.650099215855405, 49.3358884485713], [6.633006015094858, 49.390703863345564], [6.631005253358002, 49.39469298598586], [6.717478892503618, 49.33397808393965], [6.740948485125008, 49.27437424406029], [6.739092298006608, 49.26046710520624], [6.717600818153645, 49.316192949578046], [6.680063511223241, 49.34391770804938], [6.699843426845766, 49.33827311907581], [6.741134419535858, 49.307216373266854], [6.758049799015497, 49.275602979914424], [6.759375981753501, 49.27451431766396], [6.769579332306005, 49.25404156538583], [6.768160027876249, 49.25413968677394], [6.722077294591051, 49.298483773373825], [6.661456529924841, 49.30497613391407], [6.677658806183798, 49.31139330878176], [6.758138594974515, 49.29674111022039], [6.808819934776488, 49.197658786611385], [6.799222102636149, 49.1553434980313], [6.797641382689914, 49.198432108361985], [6.766190569744424, 49.24402693802222], [6.73949036008321, 49.254579393920515], [6.782272646686587, 49.254552349203934], [6.813510756436724, 49.24574043863477], [6.779827458417114, 49.23852304803418], [6.743927681618288, 49.19365376977611], [6.7406661018174505, 49.14682901650352], [6.727697987082046, 49.193454113503904], [6.771572693318338, 49.28799794933691], [6.842998633686103, 49.31105279769716], [6.889486174316596, 49.3047109368017], [6.916095033088209, 49.30664744619644], [6.947905988431965, 49.30302156816803], [7.007180741932133, 49.28054335252124], [7.0818648333484635, 49.25069161695151], [7.1071143456416195, 49.16551551895338], [7.0939301064929525, 49.186883993184686], [7.046749368729902, 49.20750961940095], [6.999237729140116, 49.18756598779661], [6.97559477731059, 49.11273725434413], [6.977635613764224, 49.09634839860608], [6.979607734781809, 49.1772435536506], [7.055597113122165, 49.23902666870195], [7.111514922768428, 49.238061235720856], [7.161350661455429, 49.21589849304116], [7.166426454132761, 49.21417925430405], [7.166273359973318, 49.21378084397741], [7.256357088017491, 49.21274525861811], [7.287758295880272, 49.20367509306101], [7.2498189639352955, 49.20195415641294], [7.211252985445766, 49.1813691560624], [7.219036440925998, 49.192742880998665], [7.253848238754427, 49.21827414976997], [7.290749328778462, 49.22896032341363], [7.307464864815771, 49.23001393074526], [7.280531976889287, 49.21866418113052], [7.256637491545708, 49.19630649724246], [7.264202073313876, 49.211305800492156], [7.295549750465666, 49.242421835131154], [7.340314114775064, 49.261579959818434], [7.35218342718772, 49.264264138226395], [7.3840626545302435, 49.269778446216755], [7.469225485288889, 49.2498658717259], [7.473097055041518, 49.23904182620645], [7.471968399330858, 49.25488713676662], [7.539672830307946, 49.22872417130306], [7.575936226664033, 49.10083447977623], [7.529352169219769, 49.04977763099613], [7.551883827329115, 49.07042031331281], [7.568147953849561, 49.15222407416123], [7.550179843148056, 49.19463562663144], [7.576289696589382, 49.16738166526527], [7.572634103625046, 49.169227554053755], [7.5678609338337735, 49.171352344140175], [7.608385341623632, 49.167114812170766], [7.6571829506748825, 49.149378917297184], [7.688133515696376, 49.12517741693742], [7.691573113051639, 49.11820743196818], [7.667345396830726, 49.13239541938078], [7.738421763218164, 49.07178674796219], [7.692433910026604, 48.937640495849905], [7.670070726765996, 48.90173781158731], [7.652894664172018, 48.88175255265845], [7.628562454455769, 48.86060023252618], [7.593917678110716, 48.84420568497091], [7.563370761111199, 48.83833019774364], [7.531488657972966, 48.83890510809759], [7.5009400511074125, 48.84688213905492], [7.4701787062964335, 48.86135943077321], [7.471979717511082, 48.860851499075935], [7.479509602854903, 48.85947818455429], [7.486776157560589, 48.859164030617706], [7.382233312581958, 48.8447565987169], [7.335483277405474, 48.84356598626247], [7.296739302231414, 48.849557878994084], [7.269338713177841, 48.85872219654498], [7.236853180320729, 48.87870924949595], [7.208959712702551, 48.913222343129014], [7.203109152490656, 48.927285631280874], [7.219721582145631, 48.90362685691943], [7.245024349196816, 48.88557309816901], [7.253067602780013, 48.88255056822921], [7.212500133615359, 48.88979117824361], [7.173584851903153, 48.900806656917254], [7.127647821440268, 48.90969338637285], [7.099629120637302, 48.92100868823242], [7.0703904040952095, 48.94071350841204], [7.044239968771836, 48.97422610109896], [7.033382059090011, 49.00662497922192], [7.0447849142962395, 48.989577928924795], [7.06728541683656, 48.9727499406815], [7.090294988075828, 48.965930693378795], [7.116885222216538, 48.969301436012856], [7.1609107173843976, 49.00326128562854], [7.176994154694958, 49.06621478771758], [7.182075190807457, 49.05586340787419], [7.173809433594364, 48.99438447299769], [7.1446821948671, 48.95560081904692], [7.1261783686943865, 48.941257510733834], [7.130372271114309, 48.94564566080395], [7.13400428685534, 48.95087943518669], [7.140206177427986, 48.96412449921479], [7.14322305627459, 48.97462602378415], [7.1446734430411265, 48.98463992605915], [7.144821826821954, 48.98243453793592], [7.141799338550061, 48.95796313315808], [7.125272752905394, 48.920703026385986], [7.09699566812102, 48.89171402747013], [7.0572171034876225, 48.86896114619924], [7.060445758158287, 48.87146777027607], [7.0646092219164, 48.87615966938596], [7.069922876587075, 48.884740114186734], [7.074293453923304, 48.89565129132606], [7.077040626170815, 48.91498764983302], [7.073531814032057, 48.940822786753756], [7.065297312173237, 48.95886258261389], [7.055455038391186, 48.97081842909984], [7.050253333748682, 48.97553021318986], [7.046913014775837, 48.97743592181127], [7.05119861712386, 48.97564532167075], [7.093674435777247, 48.96153388846512], [7.122992853430265, 48.956030139250544], [7.181559668443688, 48.91042375444813], [7.187683097556044, 48.81094241599044], [7.153740694221998, 48.77197171384603], [7.17078988315573, 48.80309071651256], [7.163536142483931, 48.8709179834787], [7.133197517470088, 48.905596891300405], [7.1516598116592425, 48.893874336793864], [7.178069977072724, 48.863446215684064], [7.184314959036722, 48.85002649657554], [7.164651504924264, 48.87143452758062], [7.130040011417481, 48.88725661113052], [7.0991395519049405, 48.8871744088573], [7.074206601777806, 48.876629572545895], [7.061708208575399, 48.8668112442821], [7.0877668405274505, 48.89348271056432], [7.1221013428907405, 48.91051067717483], [7.140944445176434, 48.91593003587748], [7.144634989254375, 48.915445816916815], [7.120302734984125, 48.9018094610977], [7.0946336763991145, 48.86450048710269], [7.090223915025836, 48.85422092861899], [7.105694317208806, 48.89847855772593], [7.149516513840233, 48.94073652875055], [7.212786308731832, 48.95382189695267], [7.274160061278556, 48.929143719331016], [7.307008068479258, 48.88355865615559], [7.314666517261324, 48.850323387168494], [7.314432063162201, 48.84661388820442], [7.3004516549015, 48.883913503211424], [7.264765666847003, 48.91581626413726], [7.267341856203552, 48.91745628006823], [7.295693985862514, 48.906069480378235], [7.367892037100604, 48.85250803980546], [7.3826462318781845, 48.838886943022395], [7.399298243966183, 48.81742458950517], [7.410885754838356, 48.79318548745748], [7.417337892622916, 48.76404539789906], [7.416195298662153, 48.73659044117537], [7.4115758578780335, 48.716392867742655], [7.397995670462248, 48.68756196441805], [7.3616781606011275, 48.642058281578755], [7.347604542451215, 48.62961993767115], [7.359876718202747, 48.65354781001484], [7.360345285967131, 48.70708882530494], [7.333835955664588, 48.747990237292676], [7.313645429524833, 48.76100970923069], [7.32174411296029, 48.758717628987995], [7.352265654348655, 48.74324324215126], [7.3972557637116285, 48.680604418788356], [7.3908314021947215, 48.6090351185855], [7.37790497920815, 48.58271592183842], [7.369100616190858, 48.55761918781577], [7.3526225281928514, 48.52716478700606], [7.330883084425266, 48.502460594165555], [7.302449136259997, 48.48129821783722], [7.268588168079266, 48.46957262126638], [7.286992843480863, 48.48592602930447], [7.264521401250835, 48.4590177754982], [7.212746530670589, 48.435491985909614], [7.127408655424402, 48.43362302188838], [7.084264196311555, 48.42353822266398], [6.923967593043633, 48.522444870079696], [6.910319284239777, 48.5275103314631], [6.922430371499786, 48.52658456849078], [6.893866254104748, 48.52111446013667], [6.855408326429121, 48.52097086942228], [6.664605069911071, 48.57748226507011], [6.626986465655141, 48.60297197773231], [6.592896945642658, 48.60967589929447], [6.546616801548447, 48.6305055355904], [6.519470983577319, 48.652173365412246], [6.508155687991152, 48.67031521165566], [6.5406468128430175, 48.656472110986336], [6.50767269191874, 48.655300427888214], [6.460874528254163, 48.667948462085505], [6.417100671649738, 48.69009626750464], [6.426057415952968, 48.68933419280998], [6.433509212676781, 48.688482109366824], [6.405335094927275, 48.68079286570791], [6.334794546105731, 48.68718542556931], [6.238804768987937, 48.76572290479582], [6.213552296239335, 48.800976403729784], [6.199355813463444, 48.84484685715005], [6.20075627238394, 48.89073141490212], [6.2158891961261, 48.930648958230556], [6.2405250639470164, 48.962739104448325], [6.248205388391629, 48.96800316021099], [6.227584242383345, 48.933252898422765], [6.225417799592796, 48.88621284129363], [6.243163946528028, 48.8518567705239], [6.264894447347679, 48.834694674590104], [6.271181719063952, 48.83262088461756], [6.11850576202775, 48.83764932545482], [6.0606670476356985, 48.8686340640837], [6.044706157767523, 48.89139570077289], [6.068671686895745, 48.874592707935506], [6.0326008284775385, 48.880855972747284], [5.985232699101759, 48.90648298235204], [5.953796254178515, 48.954070600384966], [5.950949500525547, 48.973741826840225], [5.964671162256665, 48.949855794415996], [5.986078755290138, 48.93257051925243], [5.918845795413269, 48.954061339025664], [5.878383767984275, 48.987546373147005], [5.839144037897496, 49.055657115366344], [5.846761692483608, 49.14619495630171], [5.910363150528434, 49.19973752987012], [5.9499161473201605, 49.20923469722564], [5.927854830437977, 49.18882873926832], [5.915952310781541, 49.14300784882419], [5.923519045021736, 49.11356437373936], [5.909651655452149, 49.13131872905023], [5.886953912678931, 49.20968412011251], [5.9292937063250255, 49.287950450747495], [5.94673000954463, 49.298200143288994], [5.925214233523949, 49.265063776383016], [5.921835697419603, 49.22388888127594], [5.913645697210774, 49.23848154662081], [5.91186963342491, 49.254287644301016], [5.930259343025653, 49.22950890745233], [5.903526110027825, 49.24315444567769], [5.869880041347317, 49.29066162652829], [5.8657319214792345, 49.30597916671979], [5.878608078715224, 49.28617825544037], [5.889990629764387, 49.27597873148715], [5.878384031116698, 49.28204524898917], [5.851050893922886, 49.30567572252513], [5.826436047002366, 49.35500403343459], [5.828262300356141, 49.41538748856888], [5.845134616903848, 49.452878117940216], [5.842317207496391, 49.43508696156606], [5.841004103823322, 49.43014731420683], [5.86624080667216, 49.56084415801627], [6.022220476022078, 49.53579339479846], [6.004610202128779, 49.53116772069883], [5.965431012828596, 49.544295828799164], [6.049490955312539, 49.54749377482425], [6.0292595532390285, 49.53933528249823], [6.038771423524572, 49.54883356744584], [6.034875838114116, 49.540677123589305], [6.0039260936233685, 49.489095218943696], [6.007991870226863, 49.510552120385704], [6.054424319113923, 49.56741535411335], [6.098669684900933, 49.583128265250245], [6.052437078625756, 49.52932489920471], [6.045679711635818, 49.53800648438687], [6.193412738017878, 49.599408900225214], [6.238090280349794, 49.59613811003717], [6.284042298537383, 49.58410890906307], [6.294933732555024, 49.579349342795474], [6.33758647222128, 49.55839015869691], [6.345806775465246, 49.55460484956719], [6.35217726412411, 49.555112718208896]]], [[[7.609433724956554, 49.129782285065616], [7.64789121259496, 49.135711742226384], [7.638856688245303, 49.13529307972551], [7.651906652763571, 49.13889938568338], [7.683755809912708, 49.14278708593985], [7.713152653978675, 49.14009894835647], [7.733590635897431, 49.13526525549837], [7.7233832775203695, 49.13560040789621], [7.713794047299167, 49.134464288981405], [7.7368786436997015, 49.14278886123817], [7.774302043060209, 49.14811597086011], [7.862838631897877, 49.13207535930594], [7.914074317414122, 49.136180653319094], [7.952339065227269, 49.13272652257734], [8.11389369644993, 49.07639296146643], [8.222608860159255, 49.059832252100456], [8.300196634465783, 48.96321717702225], [8.260249392250715, 48.87851929574691], [8.249040225882018, 48.871005690229566], [8.231244870216658, 48.84815589379315], [8.184261971087466, 48.76339581865681], [8.153021996570708, 48.729598196695854], [8.125810077418288, 48.71310085616594], [8.065966022019762, 48.692738376270086], [8.081417637591018, 48.70032248756031], [8.101641145901313, 48.71233593021284], [8.09702205629565, 48.70941827029216], [8.11633908003584, 48.734515004458196], [8.12064286774095, 48.74102269288477], [8.098635805947378, 48.69972675583492], [8.05370554743266, 48.668706179135754], [8.021433436948296, 48.66077435710238], [7.992777178695161, 48.660401114211695], [8.028765967974042, 48.67627212806768], [8.060434948418772, 48.71890208909311], [8.059494540974804, 48.700824787567676], [8.036983652973491, 48.65854238104644], [8.008823575664143, 48.63215366931602], [7.982224906484652, 48.61507696114614], [7.974587544183559, 48.61235875104635], [7.952041654068335, 48.59373864104734], [7.916503547143501, 48.57438215206976], [7.89607130253473, 48.569411232588735], [7.9105787341458225, 48.577337318262366], [7.897481899806509, 48.566120713983835], [7.900953229759692, 48.5695498060108], [7.89852104279195, 48.57248896640507], [7.910265691897426, 48.5513947409251], [7.899031679416463, 48.46773182368157], [7.839907084773703, 48.42060181441469], [7.849934426075039, 48.43034899482019], [7.866427204468803, 48.45831384626383], [7.864920139161011, 48.44105766732535], [7.844667995632526, 48.40103979904042], [7.833478791474474, 48.388704835282276], [7.8372782488277934, 48.39433136313344], [7.8397759358744645, 48.39922883060592], [7.836725125884465, 48.38882955431286], [7.83680418159855, 48.40215404376688], [7.833765472386652, 48.417219308747704], [7.838313021913011, 48.40921004953437], [7.851019590507501, 48.369026014781696], [7.84202308561703, 48.300576950528246], [7.7920555999881795, 48.243201329645274], [7.759708028432877, 48.22884700953861], [7.779287560418378, 48.247182281475226], [7.793334976977418, 48.26934285819872], [7.790857544811994, 48.24719275842653], [7.775295343416175, 48.205678977440215], [7.751582835675756, 48.17221863140759], [7.692529078420397, 48.11810761577864], [7.701807199551516, 48.135933576276265], [7.698585100357693, 48.11790004015338], [7.675614882975798, 48.07959364199446], [7.665178718139181, 48.069557931590495], [7.671037195787451, 48.07765044834739], [7.634909892206218, 48.036511954179595], [7.528673557675566, 48.02397537805568], [7.462319165483737, 48.05023337630349], [7.454177828796844, 48.07167128088632], [7.491370467799223, 48.05427729777161], [7.46141404501036, 48.05647752448993], [7.3904458470586984, 48.099663062167664], [7.368665482384592, 48.184024782472015], [7.378006973111935, 48.21595333125591], [7.380856561792465, 48.16790164094936], [7.416076238608982, 48.12068587187254], [7.233713143493671, 48.18828862294626], [7.223931945995303, 48.219851010142946], [7.248879056507975, 48.201849185382], [7.135419140122071, 48.23539584044542], [7.115374410116713, 48.28024255709421], [7.138876613358771, 48.245090207444214], [7.151648129301514, 48.23805764275628], [7.168510156934065, 48.233700160534845], [7.140593422700925, 48.23215794993923], [7.118135032851194, 48.234573474258234], [7.099140205473046, 48.238875372074446], [7.073579045415834, 48.24817692168255], [7.042381211004154, 48.268478545463445], [7.020682195208659, 48.295946249357755], [7.004459656068135, 48.34685041227634], [7.015086097952238, 48.40063094956572], [7.022428975680492, 48.41376970228972], [7.019126740136234, 48.40146452741438], [7.019298382896553, 48.41290425471342], [7.027281415951176, 48.45740885738536], [7.033394337657404, 48.5173149871083], [7.066349337062025, 48.56582665727751], [7.094683744537866, 48.58506532383012], [7.04890319009343, 48.50299114181392], [7.09930023895486, 48.413121294407595], [6.9891315311099325, 48.513640247617055], [7.068787344575599, 48.624838978111626], [7.17329346932941, 48.631562014090385], [7.138392598749166, 48.614232224501805], [7.129853156519137, 48.60964797069553], [7.158803831920733, 48.63674737873362], [7.204308863740002, 48.65556378216277], [7.194902915574734, 48.64912140583445], [7.188367471807149, 48.64127121299394], [7.185513383809143, 48.63696481218424], [7.19375902079185, 48.660756078161576], [7.204124597805278, 48.68073288141449], [7.203588236288372, 48.63067558121164], [7.2374163456513445, 48.57950675784874], [7.251501887039709, 48.571458371012], [7.239738570475167, 48.5751662907693], [7.203728044335412, 48.59609576270733], [7.1691767140328695, 48.648313174695055], [7.169951281797253, 48.716224189985155], [7.197737457548785, 48.76205806232885], [7.216181839398872, 48.77928371842124], [7.228688329537751, 48.794028035581945], [7.221612142121967, 48.77895313225734], [7.218222701337847, 48.76499555882463], [7.218004107377084, 48.74773460210094], [7.222610245161643, 48.725714512542524], [7.229231756033816, 48.71217541049483], [7.237093768121816, 48.70172105697761], [7.240379962899396, 48.698427960194536], [7.199594014137486, 48.73067051962177], [7.210588143796449, 48.725677719931774], [7.179370333152997, 48.734963735862735], [7.132214345098499, 48.775764496788575], [7.115771936837799, 48.82350211179557], [7.1155374827386755, 48.8316786128315], [7.120999931520742, 48.8100673438444], [7.147651938721443, 48.77423828066899], [7.196017691268168, 48.75452610304733], [7.244301486159767, 48.76462347124945], [7.277577682791194, 48.796223442274076], [7.2877740849741635, 48.823013071381006], [7.283056323600885, 48.79744151289731], [7.2474552650158754, 48.7474325389023], [7.206073010745624, 48.72511618308319], [7.184363554823566, 48.72069996412252], [7.18800065710926, 48.72167932282517], [7.205593159472549, 48.731875289435685], [7.208579791424602, 48.7310587557179], [7.184303398222194, 48.70966042745411], [7.14109044809506, 48.69162359114271], [7.091907988582518, 48.69092538886948], [7.041784495075736, 48.71362547241938], [7.013419040963279, 48.746129503424456], [7.008194022927276, 48.757889784315935], [7.025332188340758, 48.73882166320613], [7.029732482529911, 48.73443910869959], [6.986341857516068, 48.77817001652131], [6.979088116844269, 48.86010328348745], [7.006991305778001, 48.90785628615397], [7.005744902443957, 48.89399958400956], [7.011208331556311, 48.80563624555187], [7.057997146569734, 48.766885860749454], [7.049083564222753, 48.76656811153489], [6.97923538287614, 48.78904067832925], [6.952188985224163, 48.801290078188735], [6.9364546662513185, 48.811061786810136], [6.916970961608815, 48.82651957090015], [6.896890687826763, 48.850977417386105], [6.882458185967943, 48.88173921324625], [6.877105373829185, 48.92007635016698], [6.8823125460766965, 48.95171670867394], [6.891649123412925, 48.97539588581326], [6.9056647780836, 48.997554330614044], [6.922528241841714, 49.01630822972393], [6.944696896512377, 49.03430685380076], [6.97756033187898, 49.05213597252987], [6.960445247094606, 49.033980973614014], [6.947346661449939, 49.00474086684192], [6.944938173178046, 48.98925546206407], [6.945086556958874, 48.99748807394085], [6.9477669437254095, 49.01701597621585], [6.952629822572014, 49.033515500785214], [6.96006371314466, 49.049594564813304], [6.979821728885691, 49.077306339196056], [6.9970676313056135, 49.094000489266165], [7.0098538051329005, 49.103321180953074], [6.991272566405636, 49.07611752700232], [6.984238809192543, 49.0265245921258], [6.978463845305042, 49.04201321228242], [6.996437282615603, 49.117052714371454], [7.055974777783462, 49.15980056398715], [7.104363011924172, 49.165435306621205], [7.15804658316344, 49.1509700593185], [7.19359908570376, 49.1231980710752], [7.2136579409099895, 49.093231020778084], [7.221082031228163, 49.067643898901046], [7.20424759590479, 49.08931449158796], [7.191224879362697, 49.09880131176759], [7.183992178559732, 49.10159261362715], [7.219003148096847, 49.09558134308274], [7.25738786638464, 49.08468882175639], [7.297854397219987, 49.07747143177078], [7.323871650803184, 49.06937490183099], [7.36310441785437, 49.04305914308057], [7.386264847509343, 49.00762236871912], [7.384722287297448, 49.00865565687099], [7.366758819679271, 49.03077675050405], [7.3504012868221595, 49.041557803455014], [7.3435686977685855, 49.04399812100592], [7.347934722594526, 49.043178013737524], [7.365476687418042, 49.04405340128311], [7.47441984243941, 49.058781969382295], [7.5018563971450964, 49.05822581544571], [7.527976282488917, 49.05285250092406], [7.548409293703566, 49.04542456922679], [7.571393948892587, 49.03406186094508], [7.558819342027034, 49.03702889190241], [7.545833238888801, 49.03755980225636], [7.534226321889284, 49.03509031502909], [7.517247545544232, 49.02675976747382], [7.509043335827982, 49.02070144734156], [7.509225273234005, 49.020602188412695], [7.530368089973396, 49.05483550415009], [7.609433724956554, 49.129782285065616]]], [[[7.666812826343697, 48.17429365447205], [7.672403437973208, 48.07889796642636], [7.671938201417161, 48.08312029229497], [7.6682869862974155, 48.09160089474223], [7.711593087281501, 48.040286185564185], [7.716664479911012, 47.94193596660294], [7.680543630212203, 47.88695770642385], [7.663497205203747, 47.87852844170005], [7.678397225940633, 47.91179273615699], [7.679545314416804, 47.894956827639426], [7.667746839779417, 47.86034141441432], [7.653851365856738, 47.83794789718899], [7.635448851138643, 47.81698307026667], [7.631774334854265, 47.815419164691704], [7.649697881979442, 47.84059122318189], [7.657813022346421, 47.875333362846355], [7.6550630489665235, 47.901539672972824], [7.658304514027818, 47.88686557808013], [7.658371095546087, 47.88022343168728], [7.664089319266561, 47.854380100859764], [7.638176860906994, 47.77444343173574], [7.5991781407971475, 47.74805565615213], [7.623250038842973, 47.76993228259068], [7.624060066323469, 47.76719512156896], [7.625650058112669, 47.7906075788885], [7.637140470238564, 47.76352426294592], [7.630692541341796, 47.69475671236333], [7.598846333595735, 47.65089766921931], [7.589306406485909, 47.6459678485409], [7.609865264923562, 47.687389111859524], [7.6124863265834275, 47.706544111165684], [7.605721815533091, 47.72278753920111], [7.57840068798675, 47.75286093194215], [7.588648430559295, 47.7505756596675], [7.624892735154275, 47.71883257815406], [7.6455859654514295, 47.6904095830408], [7.636478793547031, 47.698514766943276], [7.646064219592814, 47.69239311234765], [7.677733889817371, 47.6565102010895], [7.690864236586431, 47.58047188971114], [7.678689969166756, 47.54841522180525], [7.652029086574046, 47.50949339470431], [7.610300017332898, 47.48760735476416], [7.580385557317892, 47.48012203668728], [7.568347230261421, 47.47570247317355], [7.569364648969429, 47.475963281091786], [7.582061061513331, 47.5537798430087], [7.521914393502443, 47.63457306896472], [7.524696340368016, 47.63029507842363], [7.574211211229799, 47.60534335465142], [7.600713385213385, 47.49256221866916], [7.555149046083275, 47.433157214827325], [7.496896567450239, 47.41557254658315], [7.4930536726125565, 47.4175317338092], [7.545784339980662, 47.44235094223649], [7.575491497673111, 47.51627459897619], [7.5572685962607515, 47.56835222953669], [7.567414388428903, 47.55738788017685], [7.578235275972359, 47.536863699057335], [7.584392504909543, 47.51586211744116], [7.582946733505676, 47.471956340362794], [7.565584172526337, 47.43443901020586], [7.543703658414019, 47.41200566485464], [7.489700657263619, 47.3844204477231], [7.429387675417489, 47.386408342417305], [7.406295981683636, 47.39510214696968], [7.409999886004532, 47.39392088880345], [7.424195393970256, 47.39251903263499], [7.49214410944294, 47.4273965540509], [7.508286503747756, 47.518483798410394], [7.488263792080946, 47.5504327447293], [7.487191862630168, 47.55191824550881], [7.5131549593665135, 47.522583480336], [7.529268319855379, 47.462892419523236], [7.509321948171775, 47.40033288133596], [7.4869402152235445, 47.37606351566368], [7.4539645395843745, 47.35030588460884], [7.414575724139628, 47.336824897388574], [7.390405638158257, 47.33135162603536], [7.334030380109938, 47.33189604781763], [7.314721485503434, 47.33281952489603], [7.303898831461993, 47.331175902251765], [7.265873843975328, 47.31997102720239], [7.2310146300873495, 47.31704761834478], [7.181936174723946, 47.331513762983604], [7.153140419497564, 47.354470721716844], [7.158778646658926, 47.35001156078452], [7.184721390537357, 47.334675291956515], [7.160644869732274, 47.339143192902384], [7.095813878135053, 47.3747039285779], [7.0633324449446455, 47.47162582583229], [7.094779370352945, 47.43732608732444], [7.151662453136516, 47.38642477354811], [7.056954060369884, 47.43532114175601], [7.04868134438119, 47.52314827784481], [7.054261013559767, 47.53785987269432], [7.054916430402093, 47.53721186300512], [7.051754885051796, 47.522112653229534], [7.051678338020306, 47.51295812469783], [7.052723023884465, 47.50456423633865], [7.058282205738638, 47.489321516832256], [7.06505128133753, 47.47748695023891], [7.066937681300076, 47.47573257701817], [7.032418651690002, 47.502833131217045], [7.044533494196698, 47.49792362851943], [7.054615292114829, 47.49665004718932], [7.050232211362102, 47.49584500818656], [7.015882916444665, 47.498225557023346], [6.970114208718268, 47.518802473879404], [6.9325529970316095, 47.56426516089279], [6.922500392201486, 47.619724615435565], [6.932540291375602, 47.6604902208819], [6.950595107523644, 47.68867086368425], [6.969937833321608, 47.7070709950807], [6.966747875615062, 47.70325434988135], [6.9643723879419275, 47.69918871146415], [6.961795744649593, 47.693314173362985], [6.95974831417921, 47.68564101213596], [6.958905987812135, 47.680206946759526], [6.959031427181829, 47.673944488027544], [6.95898603879573, 47.67659261390708], [6.968356501836279, 47.658276794076855], [6.978617258016502, 47.64603218161284], [6.977768741405604, 47.646861259790185], [6.832815660403734, 47.70438145224911], [6.808343293778442, 47.72266752292778], [6.778934989997465, 47.76127827228588], [6.790185006248758, 47.88064480316147], [6.855128888468639, 47.91771000585251], [6.864909076416371, 47.921038182068514], [6.8550900347741575, 47.914760723293746], [6.83452009927329, 47.888115349564124], [6.826020050029484, 47.84163290818581], [6.834192519579445, 47.81330730316829], [6.826426728518896, 47.82585995311901], [6.814956184005837, 47.87587983621537], [6.829055322061038, 47.930614192942784], [6.851357394455154, 47.95845668533669], [6.849328941244314, 47.95580532931772], [6.848019871127095, 47.95182912716691], [6.84728063500417, 47.94869322690699], [6.85121887655358, 47.97507697412176], [6.86659107909676, 48.00936872223166], [6.885909455727141, 48.03486558518123], [6.9310577195551994, 48.076896359288604], [6.9392738283406485, 48.082399141487244], [6.9467700490930495, 48.09224804084692], [6.982397304916444, 48.148402159532154], [7.004137388383342, 48.1683907135929], [6.990754800052114, 48.14165453602446], [6.990887840819331, 48.097399263990155], [7.000735951841406, 48.07455918392385], [6.989719852822596, 48.090277050656276], [6.9749770239316975, 48.13337113969187], [6.981333009671504, 48.18769406705629], [7.004639670972235, 48.22643461130825], [7.170400123610231, 48.39576944137064], [7.279190943492025, 48.399538814618], [7.3592020540046965, 48.367166989857054], [7.37319485650633, 48.331623377053745], [7.516115761391019, 48.29386812812746], [7.571461438207535, 48.22848035905064], [7.5688630268880654, 48.15617066874409], [7.567394517615408, 48.16151321752799], [7.549700152941302, 48.22065093783233], [7.5052319549896405, 48.25161847551008], [7.509113532200777, 48.25348870222839], [7.574694171203156, 48.23128271911368], [7.589536834516264, 48.20455662369651], [7.557898442324435, 48.221828621944326], [7.666812826343697, 48.17429365447205]]], [[[4.855889122637643, 48.7926629515685], [5.024107273107639, 48.78762922837085], [5.08607099465394, 48.73779711142534], [5.100018247432859, 48.68541920962224], [5.0961409101956905, 48.69575390473805], [5.094939088266463, 48.69714953439999], [5.091875247493166, 48.700390339509866], [5.090710431094024, 48.701677836424636], [5.112973153320574, 48.68858588814812], [5.158615349029917, 48.672093908319795], [5.229367280661818, 48.632482400529945], [5.295764479481742, 48.60707665265863], [5.296434164789151, 48.606897645497234], [5.328063553622657, 48.60699920910511], [5.364321834172938, 48.60023610872601], [5.422530491127962, 48.56327584766554], [5.4442545727966305, 48.51168128361093], [5.4409339377284835, 48.525100497208534], [5.4300140344526255, 48.54833903323323], [5.42117674507592, 48.55748722994949], [5.5536321560007345, 48.43710713576204], [5.516064894521585, 48.335070819921974], [5.509249229516894, 48.33538878431615], [5.522383104575534, 48.38181400084299], [5.515690207213997, 48.41374490198629], [5.523717701909117, 48.39734500709564], [5.528573985940512, 48.362227876060395], [5.518933729932664, 48.38700108867324], [5.482991638615448, 48.42084954099738], [5.433893959084438, 48.429432529241], [5.399175018829262, 48.417104823851645], [5.386198969612245, 48.40666707543172], [5.3909053608967055, 48.41237584960636], [5.418399205361043, 48.43519966666117], [5.45956625450882, 48.45009187068544], [5.487703566760745, 48.45244808685751], [5.537275328293943, 48.44645924967275], [5.573695374216866, 48.42870433670619], [5.602062956490508, 48.407167150795736], [5.630048001284263, 48.37539782371197], [5.636161496355422, 48.369596952618586], [5.624830036611058, 48.37523851106192], [5.5976414228823534, 48.381791099714384], [5.609362074060131, 48.38427516921265], [5.638986888355213, 48.383121612333596], [5.677260756982761, 48.37276941244984], [5.703926369779735, 48.357250977287855], [5.724462221688266, 48.3390113119458], [5.742047797605364, 48.312337817233235], [5.7506207751170475, 48.287697681770915], [5.753685107150691, 48.25682322525778], [5.751442028252026, 48.25740185052574], [5.744080440874983, 48.28785805253583], [5.729549758018718, 48.30962021785752], [5.710964377592851, 48.32546685792728], [5.741988863621011, 48.311099565681594], [5.78039119783857, 48.285318460865334], [5.811845757732952, 48.24118196385071], [5.8105565008728055, 48.152890447375746], [5.762498233247448, 48.10476582564601], [5.775029965841874, 48.11731178057654], [5.788210602135866, 48.140347545282744], [5.791745681206124, 48.153600770510415], [5.790620086130356, 48.14192154903169], [5.785805259969565, 48.122176462593295], [5.775441894359043, 48.098248686425144], [5.762119597543079, 48.085467244998874], [5.762856476570954, 48.08086631197836], [5.744748500026166, 48.04727313027854], [5.748460384400402, 48.05545028142554], [5.753296543405248, 48.12608083627288], [5.71729644075634, 48.17525204866013], [5.730077021403823, 48.17010233442767], [5.775142410520641, 48.140539839340526], [5.787315783144311, 48.130141549479646], [5.786283168802834, 48.13108250075525], [5.785460832627924, 48.131306561258775], [5.794370548318992, 48.12926937441794], [5.820067905099483, 48.11968383888765], [5.85298761480474, 48.098508368057765], [5.875983678116633, 48.07276715944235], [5.892230246439459, 48.041370347740695], [5.899000946277678, 48.002421125526475], [5.895746601763978, 47.972019363695324], [5.895394121382692, 47.98313887903306], [5.884719027320435, 48.01417315785004], [5.847616150043546, 48.04848297953354], [5.800512157965022, 48.05641430621538], [5.771504824509975, 48.04730182891861], [5.792585756869295, 48.059462733224514], [5.879586486031569, 48.06289362606236], [5.971086669178108, 47.99351091873005], [5.9975582186967475, 47.926523025598065], [5.985107784357806, 47.86824904050144], [5.947422852060385, 47.82577101032294], [5.9038780954204935, 47.80864744147816], [5.895268118534599, 47.807531181836765], [5.908706743289364, 47.81335840402562], [5.92274856945891, 47.82312708559879], [5.899051504098322, 47.796195449816864], [5.870049150811468, 47.77632333641906], [5.774124099377748, 47.731606160237035], [5.786275778521506, 47.74382290512832], [5.7999947733620685, 47.79303839927064], [5.803896691204795, 47.80485073351435], [5.809490947740855, 47.754975686444105], [5.799897646971485, 47.718127340228484], [5.8002121615466065, 47.72141379854935], [5.799828422351533, 47.73712223219786], [5.801658460419708, 47.7332192754096], [5.803808760211501, 47.69695833767961], [5.785861906155993, 47.64028527955411], [5.748737016168987, 47.603049584509996], [5.717728439007899, 47.58692782042113], [5.6029652651650155, 47.55919217764846], [5.577309380603214, 47.55688871801268], [5.550793186003928, 47.558811817645434], [5.524878741907856, 47.564849841316025], [5.481127885406857, 47.58396497931012], [5.496878077892921, 47.583180905585024], [5.487326321076371, 47.579451894761995], [5.451139061700863, 47.57474558312857], [5.446756647283594, 47.575038205882315], [5.462111842824671, 47.580052435329236], [5.479829504700744, 47.5912106798628], [5.486861488375884, 47.59866566395738], [5.460170766340818, 47.55561522081588], [5.4456615613768395, 47.53454600616168], [5.417813973333718, 47.51139422920936], [5.370643850407528, 47.494175587088634], [5.299577174726888, 47.50917365735071], [5.272714544766572, 47.53323852132552], [5.297546675465106, 47.51653268613398], [5.342614423059633, 47.509301532436325], [5.3644962587614025, 47.51467418627459], [5.325623594543621, 47.49502125780193], [5.276311297187534, 47.4885873471796], [5.214210864249263, 47.51188728907641], [5.17601269783873, 47.56516133621851], [5.176570822204707, 47.57194831773278], [5.198733450645744, 47.54275887006815], [5.219260552393885, 47.530170443813205], [5.215085549767472, 47.53029664930709], [5.1768665442672015, 47.54621595286815], [5.14782355522974, 47.56331036741834], [5.117458156692773, 47.58929328850753], [5.094832058031037, 47.631353548681076], [5.094975203154214, 47.63468998864895], [5.115704223573552, 47.60170442967359], [5.1579598877860136, 47.57888722041671], [5.198682690516119, 47.580316629534124], [5.2197235044557, 47.59053827161193], [5.232765426978795, 47.60338069106944], [5.2291219315050546, 47.59704984464274], [5.203614261508108, 47.57349116172467], [5.174591600028223, 47.55748455539353], [5.143682419105181, 47.54954460235731], [5.11974930170718, 47.54778877789443], [5.092357554263972, 47.54979560493873], [5.0650183290545145, 47.55738079620626], [5.03103454570285, 47.57278463397322], [5.007075330677695, 47.589066078480066], [4.987307786666311, 47.607349869049855], [4.971935123494299, 47.62505727825349], [4.991397892672803, 47.613185214742884], [5.043731270178649, 47.60791124132176], [5.076696721835464, 47.62226748288711], [5.062981631061818, 47.610260327940544], [5.037083266234969, 47.595729505219296], [4.996000621446986, 47.58623373114216], [4.948680945727033, 47.59344877191487], [4.90349331259251, 47.620064496145005], [4.873504973390774, 47.66210654385961], [4.863778485428542, 47.689206831525176], [4.855415030078035, 47.73269713026344], [4.854906065562591, 47.7427016196305], [4.8641631631355, 47.70812963132807], [4.881025071295507, 47.68356462810175], [4.8663407977632405, 47.69541288491404], [4.8338126581738425, 47.75238779606473], [4.850578158414769, 47.83780093260729], [4.899833913430838, 47.87799663375268], [4.935836945238391, 47.88796395690038], [4.959850916821006, 47.88937395635181], [4.9483643751759265, 47.88656210428558], [4.917002879715083, 47.86716243446036], [4.89224640495177, 47.82429648611901], [4.891670963763163, 47.7854814493933], [4.898380197679149, 47.766325725878964], [4.888918845731453, 47.78080202753679], [4.875830264450151, 47.79479678431933], [4.852516798732421, 47.820268637314065], [4.902352769778387, 47.81426606088854], [4.944022660790401, 47.83381755876128], [4.936760191260426, 47.824287637073205], [4.887466504956448, 47.79832942195851], [4.827668362729649, 47.80034435673685], [4.778744574522544, 47.82898056792113], [4.746426869136867, 47.88566819200248], [4.74777555576168, 47.94467186536399], [4.766963331102471, 47.98273547408046], [4.774902991679372, 47.99043587333951], [4.763578705589574, 47.96508490808515], [4.76610374897917, 47.91132038502282], [4.794012906543501, 47.87034139190504], [4.810161242563216, 47.86082181197442], [4.78274257811711, 47.866763182209795], [4.733032455069592, 47.89281533130034], [4.698291900954296, 47.98597896355609], [4.708310121544626, 48.00171071089104], [4.730514493604654, 47.924398090245134], [4.763968385617535, 47.90129358832589], [4.7027411701977435, 47.91024178444395], [4.600123358736139, 48.00412453739546], [4.618852356020849, 48.052253372497425], [4.595212013427556, 48.07871817808372], [4.642777164921985, 48.17642615732678], [4.690797653613493, 48.20532677610649], [4.732035678236743, 48.21468870573476], [4.768233346526672, 48.214452845997265], [4.800249066917633, 48.203808743784684], [4.761183252478064, 48.18622604694353], [4.7467469531920345, 48.168915684249], [4.744708247669698, 48.16333170841051], [4.747567992075185, 48.1910767919859], [4.761645987113039, 48.22406767135044], [4.776818785646012, 48.24228546724734], [4.7662310706235225, 48.22014811747414], [4.762515545882886, 48.1945611476367], [4.752813600727016, 48.255429045587], [4.770763283159714, 48.22629713845607], [4.789488779741732, 48.21083943057407], [4.773756582786434, 48.2188734514811], [4.746632546272462, 48.242405788476404], [4.724385772108344, 48.28129173406868], [4.7193164353731625, 48.333442024241954], [4.732597311253497, 48.37306506279468], [4.732557090458167, 48.36815717838177], [4.729478446944641, 48.31430090193024], [4.755953265810158, 48.26883802016296], [4.783534666661235, 48.251165644760114], [4.743949483859106, 48.26150273707506], [4.709938017266354, 48.28157284064995], [4.693252452243256, 48.30322635872383], [4.659654140568002, 48.316798230592205], [4.623007709658308, 48.35353086314252], [4.580629153422287, 48.37447722439582], [4.538495076938221, 48.445171046487104], [4.554007962088415, 48.52001527905557], [4.580722421018727, 48.55048547921754], [4.57462889066028, 48.538907037070125], [4.571858541157148, 48.52371379202508], [4.594620494281522, 48.59726033656169], [4.758480158978217, 48.634058264167706], [4.70946260782416, 48.603623221562266], [4.688799286334567, 48.52536264289293], [4.672677874606166, 48.548012465110176], [4.673764189469369, 48.61652167071362], [4.710605367595961, 48.67101122150232], [4.752967831980909, 48.69482499549068], [4.833650309139682, 48.71240086986294], [4.76891422075978, 48.66469788111306], [4.784732154511078, 48.55959068246796], [4.797974270960414, 48.54585743970639], [4.684708726937659, 48.59775102246764], [4.749823973037339, 48.76365495593827], [4.855889122637643, 48.7926629515685]]], [[[5.060799582097592, 48.62024304746496], [4.878054877362357, 48.59389504843149], [4.8544380269626615, 48.59319704406173], [4.862073273062341, 48.69017297753236], [4.792357729039586, 48.74577856029361], [4.890061845488923, 48.729607317532036], [4.9398497792402205, 48.56086611888695], [4.853667690860317, 48.513405130137066], [4.820006168019091, 48.50639500450933], [4.8408346324040386, 48.519220778497676], [4.86396381053063, 48.554682329286386], [4.864964125393834, 48.60302153488982], [4.883690713665433, 48.570277357107074], [4.860961392175839, 48.473054778437735], [4.787245841021783, 48.43613773583229], [4.659342337602731, 48.432407363430194], [4.594285475997975, 48.45003944136564], [4.603675617866374, 48.45030432108574], [4.564354323272983, 48.43357033021802], [4.511844469160738, 48.4299029011447], [4.271911301176752, 48.52850067678226], [4.236114282225619, 48.56681829723987], [4.220755019818846, 48.62419862233009], [4.231466666305488, 48.67306967125012], [4.231828040124482, 48.67329358600337], [4.234731942404968, 48.65627542538009], [4.247022613043304, 48.63394592594601], [4.271096436205598, 48.61399724039037], [4.290685799819246, 48.60705183718926], [4.2047548263405226, 48.611116727246696], [4.118746911758223, 48.592877378353215], [4.093081484545387, 48.59597749585343], [4.125507585576874, 48.606208246581595], [4.1134895239399505, 48.584541801325784], [4.052500165850714, 48.562583830567455], [4.0359381812489845, 48.5622736491433], [4.051230270366498, 48.56694785018121], [3.934094526889669, 48.48863212054872], [3.92367697710136, 48.486473042851564], [3.941836228989656, 48.50342700718716], [3.948554443592518, 48.515260720719134], [3.9026005783240185, 48.44174718323871], [3.819733484683943, 48.42940126696863], [3.773209762523531, 48.432310682047394], [3.702322130248201, 48.45130128359332], [3.6698989022670565, 48.476547292680614], [3.6670836146079546, 48.48380303643785], [3.6758978205401855, 48.476726036493076], [3.674735306721974, 48.47810925939602], [3.7523846577750803, 48.47553431653104], [3.7970389849911865, 48.50895344965723], [3.778651089060741, 48.48770616935975], [3.758110107297469, 48.47279998430786], [3.7383370341832616, 48.46294892277271], [3.7147019650610265, 48.456103245396974], [3.6898409806963626, 48.45406275165789], [3.683175066810457, 48.452819310109014], [3.5856663068903107, 48.454669315652346], [3.5373331294120494, 48.5256018907606], [3.5679902020821315, 48.49624060873883], [3.562462853484985, 48.485572877026605], [3.5282827945377675, 48.52200283149231], [3.5044607987233594, 48.519141877949174], [3.4440580631502424, 48.563318975453484], [3.4547380109457864, 48.55720289914641], [3.4872979215942315, 48.54461658222586], [3.5066263339973567, 48.54434321076888], [3.491046670148526, 48.54026401432955], [3.4489038129655794, 48.54050866814262], [3.3872380230907297, 48.57306271682191], [3.3591364846081118, 48.6260761025684], [3.355694848132543, 48.67431372421791], [3.3637442163263773, 48.69462640016522], [3.3651341311191585, 48.66972708706906], [3.3602455705172902, 48.68139850121663], [3.359060553540067, 48.6862128239247], [3.3658054110646, 48.672409249867734], [3.385150196856012, 48.6510337989361], [3.388618363518047, 48.647205757634346], [3.3607459264745545, 48.66768033307256], [3.3497742697393513, 48.681299143727834], [3.363323968746545, 48.66869597242454], [3.3918827708109682, 48.654532196214355], [3.4171417433038562, 48.65068057750548], [3.4037978524691885, 48.64958559132484], [3.368550320151812, 48.65485593204587], [3.327795525827314, 48.679082291673964], [3.300626576293575, 48.72234868949001], [3.29583398165744, 48.77368629099805], [3.3138731752940096, 48.82297771013509], [3.342898656678099, 48.85550651588345], [3.3633708054234654, 48.86868671630594], [3.3327131008217172, 48.82750175506538], [3.343309052023453, 48.737578829531465], [3.346539144941331, 48.726761051305864], [3.306533356630213, 48.803183574459226], [3.351914717221923, 48.89501621730786], [3.409855420439958, 48.91525349674205], [3.445968700924844, 48.91504907750635], [3.422150693907398, 48.90801610167398], [3.39789859791471, 48.8909387831276], [3.3816188888546708, 48.86387613146472], [3.3843407816588624, 48.885393000300496], [3.412286305599, 48.93120700480053], [3.4297222107459806, 48.95233080482642], [3.449587777367091, 48.97098981221669], [3.509570525858839, 49.00982493588296], [3.4979737166937483, 48.99630923280504], [3.4974062742809764, 48.997924048836495], [3.519698251243977, 49.029533288305366], [3.5549739445783155, 49.05432325611287], [3.5593785111966527, 49.05366356894287], [3.5643641462142885, 49.062162186440666], [3.5995444908156697, 49.08653360509118], [3.609219453584992, 49.09094337226678], [3.5972585221661153, 49.08166187410412], [3.5768484463206036, 49.049750398322914], [3.579057467824868, 48.985690025202196], [3.612698100948478, 48.94460238141045], [3.6323169171229046, 48.93611496176941], [3.640903263362233, 48.934361693807034], [3.639997546459397, 48.9343237832864], [3.6000978366356526, 48.93192933845275], [3.565151916779879, 48.93781465570831], [3.519759374279354, 48.963203193854746], [3.4929567306785483, 49.00182404020786], [3.4848899422996324, 49.03037268389998], [3.483984148577907, 49.054040611145766], [3.4867511011236516, 49.07643514811601], [3.513206447932813, 49.128464573386196], [3.555296336241034, 49.1557394350141], [3.550617260630932, 49.15274228507477], [3.544833631544462, 49.14738927651227], [3.5378867307038284, 49.13741548924061], [3.530581439608318, 49.11519677390185], [3.530660733874261, 49.088483515650424], [3.527429665926395, 49.095251539229835], [3.523357297273517, 49.123706054446394], [3.525582061985858, 49.15051170887299], [3.5371031141473486, 49.1851650301451], [3.5661234372049546, 49.22037036331903], [3.596789186639122, 49.238711914483325], [3.6320953367074624, 49.24908477614699], [3.662242892961481, 49.251153990123726], [3.7034458229246656, 49.24629639743332], [3.6989676046183035, 49.246300872404156], [3.69280662847129, 49.24445198120646], [3.6817183333491634, 49.23940793545632], [3.6644805001656633, 49.22341623038088], [3.6475028971715284, 49.182538827331115], [3.656924051525584, 49.12906605047966], [3.686657443252127, 49.09580202202558], [3.681465686402603, 49.09567525449728], [3.6544564597242903, 49.11236779594466], [3.6417955865193656, 49.12451760279374], [3.6584912349082526, 49.11332386707148], [3.681536358077867, 49.10507436104645], [3.677786703494455, 49.10490488309158], [3.6352895190011436, 49.11610711770067], [3.5920747748874127, 49.15459179557843], [3.578424635764935, 49.18339953312628], [3.5727244070817763, 49.20412998477384], [3.5683410289587343, 49.25074563323798], [3.569981877116512, 49.24388442368686], [3.574925450093401, 49.232559143087116], [3.5608906726859075, 49.254026300662005], [3.559087900199646, 49.344160457665154], [3.6283114850480045, 49.40410687141103], [3.677832684947175, 49.42121731337495], [3.774044384865355, 49.439311700686524], [3.8354440360225732, 49.44473152874001], [3.8037781473018084, 49.43168313497509], [3.76565383357721, 49.38214728953318], [3.7620035386549793, 49.34334059652123], [3.7599566883618536, 49.351302210447834], [3.7684064516246494, 49.41349861479044], [3.816045680679398, 49.46355207571009], [3.860787952486291, 49.47953022962874], [3.9074881886913047, 49.4810188861886], [3.934294092594989, 49.47767598929847], [3.9598972805734483, 49.470327752924966], [3.9816574439358265, 49.45941598974866], [3.964958340853144, 49.46204092295117], [3.941990428113944, 49.45797416913174], [3.9520196603022337, 49.46400751119331], [3.9947014832161316, 49.47072030718962], [4.028946501602821, 49.46672416139569], [4.051502993996083, 49.45712853247545], [4.0289035327118015, 49.45978202017734], [3.995560587925403, 49.45109930136773], [3.9688668621952967, 49.429736899502046], [3.961044992951672, 49.418641800294516], [3.9566062923047474, 49.40452205952547], [3.9882595779227548, 49.4815096732631], [4.179558474761017, 49.50048272003894], [4.230668915354819, 49.48862890922006], [4.348226103803968, 49.42827670176222], [4.368458924442629, 49.41218502978411], [4.358548339808088, 49.41592530424733], [4.3457416541134695, 49.417192224390455], [4.359935844439458, 49.41993058619266], [4.417408501997595, 49.409264647888925], [4.458437275979633, 49.37159070166415], [4.4520637378396115, 49.37605250674961], [4.550786680233719, 49.38692403937429], [4.607060062151918, 49.37987022756404], [4.666791493365764, 49.3460480650318], [4.6850870890358705, 49.31930939482861], [4.651355057717326, 49.33390893340276], [4.7203436103631615, 49.3524445341515], [4.831038227232521, 49.33600325959942], [4.894526345377628, 49.353243157947105], [4.962404741023905, 49.352077045591386], [5.0623584577854706, 49.290529484019274], [5.075968886154667, 49.181726771428245], [5.046999709950235, 49.13152143010388], [5.045184909630266, 49.13195409693326], [5.054078548056153, 49.156687065275364], [5.052577397700813, 49.18894999835957], [5.070850256679324, 49.15936473894141], [5.081750422867806, 49.127262864583905], [5.086453676795436, 49.09914512106475], [5.084690817518181, 49.0688042962819], [5.074127963281302, 49.093662228684906], [5.047228935716659, 49.11779711266453], [5.056183356444656, 49.118326980758226], [5.090849665619462, 49.097695892487216], [5.126902080283807, 49.04912268199373], [5.132448231019793, 48.98773256711149], [5.114469215665302, 48.94486478917847], [5.087314021238752, 48.91785907682579], [5.079186875650018, 48.913063786000784], [5.0921191302543605, 48.922502763283255], [5.1079455733658765, 48.94332819626133], [5.117104422878088, 48.975056280098315], [5.1194146186909375, 48.971249163062545], [5.118334324710192, 48.94299587489187], [5.110933349902539, 48.91179321083625], [5.095189465389089, 48.882719592085145], [5.078183442712875, 48.86299437146305], [5.057124750791892, 48.84604698574506], [5.035186031528217, 48.834674890515785], [5.012702404341032, 48.82739851778326], [4.978234825186889, 48.821367271752976], [4.991154627153015, 48.82685082304603], [5.009118056235733, 48.84033578519113], [5.01793630021752, 48.85249836232676], [5.019691695840656, 48.858821554712286], [5.02081599972379, 48.875870830671495], [5.0168521094728264, 48.89271975507397], [5.017739784493197, 48.89308514637636], [5.0315378960011925, 48.84781560916289], [5.01677082257034, 48.78216095308067], [4.9922741483802335, 48.75495833844364], [5.0051603580410795, 48.78609621459409], [5.00049408738438, 48.8348349319989], [4.981124665292477, 48.86352187699563], [4.9673116101693795, 48.874187671676665], [5.000023227799356, 48.85766834106795], [5.053711215659915, 48.820479373332375], [5.075060091043205, 48.789997114793756], [5.092604794855438, 48.736329913277665], [5.060799582097592, 48.62024304746496]]], [[[6.896459317064889, 48.519024978735715], [6.863724707615935, 48.51800105800514], [6.914324208513679, 48.556683684249194], [7.023504156208024, 48.61344469131971], [7.098985208820659, 48.62290648340304], [7.17968776104514, 48.59625470559241], [7.24880680990657, 48.49678285818608], [7.187732255462134, 48.40802867616988], [7.2008626629379755, 48.41781934272248], [7.2220396623425955, 48.450885012891696], [7.226262584048824, 48.43724714261464], [7.218117617103447, 48.39120374528658], [7.217059259863766, 48.37278147258562], [7.209099024319509, 48.34197629771028], [7.199391902047762, 48.32296905043428], [7.204128343931866, 48.35835758772366], [7.194101804791341, 48.39557375064224], [7.177368788995845, 48.41605345453656], [7.157640954584166, 48.42965307831745], [7.154403794526954, 48.43108862792555], [7.151536967148806, 48.43176452574176], [7.147800577299075, 48.43202805006077], [7.183119843065935, 48.433165839465154], [7.225425870698486, 48.423952357243714], [7.267421386641229, 48.398309792555786], [7.302701589883286, 48.35030344290578], [7.301577893668803, 48.266268493820206], [7.161674329027765, 48.10257938869175], [7.1685449903284955, 48.11732593294371], [7.173362976068302, 48.15872886030814], [7.163586147177405, 48.18912294934372], [7.1634240481585945, 48.19088881607615], [7.182896159180668, 48.15337073600985], [7.182721199947887, 48.085539463975536], [7.158176611616658, 48.0408292864071], [7.136498695083556, 48.02091584046785], [7.10937195090695, 47.97579795915308], [7.077800171659351, 47.93814085851275], [7.059386280444801, 47.9234956407114], [7.033738544272859, 47.900156414818774], [7.03692892090324, 47.904559277768335], [7.043907123446419, 47.921493025878235], [7.0453853649958305, 47.92122477309301], [7.0415261288729045, 47.901278872833096], [7.034021058755686, 47.879066670682285], [7.017402605544846, 47.846971314663314], [7.004898677938963, 47.83532980705722], [7.014955815994163, 47.875496163784625], [7.007527271481104, 47.91072804688099], [7.010089480420555, 47.908492696831715], [7.024765949970515, 47.863995091814196], [7.013189900726709, 47.798242650435874], [6.979479965225842, 47.758149276706256], [6.950764923583629, 47.74040381793148], [6.905657111531361, 47.72419799414749], [6.873293944353223, 47.7190935714422], [6.8142728861627235, 47.72506403412911], [6.790269876218936, 47.73523998601632], [6.711209845718639, 47.77605985147963], [6.693890739308629, 47.787732945775026], [6.6954421441054635, 47.78685853036059], [6.661381521594206, 47.79632713887607], [6.633620295150342, 47.80977583557332], [6.611783270937315, 47.82533999212167], [6.591119225163454, 47.84462299331034], [6.587167422865127, 47.848474276210574], [6.6005079410090834, 47.84328421733864], [6.6331733443314596, 47.843203776990585], [6.6654401240747125, 47.856756609783304], [6.676794536146782, 47.86684799323493], [6.66617640719891, 47.852786811433866], [6.6459752548403115, 47.83412144996758], [6.620942479624436, 47.818433019445266], [6.5937096816476695, 47.808007954134425], [6.567387459305464, 47.80227907404206], [6.53973312048375, 47.7999642122071], [6.50899089219438, 47.80124083378396], [6.486133787320087, 47.80461129101005], [6.465437027345922, 47.810350854583305], [6.378640763866984, 47.84800954817414], [6.36238145862199, 47.85363333760212], [6.3357814248192765, 47.85136373579172], [6.341470520222152, 47.85361475546657], [6.339722170927838, 47.851190775051926], [6.314010107482689, 47.83984312416822], [6.278011401899908, 47.83240935747239], [6.227768937145512, 47.83351265753462], [6.191408224814414, 47.84430583739308], [6.180822058925362, 47.84983638869161], [6.163719802654125, 47.85361212066963], [6.124096099388672, 47.87439508363477], [6.085368752327725, 47.93214858188636], [6.0836401245223355, 47.97008918855632], [6.090663973909733, 47.937643075720665], [6.105940711118817, 47.91379727144599], [6.114294186813968, 47.90706328316204], [6.117744824855571, 47.905958103953864], [6.096003318824992, 47.90875660194951], [6.099350666209728, 47.90870457036751], [6.108577139102494, 47.9116944386464], [6.121010142888501, 47.91814634163059], [6.11999815649773, 47.9170495456019], [6.097733929375132, 47.895241939263855], [6.07414255932443, 47.87946949780524], [6.051572161140481, 47.869863417598204], [6.043839216161687, 47.86365675298536], [6.0185088571768, 47.85049378943419], [5.954222670632012, 47.842306366227504], [5.882631104207194, 47.88854783524199], [5.8646700266572305, 47.95525299641441], [5.868956968638489, 47.97274623974476], [5.869035828698621, 47.95380313626987], [5.880295659688491, 47.92445877306942], [5.923733333645416, 47.88679226851571], [5.975522953982688, 47.881767468910816], [6.0050616789226785, 47.89387316843582], [6.017359036076584, 47.9045014931579], [6.002500115693333, 47.883561941920135], [5.984824684783547, 47.866129287809386], [5.949384337149054, 47.84479665515434], [5.869054135103218, 47.83524072578083], [5.81888951396843, 47.87232637393764], [5.864318243130706, 47.872769266775485], [5.8714691754900254, 47.87407617108139], [5.825101842034979, 47.857931693784614], [5.7609478499564535, 47.86823702046646], [5.711452972679564, 47.914278842149955], [5.696293878617308, 47.964189120966935], [5.696601398236021, 47.99049063630467], [5.699017053722322, 47.99988287447352], [5.703281753560541, 47.975807652259306], [5.7117063218833675, 47.958692840557646], [5.7229243851952605, 47.94657563194224], [5.733212094900518, 47.93952816111235], [5.7375094516810075, 47.93752262558207], [5.725325167372075, 47.94056143874122], [5.703100831197165, 47.94920149924476], [5.677152216855689, 47.96321645052035], [5.656761589479358, 47.97933816065947], [5.632612978596177, 47.99545766557233], [5.608479559243659, 48.007445951339875], [5.562855456594753, 48.06498916372712], [5.570195615599599, 48.14612371857445], [5.5831814999738345, 48.16515486972146], [5.5734655234290456, 48.14513968802164], [5.57604840245692, 48.15879875500112], [5.6016181056409575, 48.197169313574854], [5.595560740030435, 48.18387753740671], [5.593251913869644, 48.174260450968305], [5.593664318793876, 48.18123722948959], [5.599703397864134, 48.207168454717255], [5.620004034158127, 48.24367221942346], [5.646157766752553, 48.26744617435399], [5.630047499127195, 48.23900955262426], [5.626914242267048, 48.165022036149296], [5.64562480216143, 48.137541539134666], [5.6462331363789895, 48.13551243431841], [5.612043622407149, 48.151643142072714], [5.580406241981282, 48.176367782142485], [5.560909559125017, 48.207555947464165], [5.552009971747974, 48.24234014947426], [5.553808892849309, 48.26385877474221], [5.555643224882953, 48.243158318229085], [5.561712202394636, 48.22585618276677], [5.574639778311734, 48.20652268805421], [5.587133630220265, 48.19489502271214], [5.598593243017239, 48.18889058755016], [5.611335111644788, 48.1850423876664], [5.618943925939869, 48.184504830787354], [5.590058577117646, 48.18193490028562], [5.543973963388941, 48.192311488938074], [5.508340503644577, 48.21577304738141], [5.485625998715737, 48.237042176288035], [5.465841043509492, 48.26073084920426], [5.465688625783134, 48.260375663293814], [5.479696671706058, 48.25492675032725], [5.486466433239256, 48.25245191314249], [5.49662974549118, 48.25355612931456], [5.519822794638957, 48.262824333338834], [5.537384639103295, 48.276200150393635], [5.532995030387754, 48.270832924568275], [5.509470981170737, 48.250267176148355], [5.458318040915563, 48.23092947075901], [5.393400361384551, 48.242038459002615], [5.345372270067335, 48.28762091132676], [5.3307660140594875, 48.3326981239396], [5.333468298090883, 48.33565899290436], [5.332795792786002, 48.33281509801371], [5.322410895424467, 48.37847999915701], [5.339236770483105, 48.440725215683855], [5.371795105478415, 48.473585180078025], [5.424619032703393, 48.51440847922129], [5.481921549340528, 48.51182566832616], [5.471637898907676, 48.512673421828936], [5.529923300573378, 48.536741569121524], [5.568651547372979, 48.540656835471815], [5.595122246545796, 48.53785264697226], [5.585192753059285, 48.535999793245296], [5.650261876427505, 48.564534383074474], [5.710406125007494, 48.562601665178974], [5.697077991518595, 48.55886007625666], [5.681739958391305, 48.548680964653194], [5.748478512136919, 48.59518776512126], [5.805431575191549, 48.5827933592252], [5.76480026370991, 48.58388915015039], [5.792150629224248, 48.59631927907335], [5.842889114914814, 48.60197012691368], [5.889803840907968, 48.59640970266714], [5.945155819352498, 48.574657025861704], [5.976896826034088, 48.548329114053004], [5.997148273562109, 48.51120747097029], [6.003020478251398, 48.47742676710376], [5.998893087722314, 48.435198350091845], [5.982025488023205, 48.395910298386795], [5.961053708012242, 48.36910372929666], [5.951942219029949, 48.36107231107684], [5.9705441034028865, 48.4030285918365], [5.953629258648307, 48.474733357351546], [5.922997752969664, 48.500447747128426], [6.0427406199063105, 48.435284915288555], [6.035911710712167, 48.414191498825716], [5.989018134286599, 48.456750534546885], [6.1004907825110815, 48.45989624529345], [6.067042830775206, 48.428488821678236], [6.086414224416138, 48.4870057647288], [6.186458151747217, 48.498614330876144], [6.184342580991521, 48.47256707505513], [6.168497138133426, 48.45680454101982], [6.195969196253377, 48.487907050507644], [6.201078382955284, 48.49626768535551], [6.28642415147732, 48.537788972634495], [6.35993635741224, 48.49988153894412], [6.353377454479504, 48.503798435118725], [6.3582744904090225, 48.50399785400855], [6.461538989430879, 48.4775213375397], [6.459675307559618, 48.461203273451716], [6.372390828469464, 48.48910580538819], [6.4053701254948985, 48.50658955015744], [6.475056080648194, 48.510868363621455], [6.580170517307814, 48.56583806391327], [6.677067460081567, 48.5615199403622], [6.736241135691951, 48.49806498389283], [6.7433867086429, 48.46523223678001], [6.729785436511776, 48.491776768343165], [6.697066886531639, 48.51743669775982], [6.754931196582606, 48.51456525025777], [6.799842178962987, 48.49576954053026], [6.767046922554947, 48.48699160964049], [6.86315638163802, 48.5355861734767], [6.896459317064889, 48.519024978735715]]], [[[4.187319173659477, 48.8103552727533], [4.323664200180754, 48.80431416281074], [4.363293563794402, 48.791478759609625], [4.403099386956695, 48.759006074053985], [4.425892057595032, 48.71507857461991], [4.431783959875519, 48.67749241399663], [4.427707333694512, 48.634474328749874], [4.420752980181154, 48.62329537766991], [4.409349717774382, 48.666765702760124], [4.3844506988232474, 48.693833323217746], [4.540377530839263, 48.6278570988553], [4.513267676727017, 48.626935669781986], [4.5487403821336265, 48.642611678914264], [4.604536524002024, 48.649776558634365], [4.74565752074694, 48.59746768953493], [4.771587458842852, 48.513304207974926], [4.76306110933972, 48.47187496292988], [4.744663578981273, 48.435928520782454], [4.725938037911586, 48.41783872094443], [4.736044923061779, 48.4763809535129], [4.706566846577712, 48.529846775604184], [4.737138290341692, 48.51776913685749], [4.772429859431997, 48.48196976940779], [4.812967547756744, 48.46343964127617], [4.837897982733646, 48.43528115935005], [4.818608516140893, 48.44704526292493], [4.855751333338765, 48.43767235523989], [4.892078734189843, 48.41536397983704], [4.92382755305536, 48.361507098069765], [4.919956909541833, 48.29829082161823], [4.908094688746503, 48.27714493720532], [4.917553564626838, 48.30694597575805], [4.913978227891655, 48.34496826593132], [4.898675453727538, 48.37234021152359], [4.882185417213566, 48.386930548518905], [4.890623220258267, 48.38338456942593], [4.917522716840286, 48.36217086154394], [4.940438399272983, 48.324688954413], [4.9623764541171145, 48.2020188523633], [4.957122929376478, 48.16047988252586], [4.939987214353988, 48.12663053275266], [4.930594012886961, 48.11703232864956], [4.941772007924815, 48.143277208014105], [4.941159752330301, 48.125824291589495], [4.928003046807965, 48.084380315751005], [4.894010747521936, 48.036703953056474], [4.827348933082368, 48.00565325621532], [4.748576653473328, 48.01542115400273], [4.751816321763258, 48.01566929426524], [4.7613263463865065, 48.01817522389351], [4.779506835078014, 48.03046384267322], [4.795211986572443, 48.07882182191628], [4.817977643979152, 48.03356862750257], [4.754344447504995, 47.93906642472371], [4.698111487591296, 47.91482964973893], [4.66918723789418, 47.90919686885581], [4.63327340108745, 47.90905935402801], [4.602440691763971, 47.91555948879899], [4.613076888396545, 47.91593825133714], [4.624239948296467, 47.9195447669411], [4.638527308841593, 47.9321246393535], [4.656826456697249, 47.968207036496565], [4.6585724753398585, 47.991308907195354], [4.65495670979017, 47.941989239099144], [4.602979360103615, 47.881805484197145], [4.561090899731742, 47.86717485941207], [4.356192514023345, 47.85073684496613], [4.31482130315924, 47.82780882651764], [4.257841696638097, 47.82592782870491], [4.224109663771307, 47.837730887474734], [4.197818393962205, 47.85285006344055], [4.165347780481715, 47.881164494843986], [4.153697767208958, 47.89693624558264], [4.204509632007513, 47.873367714367575], [4.283452131256601, 47.899683896058725], [4.309315713262022, 47.947830962923206], [4.310733530844073, 47.96600054422041], [4.3116949538630935, 47.95595163872152], [4.307576973246035, 47.92037314343588], [4.279341916364149, 47.87127156913816], [4.213298876711394, 47.839674162779644], [4.153483887447322, 47.850368110140565], [4.133757546168867, 47.86239822747911], [4.148696601181132, 47.85683477450455], [4.175803796629065, 47.85509117509464], [4.201343543715278, 47.86355874374566], [4.216487901664594, 47.874753547900674], [4.212380817953603, 47.86959461514088], [4.181893582175246, 47.84664862582381], [4.145530080981436, 47.83478796592017], [4.121938830011174, 47.83227873693143], [4.084103998717169, 47.83323644897613], [4.059203742163978, 47.83870311542912], [4.07383249664893, 47.83838754394103], [4.101131321744839, 47.84528388934647], [4.096029251003012, 47.83991264244975], [4.060872862719522, 47.82539647944249], [4.019893433440062, 47.82270158844275], [3.9933536019260694, 47.82794465213029], [3.979505057045274, 47.832705097160414], [3.985387136910827, 47.831503734455964], [3.990303591261146, 47.83128941878797], [3.951027620664796, 47.82839360214945], [3.90496486940667, 47.83297796970192], [3.8706269252723304, 47.844801749574586], [3.8341037758709176, 47.87295729581327], [3.808866250477182, 47.917719707862936], [3.8034059679644208, 47.95593199084907], [3.8067567743534654, 47.96177828870256], [3.8214596942371752, 47.92439223787266], [3.8591001554916593, 47.894416192169516], [3.89595025751545, 47.88750801851406], [3.8793078010997304, 47.88302119775097], [3.8404854132811748, 47.88428225701835], [3.796796537603666, 47.89899228379279], [3.7577523321810467, 47.92648050491404], [3.729566332555724, 47.99526582359863], [3.7534777231782215, 48.06492759530938], [3.8025234932556495, 48.09860001387921], [3.822661165312605, 48.101864017681365], [3.7722117369044526, 48.059449224020526], [3.763811369224931, 47.98373530220567], [3.7745512647818384, 47.961601337853125], [3.7117557683039837, 48.03424796656522], [3.7063168243253655, 48.039453554677166], [3.682248724076928, 48.05665884827252], [3.6579529704325506, 48.09093365145871], [3.652530066941537, 48.10395131673262], [3.661834095573704, 48.08953401954346], [3.6848594066203066, 48.069662983312924], [3.711449698877705, 48.062482392073456], [3.7556174387413104, 48.07248775752377], [3.788365679792928, 48.102754456579056], [3.78731954645738, 48.09872576496976], [3.7472209019370455, 48.05905740947322], [3.684037571337027, 48.04227231715339], [3.639310841575349, 48.04745625725861], [3.6033912061367617, 48.062288551775524], [3.577435180301428, 48.07803472468246], [3.497712989998693, 48.12648870752703], [3.490437235439122, 48.22722597679349], [3.5213629237316977, 48.268947284605204], [3.541837988200545, 48.282674843062736], [3.526630767456979, 48.2650182599586], [3.5144852077428164, 48.23297220174212], [3.514802206042092, 48.20393202112276], [3.510981135815362, 48.21265488172196], [3.5067708225020033, 48.23926241059841], [3.507458206886931, 48.25018464127476], [3.5131789298776797, 48.222030512276596], [3.5216506591466223, 48.20494270874224], [3.517168278509998, 48.2098013543598], [3.461331238896239, 48.25973677367481], [3.4584072660040728, 48.26162350519213], [3.4515912978818486, 48.265244407929046], [3.4381810395179664, 48.27096944904768], [3.4491341398906457, 48.27014052950901], [3.412404704072593, 48.26767287299242], [3.3453122169537055, 48.30478020635852], [3.3202873497751932, 48.357101861519965], [3.3183602745401353, 48.369358224355075], [3.334141527135875, 48.340418028267095], [3.3198287312275183, 48.346225985828184], [3.292011854994227, 48.41484839134323], [3.300159567606773, 48.46545452270457], [3.304805480270846, 48.47459997214648], [3.301112400659809, 48.45010927308637], [3.3085658438198817, 48.414090278470276], [3.2916590403876724, 48.44716602708553], [3.301765295137114, 48.51949594907835], [3.3327493936618606, 48.55800544066718], [3.345815884668211, 48.56246583978357], [3.3209777511859113, 48.506655262051915], [3.333909520093539, 48.45019737190194], [3.332126012594592, 48.44867545634449], [3.3051713766662174, 48.50441036120891], [3.3300064634629845, 48.589805780151906], [3.3789855017002375, 48.62220085904259], [3.4174883112018635, 48.629866184191584], [3.427183859873337, 48.6298153696459], [3.412376374130147, 48.62537425543524], [3.389598741256976, 48.60948956018218], [3.3799519995945735, 48.59787916386675], [3.392839229339336, 48.62466623638862], [3.431636443051208, 48.6662458504148], [3.5094630720852638, 48.709320496164736], [3.6029572054622325, 48.70753916850769], [3.637903146515015, 48.6707991229734], [3.6798357979178684, 48.662043391261165], [3.731146870587951, 48.5749601092394], [3.6856276931096894, 48.627896684347654], [3.626878933189543, 48.64473268989098], [3.663191019303637, 48.65227924834211], [3.679154034938974, 48.65291875460302], [3.6640009658167387, 48.64862107722729], [3.6557418927025314, 48.644616015692144], [3.6449569109392588, 48.63645383064026], [3.630699015008813, 48.61999855034277], [3.6795733422249195, 48.66180968346896], [3.766978693278026, 48.65556674060397], [3.7772421794598148, 48.64914796350692], [3.7948443853920457, 48.63767696356216], [3.8167270977329437, 48.61234670731938], [3.7937958697517993, 48.629156716406676], [3.801306237476469, 48.63032731795261], [3.8423645153160573, 48.62811673303137], [3.7942594216759815, 48.60986081676129], [3.7611375564074825, 48.585081279280864], [3.7788417710103444, 48.61932699281284], [3.81475502289864, 48.65421095714843], [3.8429214731103305, 48.666641879451284], [3.9679677296335005, 48.7487921498188], [4.007297818751016, 48.7602123508567], [4.0226398341492855, 48.76034216943254], [4.001114476060049, 48.74998619867422], [4.031722414423126, 48.78285575341841], [4.102732515454614, 48.79574450414657], [4.113279088241776, 48.79280262164678], [4.187319173659477, 48.8103552727533]]]]}}]}