{"type": "FeatureCollection", "features": [{"type": "Feature", "properties": {"name": "Guadeloupe"}, "geometry": {"type": "MultiPolygon", "coordinates": [[[[-61.094495538025576, 15.942016939564363], [-61.09651479714309, 15.900575768411608], [-61.110514065923944, 15.861690991217051], [-61.134931911483925, 15.8307044806617], [-61.16313097457001, 15.808897703610645], [-61.20720513171096, 15.787602629499766], [-61.27107197445183, 15.773837989613362], [-61.36396244042933, 15.79765598755639], [-61.41342184650207, 15.873987909223125], [-61.4166450179967, 15.888604612878089], [-61.41438921080252, 15.88159827625072], [-61.40222991121617, 15.862198080397427], [-61.39483994457383, 15.853630576948884], [-61.431167814240666, 15.918917076681222], [-61.41169284675375, 15.993683209999444], [-61.40980737417585, 15.992609987934927], [-61.40782575732897, 16.004872627416063], [-61.38727747171582, 16.0389735863132], [-61.3516789681084, 16.076366093415658], [-61.28223409361396, 16.108287446654135], [-61.20021694835606, 16.09393518011964], [-61.143345891561104, 16.04666917240927], [-61.132437981316066, 16.018991259529663], [-61.137413946064726, 16.026819956218354], [-61.109884655650255, 15.993480126008436], [-61.094495538025576, 15.942016939564363]]], [[[-60.8902356479757, 16.36040783750247], [-60.9938789296252, 16.22513213793567], [-61.056143079387006, 16.20301002926403], [-61.19017016724904, 16.28841621128666], [-61.13352181937263, 16.39571692583657], [-61.08970760267232, 16.4307362419233], [-61.01916124814425, 16.453898398222172], [-60.8902356479757, 16.36040783750247]]], [[[-61.470926226005595, 16.34454975334547], [-61.449643877633676, 16.290164354847704], [-61.45550505529543, 16.262627989555828], [-61.458596869097704, 16.193555790842026], [-61.530061818231715, 16.13957433633413], [-61.51617036095574, 16.150056184856943], [-61.483063713943245, 16.19570244752995], [-61.47924989570684, 16.195576397809592], [-61.46735555358064, 16.16439597540049], [-61.45774070480252, 16.084800025000035], [-61.475159523232, 15.991681925166185], [-61.5336839774958, 15.919726553845843], [-61.5994100447171, 15.880570081541254], [-61.739147362367376, 15.859468094644066], [-61.79135274099832, 15.92328569156695], [-61.79989896284203, 15.991776924186325], [-61.793470105691675, 15.993526601857667], [-61.78007302224243, 15.92738819014184], [-61.770060591961474, 15.91682906820174], [-61.78060891902476, 15.92351640923137], [-61.80895788206497, 15.949202808522957], [-61.83108267935187, 15.98441079089995], [-61.837261836022385, 16.002151790962262], [-61.82364275725681, 15.98153157748374], [-61.83494103851713, 15.990270628376143], [-61.86716634803133, 16.0706152819342], [-61.8674147552516, 16.146471224241264], [-61.88421410473325, 16.198417140340634], [-61.879422228496836, 16.214917218696673], [-61.8718999633327, 16.18162169638545], [-61.87706241412309, 16.18764270432472], [-61.894265448964305, 16.226142805598737], [-61.89771922075149, 16.272823661876927], [-61.89363196522122, 16.292412843915894], [-61.89261318086654, 16.34262299765424], [-61.86375289947911, 16.385096806726295], [-61.84685006222842, 16.413782648156527], [-61.801395201315636, 16.449977340180133], [-61.722639923088984, 16.464136343637257], [-61.66128854367986, 16.433571562532258], [-61.65955693622132, 16.42897803295637], [-61.68205543630374, 16.441784172440588], [-61.66184508178748, 16.43848619178195], [-61.61140484505179, 16.42152688942657], [-61.55377960690648, 16.390252168386745], [-61.501364371671, 16.268950792840062], [-61.51295999229854, 16.28728054120324], [-61.55650737385674, 16.3699459550469], [-61.64303628854444, 16.37289127237136], [-61.690115168067955, 16.331344549122804], [-61.58749036162479, 16.384913760470297], [-61.52157486225881, 16.34890903593688], [-61.60359189640191, 16.369578104494007], [-61.6590605806241, 16.34365936385333], [-61.61041058698645, 16.38145049397097], [-61.52755256042904, 16.386953678437166], [-61.470926226005595, 16.34454975334547]]], [[[-61.6308687328456, 16.33523467319357], [-61.636484953251546, 16.32373634323551], [-61.6429394989181, 16.300720038449107], [-61.61509728452941, 16.38635966843669], [-61.5699547916252, 16.434471284950988], [-61.55462907555855, 16.436756454563955], [-61.58883722738214, 16.3964677105709], [-61.59494654242425, 16.37576776479014], [-61.59504946598733, 16.368467461614358], [-61.58643962953014, 16.337984090036688], [-61.563628319232556, 16.3082091951568], [-61.55133110252662, 16.300046604615137], [-61.54423436500184, 16.297235118882103], [-61.596263015796715, 16.326068694935962], [-61.62414268725629, 16.399197241818253], [-61.63039145206639, 16.41338924953117], [-61.6306425431202, 16.476051278596664], [-61.60517834826125, 16.52289664988121], [-61.590415736628714, 16.539744551974966], [-61.578553241149486, 16.555624255158193], [-61.54823118646811, 16.5791456424493], [-61.52740002176072, 16.588230672524332], [-61.48601111749138, 16.610288233896817], [-61.41168626885008, 16.59972363604081], [-61.36345321015233, 16.566556146420712], [-61.330575249448444, 16.53399917658723], [-61.30341595681301, 16.48541958526447], [-61.29328448352792, 16.429100344578888], [-61.295702655158976, 16.402157481524018], [-61.29873151158285, 16.419259007076107], [-61.30031799156939, 16.424466528801492], [-61.30019336402331, 16.424058626538613], [-61.30225750610505, 16.426110596859665], [-61.3017458622803, 16.426060130015898], [-61.35558964130206, 16.431271352371443], [-61.349136597626504, 16.438636519332565], [-61.294435807517274, 16.431167539585672], [-61.309864540126874, 16.434154525384344], [-61.29555656846008, 16.434353199759645], [-61.25634736092459, 16.426807927167815], [-61.22329462641775, 16.40901316925046], [-61.199865867889855, 16.389945640411376], [-61.2039105040329, 16.39252787661946], [-61.19270939395267, 16.387034815671125], [-61.146968985178624, 16.354841402747493], [-61.118905832712194, 16.34513825169352], [-61.06372998935752, 16.247237632062788], [-61.142486595515834, 16.149326630977523], [-61.19564468284654, 16.144907385265448], [-61.24373689165445, 16.156141407683513], [-61.252516260154685, 16.160051533230135], [-61.23637676668603, 16.15830564103742], [-61.38019294009566, 16.124239832637628], [-61.41698559819811, 16.108908545598936], [-61.462643079678585, 16.10233922552695], [-61.50953690001113, 16.109269893775856], [-61.545877343443784, 16.12275074683981], [-61.57594251971028, 16.13980066501286], [-61.60328585708367, 16.1614278705077], [-61.631249179318296, 16.196637322783594], [-61.64719461084827, 16.243023313199043], [-61.64693938578404, 16.285335477047965], [-61.6308687328456, 16.33523467319357]]], [[[-61.60969794846782, 15.970116744247582], [-61.54376163060378, 15.93115755538513], [-61.51679492165699, 15.872005838773084], [-61.54118244967027, 15.789234232244546], [-61.62654322492585, 15.746996098358467], [-61.73110006080618, 15.815869590146734], [-61.71174996296402, 15.929769274960837], [-61.60969794846782, 15.970116744247582]]], [[[-61.47410332384428, 15.91666579302451], [-61.471787244489654, 15.910219856211986], [-61.46752499946844, 15.852138551147881], [-61.50979435868023, 15.790184287571153], [-61.53836848573653, 15.771911575927934], [-61.624877087470466, 15.763723314695985], [-61.69499726925372, 15.874635487590103], [-61.64934498867148, 15.948421721979532], [-61.65759739400931, 15.939564310229255], [-61.64807709046391, 15.954003485291828], [-61.57515808738156, 15.983359870430398], [-61.502259514327136, 15.956417583846381], [-61.47410332384428, 15.91666579302451]]]]}}]}