{"type": "FeatureCollection", "features": [{"type": "Feature", "properties": {"name": "Guyane fran\u00e7aise"}, "geometry": {"type": "MultiPolygon", "coordinates": [[[[-54.289711028810096, 3.06549422559808], [-54.27957438936787, 3.223474079603998], [-54.257891597530076, 3.25876182655833], [-54.2209530107251, 3.303763916089692], [-54.18684493772771, 3.354197956728454], [-54.138947508916175, 3.390673994204353], [-54.153243631467355, 3.3780564255335523], [-54.15981816570849, 3.369981384910788], [-54.15999912090652, 3.3698475525761884], [-54.15761925958264, 3.387377572598684], [-54.14095196785349, 3.4299259357500085], [-54.10316158547146, 3.469937052226743], [-54.10155133403128, 3.472530205791613], [-54.106021001319874, 3.5382875453398226], [-54.09480945322251, 3.599140578667528], [-54.087919735685965, 3.6172338068618015], [-54.087296569951356, 3.593612013591553], [-54.076829146064405, 3.566390786624572], [-54.06401181824943, 3.5545304970331753], [-54.02883398651231, 3.5420618553715455], [-54.00602028552075, 3.54236811428169], [-54.0158716654816, 3.539255739129375], [-54.11061962208356, 3.554921045221448], [-54.145027784534975, 3.607424676878387], [-54.164900433279534, 3.634356436300934], [-54.18134411792382, 3.6975762423559324], [-54.18288453039123, 3.6955913127405666], [-54.19586736824576, 3.7176806998361425], [-54.17829766644984, 3.7050787271637984], [-54.20515602496463, 3.7121224920507396], [-54.229382627657536, 3.7231510580367715], [-54.25358960523013, 3.7397537756726136], [-54.28151297768301, 3.772679048641025], [-54.29426039877875, 3.7975565062641836], [-54.25530655933184, 3.7669014239427576], [-54.26365919336642, 3.768677323600258], [-54.29417967571202, 3.7967380258000927], [-54.31186524456276, 3.8057470402367786], [-54.34670078024895, 3.8637417046843083], [-54.34002289244042, 3.8557480436511753], [-54.35870236543584, 3.8715562619892014], [-54.382449092006624, 3.9048223933987405], [-54.39446737506895, 3.942084837766747], [-54.386280732171215, 3.929311251911342], [-54.42230737944998, 3.962314227512448], [-54.44985748140099, 4.013705939050659], [-54.45461412578443, 4.076890471133016], [-54.44609173888522, 4.113080811499317], [-54.433681847101965, 4.14430784281153], [-54.43468880123233, 4.131912382780631], [-54.42416863686897, 4.10064044019759], [-54.39388218487874, 4.071210169632827], [-54.42396328050064, 4.078571675976381], [-54.4613607265255, 4.103198829678969], [-54.49576935020214, 4.146321204922079], [-54.50941851537099, 4.223581555600925], [-54.48989212760381, 4.270232091301992], [-54.491898685353846, 4.260393099206019], [-54.493405717020195, 4.257912090858551], [-54.49771636300355, 4.281003080826294], [-54.52886259775123, 4.346456772027851], [-54.55077737767516, 4.481831585794562], [-54.54338843204653, 4.5394478053633325], [-54.5210016773079, 4.583342015529681], [-54.522583170639436, 4.5766728575948825], [-54.523175244127984, 4.596685699647499], [-54.52195054333811, 4.59046837838328], [-54.53576118915205, 4.628979543179392], [-54.53830313904876, 4.680430896797561], [-54.53483384147698, 4.700296417225486], [-54.53113008039989, 4.680303260628697], [-54.51602454469171, 4.655167869814309], [-54.4953815938654, 4.640986128813737], [-54.509439771360825, 4.645514588767441], [-54.557656937730016, 4.684854737562303], [-54.57795688337105, 4.743351392437853], [-54.57645360325228, 4.857779543735585], [-54.580623957036536, 4.863611433434347], [-54.58583405145555, 4.916247207319112], [-54.55869864398397, 4.977113877566678], [-54.522026334530864, 5.006099897185572], [-54.5417357644184, 4.978342636161029], [-54.54875521926014, 4.947316832887485], [-54.55753867755406, 4.988618133197883], [-54.551254861545225, 5.034868637707201], [-54.53788704991187, 5.069396661669007], [-54.51014508099166, 5.113513021584647], [-54.45764031503013, 5.172085935164789], [-54.46619393956949, 5.155493532388969], [-54.46159933629818, 5.172221540460807], [-54.43630543094967, 5.20930957255927], [-54.415351764189786, 5.225306058435543], [-54.43028518101395, 5.206195577012602], [-54.42221201022116, 5.2393486830672105], [-54.40264801815792, 5.269696056271997], [-54.38839685542956, 5.289530829751915], [-54.334437191610675, 5.344843035280571], [-54.258025849352514, 5.3994694758484485], [-54.22725299783598, 5.431031588289133], [-54.182645428886154, 5.449293552248155], [-54.170938265293515, 5.457791798899108], [-54.15786669559553, 5.471223571829725], [-54.149323736466826, 5.48360172934465], [-54.123042516829955, 5.549169107256476], [-54.104338596323196, 5.581326897741634], [-54.104483585876395, 5.581288953747517], [-54.0864085443283, 5.694102539397813], [-54.06088463289887, 5.742126493331747], [-54.04161239496166, 5.775382801826631], [-53.99566992965813, 5.83046794693326], [-53.92732968605387, 5.844540746293468], [-53.87530672193977, 5.837207516658377], [-53.83202929664275, 5.830092936087477], [-53.79750383832369, 5.816400497385915], [-53.78953756543789, 5.812449246738368], [-53.890283626043754, 5.772078617949323], [-53.8817070196389, 5.649469234379338], [-53.931339912011076, 5.746372028416399], [-53.8265239605245, 5.833203018787863], [-53.779947431542055, 5.826331807107285], [-53.72669725606095, 5.800732692037033], [-53.69400293088257, 5.779405880788805], [-53.67953557789026, 5.769084858742765], [-53.66551319591178, 5.761548095519259], [-53.651756072618184, 5.753334032728565], [-53.54134018876275, 5.708871014930178], [-53.497564090507545, 5.686788579373139], [-53.47181128570774, 5.669818668413918], [-53.46739389607762, 5.668158445344657], [-53.45995782064671, 5.667110221810169], [-53.43685265390495, 5.6602944941792375], [-53.39663954359784, 5.661206146053023], [-53.31207435249232, 5.6409147048445085], [-53.29579458772202, 5.635236598800456], [-53.2554721407104, 5.635746527243022], [-53.19789728541362, 5.604996356695535], [-53.176644282765274, 5.580146229105041], [-53.211180770382484, 5.593502546713451], [-53.28825974774647, 5.561884913309287], [-53.284675158886806, 5.450112313350915], [-53.26252272787522, 5.424282787907815], [-53.302628104164825, 5.448714693381653], [-53.308452792918814, 5.455864665152682], [-53.2848051446743, 5.450323034469408], [-53.33972240381767, 5.4624212775905105], [-53.38627073399146, 5.586358552369254], [-53.303739591678045, 5.659298779980693], [-53.23765125499734, 5.654465720471739], [-53.20735868421821, 5.6382765342624594], [-53.18924915824384, 5.63109906315565], [-53.143308753557655, 5.618357048595452], [-53.11691027263907, 5.606426358899665], [-53.08426254816206, 5.593569944758791], [-53.03762858715385, 5.5615170155196125], [-53.019118336299556, 5.555921436934566], [-53.04647773914525, 5.542125534502052], [-53.04509137895816, 5.548575329657071], [-52.9657217227393, 5.553369193696552], [-52.9195954510832, 5.532915352293414], [-52.83736495915787, 5.48629553532167], [-52.77034395126408, 5.422799572522242], [-52.71422518556814, 5.389319408042021], [-52.67800377803125, 5.3335578434283155], [-52.61589044928798, 5.286061713064527], [-52.48367849465912, 5.160999610228281], [-52.47806324742388, 5.158974450167087], [-52.43515645581046, 5.112304260083697], [-52.42770494665535, 5.050254153424455], [-52.428083981024244, 5.062399593768623], [-52.45945163490497, 5.127606292865023], [-52.51988904219645, 5.15266096700697], [-52.50798256259874, 5.154495291094444], [-52.471093794402215, 5.147694563235349], [-52.42283011787743, 5.121854601325049], [-52.326130799307315, 5.03857711261354], [-52.2813703989125, 4.953122924737208], [-52.33122119273713, 4.977528884397852], [-52.438970404319235, 4.9802983801990175], [-52.40543003538123, 5.022625800188588], [-52.32960771339541, 5.050414523684707], [-52.260325994204024, 5.0368656734386175], [-52.21146516562784, 5.0048561469076205], [-52.17525361608903, 4.958062150634947], [-52.15921853282788, 4.881522000056273], [-52.192364788672165, 4.805300848620235], [-52.230277776894184, 4.754796182017743], [-52.24579217315547, 4.737739331260843], [-52.2722493596548, 4.797697899100939], [-52.397914052952146, 4.801785283010476], [-52.4232424565053, 4.778493173113626], [-52.40008637498646, 4.813550227736148], [-52.397863674241464, 4.814311032427241], [-52.408235261939254, 4.794853210856196], [-52.40527610000226, 4.812761811714195], [-52.38700570723487, 4.862957437295099], [-52.350177853925906, 4.90609466208822], [-52.314904717915084, 4.9254204005035644], [-52.26220737525869, 4.970738022030506], [-52.15983808113312, 4.951073812065944], [-52.121959457853315, 4.920197302915584], [-52.08905668267598, 4.878332180681769], [-52.08012425699543, 4.855293114924011], [-52.09154615008811, 4.8689686158766206], [-52.03745861062603, 4.840531968529228], [-51.99249017097261, 4.804071850943401], [-51.94700616454501, 4.756720790468779], [-51.9056940299371, 4.6945461264709], [-51.88688538863035, 4.631372592236838], [-51.88186798676154, 4.592596254092716], [-51.85831306517747, 4.515226699146082], [-51.850896247760545, 4.448674084989113], [-51.8766151344938, 4.356049995972636], [-51.93021571805118, 4.304352866969758], [-51.95406746712512, 4.291762144796505], [-51.963964356847875, 4.3903237145707905], [-52.02407419031542, 4.444903165840535], [-52.01755153836606, 4.445670569708542], [-52.02817417295015, 4.431890861040854], [-52.03063926049032, 4.429033884607549], [-52.022351851301416, 4.4518481084701556], [-52.02271247469056, 4.450171661712469], [-52.0311315653029, 4.595543842123086], [-52.01992176784542, 4.658862651295289], [-51.98366645226387, 4.722416291753043], [-51.935990439883994, 4.756525723840075], [-51.882184075130716, 4.76778730435671], [-51.83128534575837, 4.758991552295481], [-51.78996742491773, 4.73693298519391], [-51.726897974656026, 4.679286964501827], [-51.693099382347405, 4.603110779775488], [-51.700786467061725, 4.591425741912642], [-51.685254957323515, 4.598936504000052], [-51.66731282285826, 4.5498376147961155], [-51.66442534319126, 4.519065131334278], [-51.66351482737988, 4.510385826992599], [-51.69510138437636, 4.542323129550337], [-51.65303126354454, 4.519681019001446], [-51.640335393418155, 4.410363781037126], [-51.66063445667902, 4.376651002161231], [-51.71768045448026, 4.339129796026753], [-51.67830904947771, 4.3618097076285345], [-51.646222708035125, 4.451119204908448], [-51.64677641632307, 4.453019381671105], [-51.66997942759352, 4.4786248630748755], [-51.69573038834345, 4.4935177073365775], [-51.65220345170683, 4.482143224635416], [-51.59291671215382, 4.408837083826987], [-51.61031037688621, 4.316426888677254], [-51.63449981015362, 4.29076422720749], [-51.62388095903659, 4.30697659293118], [-51.61690906354012, 4.328604406933088], [-51.61770841890575, 4.340611274345511], [-51.61991033959043, 4.346776909993332], [-51.58304272300366, 4.292683596630502], [-51.56255760914123, 4.250915278644473], [-51.55156066142532, 4.203055142683282], [-51.549097366547784, 4.148855857596906], [-51.554748768047276, 4.100949634951025], [-51.57985050504126, 4.022490655813351], [-51.613077265508764, 3.968096951481569], [-51.702921752553834, 3.9190221668056258], [-51.703495450782206, 3.920543196850909], [-51.7035196085543, 3.915880957718092], [-51.71230239888147, 3.8832223833816784], [-51.732274565203525, 3.8406297431360197], [-51.75754704132413, 3.8047946162260784], [-51.83964431338913, 3.7167265724295317], [-51.87254470661286, 3.700214932690675], [-51.851075873790435, 3.725309070077679], [-51.84110195885323, 3.7587349104172767], [-51.83828595912798, 3.738247782365637], [-51.8520644224764, 3.6864923582288314], [-51.90553161201914, 3.6348997691467315], [-51.957950721679545, 3.62444778777966], [-51.951352427094854, 3.6261753712859903], [-51.91598912680805, 3.639421041516285], [-51.90278162403099, 3.652927648350092], [-51.89879590061888, 3.6593998276511472], [-51.9071664762454, 3.6140840798700027], [-51.92462681238696, 3.5718656867663707], [-51.966280294226166, 3.5096059749966155], [-51.97780288027457, 3.4817059606191942], [-52.00799377288368, 3.4416723366869975], [-52.00918271346355, 3.453237854735084], [-51.994116501147474, 3.5074495297067143], [-51.992177437905305, 3.4955374749088843], [-51.99768423608662, 3.450394399108698], [-52.14899343459162, 3.1987042401068266], [-52.17889231250498, 3.169117021315401], [-52.229478007976034, 3.145446508455655], [-52.271021843510134, 3.144011113783507], [-52.2675742642556, 3.144920580717959], [-52.23549102908698, 3.1526789633167196], [-52.21813316056751, 3.166649375929665], [-52.24115428165333, 3.115316332337649], [-52.27464860731962, 3.092507340785366], [-52.26287434404404, 3.1175955153354624], [-52.26188802546128, 3.121737969916254], [-52.251554018693795, 3.0660251453909027], [-52.25954847168502, 3.0233776992847603], [-52.32563780758896, 2.9008843752567577], [-52.32219751492845, 2.9269205607254705], [-52.32948127233672, 2.962280336069738], [-52.31846504414117, 2.9442624197079286], [-52.319708969285635, 2.852874146459082], [-52.38245829242211, 2.798823734574175], [-52.389379787652096, 2.7968350606175623], [-52.378366188448894, 2.803875977155522], [-52.37218823114466, 2.809660693253384], [-52.368780735810425, 2.8148485881396885], [-52.43811706273688, 2.6592001812456023], [-52.444160613909084, 2.6295859456629778], [-52.46556239395025, 2.5882024035902123], [-52.50546152966351, 2.5569723152105985], [-52.51494020523083, 2.5561957474104524], [-52.47755813577452, 2.6149574778733027], [-52.48229756219205, 2.667073197419313], [-52.46579911433637, 2.641765433563314], [-52.4524341932739, 2.5968458489814314], [-52.45857311644834, 2.5417989095860576], [-52.477259403889256, 2.5065650078274775], [-52.48345909848566, 2.4996317331702502], [-52.48078705384539, 2.503399842160129], [-52.50378182852447, 2.4547382839004404], [-52.54457627312524, 2.3968854239367365], [-52.57735080500511, 2.369259068148412], [-52.592923596554066, 2.336599440931123], [-52.61874901004328, 2.3034344261303694], [-52.65002976067987, 2.2772372166184156], [-52.7751135674523, 2.202026462032943], [-52.81243511359823, 2.1878020388151365], [-52.803001826144985, 2.1967584912722633], [-52.80058527349446, 2.1972430678792167], [-52.81127947015385, 2.168585768932259], [-52.83209042306809, 2.1384148261788156], [-52.866722353921666, 2.1093805250144975], [-52.918793564863115, 2.0937608069292244], [-52.93961728025063, 2.096557152184849], [-52.897203030437424, 2.104916375820937], [-52.870501122596544, 2.1235908729572497], [-52.88623813825874, 2.1047912303201963], [-52.92885880588582, 2.0800862002703044], [-52.987548852471704, 2.0734728174670023], [-53.03535414488543, 2.083315181546396], [-53.099812297418715, 2.094019971345448], [-53.14145770890078, 2.124861448513243], [-53.130079745817476, 2.120755300648914], [-53.122817702118695, 2.119745872102753], [-53.24105668511673, 2.0972050152438886], [-53.29997012347652, 2.100813590669666], [-53.37754478826367, 2.184262659069274], [-53.34988856318837, 2.28296030862672], [-53.303018073829826, 2.32153353362351], [-53.315058323775055, 2.300715730662643], [-53.32573526997333, 2.210736991097583], [-53.37060632859003, 2.235518377957711], [-53.396089067933964, 2.2707973215124686], [-53.37865808366313, 2.2578250906981245], [-53.338804043690395, 2.249765546450943], [-53.277036982002514, 2.2780247446750925], [-53.264354514946106, 2.2919325536298625], [-53.3097606704349, 2.234951395967496], [-53.343423499352134, 2.2107580427246853], [-53.37790642291461, 2.198031633605604], [-53.41213845915247, 2.1723793080078164], [-53.450408830442186, 2.156768894530526], [-53.49655470906636, 2.1533954121522085], [-53.53386216570602, 2.1470684302265246], [-53.58747472991378, 2.160154338028667], [-53.6152690858748, 2.17720432275407], [-53.60786442715124, 2.174659084247656], [-53.64097291509533, 2.1759788309467494], [-53.675286491736244, 2.1828525362728386], [-53.73534381840946, 2.2098417845518723], [-53.771865544440416, 2.2130537993775112], [-53.83825309212418, 2.268115748917606], [-53.84420590689039, 2.347192020615297], [-53.83434263262339, 2.3657406954944027], [-53.83368086098414, 2.322177930447721], [-53.80473119891263, 2.282130773685912], [-53.76467154474573, 2.2686940837933496], [-53.74578330736031, 2.2714629705345373], [-53.7357787804277, 2.277985852763211], [-53.72886471489383, 2.284594578863503], [-53.73669009220614, 2.2699770860312873], [-53.773838927183434, 2.228019153323704], [-53.82625251457779, 2.208120389802617], [-53.822256908842405, 2.215398842028595], [-53.79730084013779, 2.2334709853679544], [-53.81319478652452, 2.2079775914514204], [-53.873639367971236, 2.168394685816816], [-53.940800227560196, 2.1678139299551615], [-53.90882575886968, 2.172572335971917], [-53.84584514206299, 2.225230565444582], [-53.84101391181349, 2.218937394909344], [-53.86771570042975, 2.159931036392202], [-53.91768405301875, 2.1206500502019168], [-53.961402504903354, 2.104820003396787], [-53.94794811285117, 2.1135306296031042], [-53.96923445362513, 2.095261094556956], [-54.02928339505818, 2.078584377643758], [-54.079194365735646, 2.091507136398998], [-54.0841926970921, 2.096449717955808], [-54.057772412692685, 2.0892432042785027], [-54.04048952978136, 2.092576792992884], [-54.00324884783526, 2.115798839401118], [-53.99239068590986, 2.129719654105274], [-54.0129149779179, 2.0761110767767574], [-54.06480399889145, 2.0258077890744097], [-54.09606849647135, 2.015472051293286], [-54.140981530619555, 2.010857609273853], [-54.193412354901135, 2.0252304298686035], [-54.22808213470722, 2.050928781885871], [-54.244694067431816, 2.078565657934593], [-54.20404870920828, 2.0635307969166345], [-54.194485948105694, 2.062792993617023], [-54.20301900960229, 2.060882932413547], [-54.220767808467585, 2.0549623044854726], [-54.26066046324392, 2.048238950692022], [-54.33415968666548, 2.0569062330778207], [-54.36028632083941, 2.064606766417757], [-54.393445708368546, 2.082720827581501], [-54.42240446086953, 2.1093068046620784], [-54.4104479869508, 2.1034217572755405], [-54.37995219747576, 2.0976976462602352], [-54.38116285792767, 2.0965223003206495], [-54.41933317500717, 2.0985481375879496], [-54.44700037292753, 2.1062331087619848], [-54.463753778259495, 2.114117805734231], [-54.45471199771871, 2.111500921993414], [-54.50637418120243, 2.1186516447268247], [-54.554240465197815, 2.143914986770765], [-54.578376426011836, 2.1691527838605564], [-54.62720797272068, 2.2105389142893155], [-54.63358621202658, 2.333019986484349], [-54.62138427087744, 2.313952126545383], [-54.608694306850644, 2.223723918654949], [-54.61290654130953, 2.2272615576778922], [-54.61069818502856, 2.2269274866151334], [-54.70716287750076, 2.2867734325840288], [-54.649583691284285, 2.432193125373809], [-54.578631613000205, 2.448145589901008], [-54.54164901743192, 2.43764748744511], [-54.568884159941334, 2.432947853426227], [-54.60029669419159, 2.40892106967531], [-54.56904099690288, 2.482457745604053], [-54.53217341317697, 2.510100438843602], [-54.49790079133399, 2.5254398196869063], [-54.4582693977051, 2.5286494544401417], [-54.46136621602617, 2.527704528638307], [-54.47854930289431, 2.5193885263637408], [-54.4529352198363, 2.5471953954491555], [-54.44802289301728, 2.5544180147318314], [-54.41185951015956, 2.6471598420075573], [-54.37074479153332, 2.7299931509531876], [-54.29759027699249, 2.828995411834508], [-54.29686619080114, 2.8306229880705365], [-54.27642697616769, 2.886658596526608], [-54.24607820825567, 2.9234781284946276], [-54.26975649580002, 2.8624963577110307], [-54.25196931472224, 2.791086773217796], [-54.27752496518329, 2.8229300141809883], [-54.290912811381695, 2.868122414303829], [-54.28896616039812, 2.9062000500958844], [-54.276995342526384, 2.9430086631012005], [-54.25910660656949, 2.9707866436270933], [-54.26397048682931, 2.9601553800260647], [-54.262476284169416, 2.9659006141600184], [-54.242940123008616, 2.9090903933362635], [-54.222893479827015, 2.887317862068791], [-54.265195222034315, 2.931772627100663], [-54.279449339389245, 3.0310472873126724], [-54.24092094206242, 3.0784789309486573], [-54.26604070370148, 3.0355387891148697], [-54.26916547047594, 3.0064174977902787], [-54.266415733835814, 3.004087814907607], [-54.247873097381685, 2.978911557384942], [-54.23627021533935, 2.9704377309962005], [-54.28235290210872, 3.019221885855854], [-54.26790947190877, 3.125394176089806], [-54.23688673210408, 3.15285007481242], [-54.23871194380721, 3.1508554660374744], [-54.267401584799195, 3.1155856094099774], [-54.27469869668807, 3.094167297163949], [-54.27008748711485, 3.079828126124268], [-54.22557250822538, 3.03830799406289], [-54.289711028810096, 3.06549422559808]]]]}}]}