{"type": "FeatureCollection", "features": [{"type": "Feature", "properties": {"name": "Hauts-de-France"}, "geometry": {"type": "MultiPolygon", "coordinates": [[[[2.5474828153950204, 51.184186708613396], [2.6289480510679697, 51.1040006510123], [2.641027594394581, 51.0546828487236], [2.632348935605756, 51.06690008228967], [2.656129906821789, 51.05345639776435], [2.6969495811949336, 51.00768789828513], [2.7069334016846756, 50.91087125409153], [2.6685621989633037, 50.85741601975298], [2.6534150530462832, 50.84994469840527], [2.6766785560415056, 50.90446020623545], [2.6958881303416735, 50.88011057921397], [2.6879836150651673, 50.8230221387543], [2.679285428861954, 50.8096909305806], [2.6832163579642407, 50.87175881921126], [2.6435209463935143, 50.92645423746119], [2.6471230013347986, 50.92734899257608], [2.678208881472408, 50.90462165708704], [2.6934509942177853, 50.884393571227456], [2.672607512868408, 50.901799810517986], [2.648016384215738, 50.91234942084341], [2.6503637364151262, 50.91214161018096], [2.6474522395130613, 50.91219787724124], [2.668316388270634, 50.913897899252895], [2.6982759965396483, 50.91130116813453], [2.747280370715799, 50.89207344395724], [2.780885171643934, 50.857362521123626], [2.7838668065767527, 50.850776612000146], [2.770793506462158, 50.86549218918916], [2.8085067755945783, 50.84248387517067], [2.8292330524142795, 50.819979942941956], [2.8427096737558375, 50.79972129110975], [2.830813776709613, 50.811233535543785], [2.8244397682118274, 50.81598397777214], [2.894664483573902, 50.7961089209085], [2.892029884610855, 50.79658967770593], [2.87098505755198, 50.79537618962141], [2.8400781102781534, 50.7830825714891], [2.8644773960583234, 50.811611815133894], [2.901395924909401, 50.836962183765394], [2.943102676376408, 50.853738401227254], [3.0042939877341466, 50.86633774619684], [3.103023889547939, 50.8840846076899], [3.165021482062145, 50.872453172252534], [3.210304957998241, 50.8456377704728], [3.2380062943078736, 50.81586067863421], [3.2564783305865976, 50.79438725116697], [3.261891132879569, 50.78353970713535], [3.232416337907055, 50.80270199135995], [3.2255848976177846, 50.806895244329496], [3.275205338718578, 50.791327014608164], [3.316154297575263, 50.75054834646759], [3.3429737904790904, 50.65958705777995], [3.3275634399383236, 50.63434168344493], [3.3316135552118973, 50.66128519244372], [3.361363874564435, 50.59435888423939], [3.363068786991827, 50.56184816204714], [3.3503164641155205, 50.58790228950523], [3.3412654724987303, 50.59791179614564], [3.338243535444405, 50.5998098812833], [3.3683042807253254, 50.58984020177627], [3.366169575697467, 50.58965668266246], [3.370176247380127, 50.59048946814677], [3.395554291855202, 50.59600680857095], [3.393577131685099, 50.59558916732979], [3.4061596748698713, 50.60339449892792], [3.440675629665228, 50.616646403373956], [3.4841838126849374, 50.61961397910914], [3.533529623169607, 50.607810305390245], [3.5918585265953795, 50.546379492115044], [3.5863185295631403, 50.45991620682617], [3.5846605030991263, 50.5129827877743], [3.521331120270247, 50.58429782567237], [3.570630378794901, 50.58629440003037], [3.608302102737113, 50.581049398752626], [3.649855275644183, 50.567457510292236], [3.6929166140263567, 50.54053842020232], [3.7338220526792947, 50.49017566192357], [3.7522372941718136, 50.41772765618549], [3.752362601397122, 50.37085788755033], [3.7430465228251975, 50.37749491997586], [3.6728916260635396, 50.39530834898011], [3.6364212851874136, 50.3812143971953], [3.7091494759426133, 50.4050115943872], [3.7086559279009963, 50.404207221906105], [3.649644054848876, 50.387228674379315], [3.6289233734411317, 50.36628373126691], [3.633603040178463, 50.37508946035417], [3.6667932275483484, 50.411787024283065], [3.6996656931734244, 50.433955224246525], [3.741048234967099, 50.445349324963125], [3.8001449592291254, 50.44844100355502], [3.8597056533653187, 50.443278188307744], [3.89685945646099, 50.43178215489184], [3.9132245716928304, 50.42438367295152], [3.91038840147579, 50.42424835236138], [3.90506767612655, 50.424542830493884], [3.965597366975705, 50.441239740115485], [4.014706406578849, 50.44340733961691], [4.066874897854835, 50.42784612727861], [4.102668356404281, 50.40294630035264], [4.11959098643562, 50.39721550204715], [4.164633991794983, 50.369258640888845], [4.183120315290422, 50.33869879317156], [4.130047882262253, 50.350681043707], [4.059424814590396, 50.29645466794035], [4.049871346664137, 50.25823042565478], [4.073306107421188, 50.33339334918219], [4.160761532962937, 50.37293274783137], [4.201785035213534, 50.366273931756844], [4.228525754511923, 50.35558749661719], [4.25932911973314, 50.33716061402177], [4.300227352040185, 50.27810452145433], [4.284980593025155, 50.186745846576024], [4.243793251979669, 50.149057910844505], [4.22472668593154, 50.14015157798599], [4.235783576268559, 50.15073268412502], [4.244943065251782, 50.16580088326057], [4.24070916237251, 50.15044665666398], [4.2240084272285845, 50.11775872986512], [4.210338071255881, 50.181531255059156], [4.141397505399265, 50.22354627554461], [4.140730572475628, 50.227545373026466], [4.181427758895736, 50.22989622421799], [4.249282944595607, 50.199861527065664], [4.28656076390106, 50.12935097329647], [4.283496483408579, 50.13453143549662], [4.3047762425352705, 50.09953467850945], [4.2893938636006395, 49.99934237619405], [4.222269024262973, 49.959248132205566], [4.20961689357473, 49.95340034882924], [4.201544724518187, 49.948605298093035], [4.210695767901563, 49.957088567070215], [4.221627355309729, 49.97264647344858], [4.216665513216686, 50.052317504918854], [4.2007850762945305, 50.077926249333984], [4.236099873892494, 50.01044447162892], [4.211244805313305, 49.90473434347205], [4.126525495589031, 49.87511664465683], [4.134556469677272, 49.87502881172557], [4.145055341960564, 49.87656330495069], [4.146135375965043, 49.8764253763694], [4.122604326455487, 49.870995421474206], [4.098938202837258, 49.869045881152175], [4.063813231122588, 49.87238028523333], [3.965337308764513, 49.897219976782225], [3.937547064998226, 49.91004347568162], [3.91408529322813, 49.92964831653232], [3.8963054365312084, 49.95439966747415], [3.88597560666969, 49.984330073444205], [3.883478034360475, 50.01071325153433], [3.886710485796707, 50.01821536681472], [3.909218207324571, 49.97007181508772], [3.9470811390494136, 49.94534488706528], [3.9678086203907936, 49.9427736796645], [3.968358352192984, 49.941853341240844], [3.9656882995197424, 49.94099905093838], [3.9669815601722362, 49.94152349168774], [3.940224767689607, 49.927837971082006], [3.8994782569858337, 49.91983656039159], [3.8531945540434576, 49.92650310877486], [3.8113641878503586, 49.950885780882295], [3.799880097706224, 49.962780884181775], [3.8134396164122024, 49.953044880144766], [3.833016731600039, 49.94525407511431], [3.7385520674944774, 49.95207116934284], [3.695400790536124, 49.960059605578635], [3.695892837660669, 49.96010369648849], [3.703309554694767, 49.961358348481966], [3.694495768103794, 49.95734029374994], [3.6823616037589937, 49.95083670343301], [3.651018899846816, 49.940362392226476], [3.6124775171833523, 49.93675552835589], [3.5706354760058265, 49.94360426984051], [3.549369970334963, 49.95189393984684], [3.561390730938303, 49.9501463007004], [3.5798705661108747, 49.95266244343981], [3.563530711911503, 49.94326239817127], [3.5436814348504595, 49.936757083076444], [3.527415892382147, 49.93309758988043], [3.530073526502332, 49.933977123792886], [3.5310384837213613, 49.93442260659845], [3.5130802149716525, 49.925455682879864], [3.4776156259348703, 49.917228856611814], [3.4432333058501734, 49.915518918165986], [3.384068192275124, 49.92524835759508], [3.3587276225661093, 49.93324435194084], [3.3620234538907026, 49.932848160901244], [3.3774653005567417, 49.933650271576994], [3.389955767477687, 49.936680435222684], [3.381917275950404, 49.9323663771734], [3.3522887562701396, 49.92227293753556], [3.3131124596631607, 49.91834392333311], [3.247644686595241, 49.928764208337746], [3.2322826481068994, 49.9291870944941], [3.1428700107864485, 49.91968345998665], [3.054179447911914, 49.95598685585834], [3.0044343179356408, 49.99550112523286], [2.990785329781577, 50.0918260639426], [3.0369891398701356, 50.22844522481276], [3.067094816012468, 50.26994803730389], [3.0933519747330114, 50.28738972341406], [3.0720644514521736, 50.24775471191646], [3.0746263873059463, 50.19775921891584], [3.091159242390393, 50.17076374681678], [3.087801040523137, 50.17297015812294], [3.0925993506747544, 50.17054465646514], [3.092331036810432, 50.17059751743653], [3.0983086930756234, 50.17147555246445], [3.0553360075387213, 50.157682802380364], [2.993226406513065, 50.165473951981696], [2.927692534608029, 50.22839440702115], [2.927562164107227, 50.315228759504556], [2.961988559439498, 50.36346360946042], [2.9835053636937214, 50.374257495272424], [2.9634772624870713, 50.330145654972476], [2.9704186463317823, 50.28541664587314], [2.9783249954567137, 50.27158396541036], [2.9558073724391214, 50.286885896212375], [2.9054865275507145, 50.35480565828157], [2.9298908135101205, 50.463790059329895], [2.9903382042331295, 50.502264745418636], [2.971728288744461, 50.48090257684084], [2.9656818531501528, 50.40606166590983], [3.013048247272961, 50.35618291317952], [2.965850630062396, 50.366397223129795], [2.9140359890525946, 50.42316864407843], [2.90591602990438, 50.448115935381125], [2.916801337537756, 50.43064591032714], [2.934573706844302, 50.41551502833921], [2.9492975389294753, 50.40927138339014], [2.957253461884754, 50.40802538424287], [2.884750464556881, 50.407309062072336], [2.8328663221140316, 50.43743795606252], [2.8255261906574383, 50.44654488660814], [2.84487016296669, 50.43631859721796], [2.8659123227867638, 50.432659536379035], [2.826593365943589, 50.42498121579748], [2.772016884005496, 50.43400746086348], [2.7422958972462976, 50.450343127555996], [2.7237897632391213, 50.4663607862616], [2.7048600115248336, 50.490579295209315], [2.689802801134406, 50.530043302349775], [2.694024752998011, 50.588175677256345], [2.7198330068945133, 50.629168223431186], [2.7221676474794614, 50.62815339925814], [2.707638232192209, 50.59587377138858], [2.707785623305571, 50.62259920445812], [2.7365180393692112, 50.67691170751922], [2.7736729745208497, 50.70593766629414], [2.805931136701587, 50.720335003574924], [2.8382980032186573, 50.72862866893428], [2.7745342223828215, 50.66156884198812], [2.783887606360217, 50.57346270321218], [2.791255686003059, 50.570723767386006], [2.8149872717550113, 50.5691536907889], [2.834262467982274, 50.574792300818224], [2.806449570112887, 50.55063237123817], [2.759369175851592, 50.529587057243965], [2.7196125345472093, 50.52605045517532], [2.699983326733972, 50.52958262271103], [2.4766425530973217, 50.53404770694245], [2.4362481723195124, 50.544307306006644], [2.3864681051580274, 50.57459462572715], [2.394463299877793, 50.57217638582598], [2.3711588232475647, 50.57218153614637], [2.323213440536882, 50.58672711866455], [2.2734385656233895, 50.63847232919334], [2.2645874557144174, 50.70864184878169], [2.271982056449132, 50.724706455967684], [2.2746164594759395, 50.676763088940966], [2.295178884170552, 50.644005482679766], [2.290476071504279, 50.64648277166546], [2.256215120445689, 50.69867386678327], [2.2638212414658407, 50.7815135733752], [2.3041646957880833, 50.82823326484825], [2.3205168611734814, 50.83786293409335], [2.2934504186734763, 50.768410110934994], [2.333606460526899, 50.694517431265574], [2.3516999300987007, 50.68732215205369], [2.262609391726874, 50.6857856125832], [2.207767138788976, 50.69918431735092], [2.1483620842577937, 50.73839997333633], [2.1023597467623456, 50.82580305405947], [2.0361625974793927, 50.91178121570626], [1.9670379658933927, 51.04131999325965], [2.119917688948641, 51.11896220872873], [2.279147207600522, 51.15186789777177], [2.294686742204425, 51.156709433160835], [2.3231836738578844, 51.15987367494571], [2.380067721272633, 51.15522888815055], [2.4437637249609616, 51.16627226449319], [2.4720427434469583, 51.17456422642192], [2.478631602158541, 51.17773582302571], [2.5474828153950204, 51.184186708613396]]], [[[3.0870411358286236, 50.27086333976881], [3.1668464317902436, 50.17458236259911], [3.1509276392147196, 50.068937310140676], [3.065561568196054, 50.029995011049415], [3.026885792657053, 50.02132069689758], [2.923616156913048, 50.060569772328826], [2.9361981540217528, 50.2238561880795], [3.0083491040634707, 50.249308785467825], [2.999585573236681, 50.24700831263921], [2.990685997167611, 50.24197191514297], [3.0870411358286236, 50.27086333976881]]], [[[4.142561330700392, 50.07439157724505], [4.213259501998551, 50.05217863338323], [4.205582629258566, 50.052924285713225], [4.278411102820772, 50.03250060237051], [4.317976954029389, 49.941965698464955], [4.3126172021307365, 49.946071285073685], [4.299313786489712, 49.97320037115933], [4.3085417149194605, 49.964262261828324], [4.335043169913171, 49.927544695143766], [4.349157411008266, 49.8847428158315], [4.348500739420244, 49.84423024468975], [4.337646774066748, 49.81042923580624], [4.317646986452825, 49.78006942695579], [4.3051268280631625, 49.76664941241283], [4.311008883502003, 49.77822002123836], [4.309433991692269, 49.7871806811099], [4.2891455423864695, 49.83581913472058], [4.300023528668741, 49.83130467587059], [4.33214628879994, 49.77505188625151], [4.332565373553219, 49.71539294761262], [4.309568012817795, 49.66554773921132], [4.276008003665464, 49.63656745341275], [4.241230987160433, 49.61637731063718], [4.224015397700221, 49.603193793709586], [4.198173174040211, 49.589769822817104], [4.190358090026987, 49.58784310037617], [4.198200372725643, 49.59185703526733], [4.202026535919572, 49.59537449609047], [4.182494699036364, 49.572663459014336], [4.142771151956613, 49.54921864059489], [4.10562412227615, 49.53962152824647], [4.080660366189746, 49.53970257734384], [4.092149327846818, 49.541959733382186], [4.111303705333069, 49.5515697891112], [4.143700684527389, 49.60242510266732], [4.140542589990481, 49.658104058100285], [4.147918773009818, 49.64515930391463], [4.152474023190443, 49.632047702891754], [4.148629413702237, 49.639146608802385], [4.160148737724871, 49.62143955657405], [4.1730651608407205, 49.56281827135343], [4.162155033737137, 49.51998233664422], [4.1633920783080764, 49.52908858726412], [4.163068499569513, 49.565184425668996], [4.165011074578527, 49.56394708443157], [4.168770372616017, 49.49765294319247], [4.131535464223511, 49.44014805926007], [4.116349952756757, 49.4318145608691], [4.138886550325063, 49.47152760518601], [4.136471222007845, 49.523098813104454], [4.126815481198687, 49.54175861498806], [4.151163749294686, 49.51325310875592], [4.159656440625107, 49.39901059053375], [4.082214265981566, 49.34930095692315], [4.101971447958323, 49.35916892161983], [4.118954681642587, 49.376164732222925], [4.126910635262312, 49.463423807290646], [4.112451298003672, 49.49757145945966], [4.152662678899324, 49.43002114099545], [4.151493707695253, 49.35958994047453], [4.141167007048328, 49.33171619970549], [4.124335137804703, 49.30392110049796], [4.086171412074598, 49.27280269863227], [4.035162467288199, 49.25987997982266], [3.9924370060039163, 49.26604946752455], [3.9777274983971798, 49.273393838604306], [3.9973385167838686, 49.27073769281037], [4.016422339697765, 49.274660488806695], [4.006017571886056, 49.26849983086826], [3.9622636591468563, 49.26205907704884], [3.925084556064174, 49.26758401025134], [3.890024719426552, 49.282930247075036], [3.8945339074050107, 49.28166801070153], [3.8962458113086957, 49.2813351138114], [3.895090047513709, 49.282493770371254], [3.9150043193206017, 49.289749924289914], [3.9496355483753502, 49.32890538520955], [3.958085311638146, 49.37859778955217], [3.959728461345021, 49.37342140347877], [3.95643016642279, 49.322110710466816], [3.911187852698192, 49.262972865024906], [3.864315963977427, 49.24682647125999], [3.801261615134645, 49.24117229931348], [3.728899315052825, 49.22784668662504], [3.708020514951995, 49.220677128588974], [3.741210099800354, 49.26150754233484], [3.7428333273140924, 49.33707369933799], [3.750156549906599, 49.32896485691289], [3.761340122883488, 49.30203957631314], [3.7661449710412658, 49.280302366762015], [3.7692335929182237, 49.24133401522616], [3.767575364235065, 49.24837646687372], [3.7585392251125875, 49.26545020442156], [3.7243344809988566, 49.29519088229933], [3.698579296505545, 49.30382111690842], [3.7124956419221333, 49.30266363895355], [3.7519767650917473, 49.29013013292852], [3.7804504134806347, 49.26865239720626], [3.77925954027571, 49.26865020405534], [3.768508313597397, 49.275740745502716], [3.7968045567478734, 49.262737977974425], [3.8342719484744165, 49.22151994952035], [3.8458451028284717, 49.15684117266889], [3.8202114998343366, 49.097925769619124], [3.7861856666508364, 49.06886006454368], [3.75466337152871, 49.05425801879354], [3.7276283953816964, 49.04836512759585], [3.701748177075334, 49.046303602566674], [3.656951107038519, 49.05122400987628], [3.6663566632925377, 49.05204122385301], [3.674942813360878, 49.05461408551667], [3.6929525627950457, 49.06572763668097], [3.7138868858526513, 49.0916369698549], [3.7223319380141415, 49.11460229112701], [3.723282702726483, 49.12916794555361], [3.721364334073605, 49.144132460770166], [3.7274492661257392, 49.12418048434958], [3.727880560391682, 49.08243922609815], [3.7143352692961713, 49.04325651075939], [3.6915663684555375, 49.011486723487735], [3.666446739369068, 48.98969771492522], [3.646607663758966, 48.9778005649859], [3.6595615520671867, 48.992155426613806], [3.6819728988763485, 49.03297885188399], [3.6837738514220932, 49.04487138885423], [3.6828680577003676, 49.058739316100024], [3.6766912693214513, 49.08082795979214], [3.6551626257206458, 49.11039680614525], [3.624316083220121, 49.12886334429169], [3.6083101633643477, 49.13176066154725], [3.6336244535406026, 49.134222216713596], [3.6535047366377666, 49.133964306192965], [3.681603082877096, 49.12994703823059], [3.717657899051522, 49.11484761858955], [3.7635145321751318, 49.062991974797804], [3.764757553679396, 48.98126560167708], [3.7343274778338844, 48.93601812589588], [3.705930546415008, 48.915880627733216], [3.6967095091843305, 48.91172239490882], [3.698403853785712, 48.91372581355933], [3.6804494888033474, 48.89447243105713], [3.648776055421685, 48.87768474388712], [3.6614197487560225, 48.888412711694635], [3.6747457257190232, 48.90545395116351], [3.665478283306252, 48.887028767194955], [3.638675474141161, 48.857077064117036], [3.573942222632909, 48.81435018778331], [3.5764057892540198, 48.81637519517358], [3.5723956944010005, 48.81135299519947], [3.529459002699707, 48.76441145026413], [3.4500672456571557, 48.74694640051463], [3.41712403997613, 48.75003347533351], [3.382938788121436, 48.75944793593012], [3.3219004757091635, 48.79167143931925], [3.286037251710208, 48.83397439132388], [3.2745962847750048, 48.8686904841674], [3.273124237714757, 48.880448374173824], [3.2767678534840488, 48.872310793627044], [3.2947880434546613, 48.84756716250929], [3.334537518415126, 48.827162135295225], [3.372449660300067, 48.82672941091282], [3.340166188280747, 48.81777366082167], [3.284063886820031, 48.82656359719186], [3.1173492767354753, 48.92332048072521], [3.087234303336014, 48.95298091914778], [3.0678378830460153, 48.998665340070495], [3.067363922008506, 49.0426136860008], [3.0801960859969624, 49.07716011602582], [3.082116008600766, 49.07918898344307], [3.0759491435902024, 49.05384700438296], [3.0810838251976196, 49.01892014409605], [3.0835159671464623, 49.01256855884432], [3.0858325253692254, 49.00959616827833], [3.099691997543628, 49.00201886490889], [2.980653588154693, 49.092698913774456], [3.0400255634822484, 49.19781376181742], [3.041613845149416, 49.19908938430117], [3.040427947996768, 49.19696080708226], [3.031998658214329, 49.171983345104735], [3.0396729892721077, 49.124906102091124], [3.060573093701986, 49.09898339639682], [3.0685376248042755, 49.094354408579925], [3.0547320068224617, 49.09795813181212], [3.0560999413983434, 49.09774046367013], [3.004774994586778, 49.088095613243496], [2.9634542407964095, 49.08976879566023], [2.9145738974249564, 49.1134064265069], [2.8787422470784017, 49.159229213048945], [2.8743491716962093, 49.26607078786225], [2.9401414269646753, 49.32499486265323], [2.9447866824855757, 49.32216070634386], [2.9222205908243475, 49.284704180645186], [2.9262177514000416, 49.23509429837887], [2.9417894036715757, 49.21178572520356], [2.8839940543261413, 49.258469847980805], [2.872670808329054, 49.36150030409316], [2.965943321687689, 49.43189921353897], [3.018141153093593, 49.43491529930745], [3.0054405852999495, 49.42672299285296], [2.993506273385957, 49.414454658215625], [3.024567236877044, 49.48409229402232], [3.104109788876433, 49.52773266490032], [3.1560772775477455, 49.5229616286084], [3.1620257667449083, 49.51883989336228], [3.126238369102295, 49.51660690865452], [3.089580569659064, 49.492676456606304], [3.070332742044293, 49.451015567803275], [3.073605992138216, 49.41570926282467], [3.089008170898289, 49.39062368433183], [3.1075032771484983, 49.376385949178456], [3.0796580201737247, 49.38871951453824], [3.043134174806697, 49.42709278041423], [3.026939488516186, 49.46354324175865], [3.021067943909366, 49.49716004256592], [3.0223683254164717, 49.529209762112124], [3.033236589611672, 49.57327663213152], [3.0340771861164866, 49.56160875551107], [3.0389966914887565, 49.54787139552867], [3.021160871406676, 49.57129008383504], [3.008093122418838, 49.61427276096274], [3.0089479221194306, 49.65132965638736], [3.0219970361547617, 49.70059514163502], [3.0221858373073665, 49.68356124787638], [3.026410110305283, 49.66693939438334], [3.015541440889642, 49.68899572919767], [3.008873268580854, 49.727330949219926], [3.0235128487144154, 49.70192525225381], [3.063961232889943, 49.67429972706313], [3.0522290109577295, 49.67320991838683], [2.9725246048139713, 49.724553716820736], [2.9657779313547006, 49.82919258718107], [3.002900217952613, 49.87394881731586], [3.0058147798570714, 49.871291578968595], [2.9872743427703545, 49.83552106653901], [2.985355033086095, 49.81602641004469], [2.981237427223807, 49.84726797032953], [2.9979974610237843, 49.91199402667761], [3.040409381468928, 49.95366226046568], [3.0563513420505632, 49.96145830556065], [3.044677193013855, 49.95121592203554], [3.0779622963515725, 50.00704199566881], [3.1181501977774375, 50.04129076154699], [3.0934563234466426, 49.98432944262421], [3.106610385981035, 49.9262344463254], [3.062769061648703, 50.05217220769238], [3.219605351893101, 50.12878490550591], [3.2665593134047595, 50.12786779166225], [3.3193035403368394, 50.11824807666689], [3.3078132437298606, 50.11726506246443], [3.3014747240495965, 50.1154756228266], [3.311102232522313, 50.12047956477731], [3.3465326994432583, 50.131243728423], [3.383068546109297, 50.13173783909876], [3.4086883774338905, 50.126903648059155], [3.431511807724876, 50.119539642404916], [3.453996694149827, 50.115229081834016], [3.4515203740651295, 50.115519143388184], [3.442729785028347, 50.11267431712013], [3.441207516278639, 50.11311339340154], [3.459222473497668, 50.12100687620712], [3.474668107617853, 50.12601641011956], [3.4910105651495402, 50.12969691692355], [3.4900572880884972, 50.12927760182873], [3.5296154338891257, 50.14624555656018], [3.5673432690616966, 50.1500576992996], [3.5976460296650368, 50.145980060153164], [3.6234905239941733, 50.13649373015949], [3.6198804828166473, 50.13661847164411], [3.6080571001531845, 50.13569360777352], [3.601808396241006, 50.133897296566985], [3.612612231896206, 50.13980970625006], [3.663124445305233, 50.15727965151804], [3.6978311623393307, 50.160094303511514], [3.721263209463876, 50.15838039442137], [3.7647279325055227, 50.15035083065717], [3.874785268399961, 50.140843924885694], [3.9133023835877974, 50.126329119855235], [3.940485902293776, 50.10501311581823], [3.9407778121496415, 50.10337221911771], [3.9190754459565422, 50.11534089122514], [3.892127743014166, 50.119701439608406], [3.8712452323103927, 50.11556602891799], [3.8767424398277637, 50.12000850831226], [3.893505700480257, 50.12751894906162], [3.9165876478070163, 50.13503665875916], [3.9563353796092064, 50.1424443203355], [4.002770860950586, 50.13743511293472], [4.057729792675429, 50.10402818491228], [4.085159514203292, 50.04307463318528], [4.083469965639526, 50.00891674846568], [4.082202393330309, 50.0229959265558], [4.073718563468792, 50.046728332525845], [4.05963070677187, 50.06682168346768], [4.044254935001774, 50.079198524318386], [4.028548691235486, 50.08696802321778], [4.098338768877412, 50.06937771476666], [4.099777797162742, 50.06904411884783], [4.090701673544513, 50.068434578525796], [4.088966624034956, 50.06808062363061], [4.098748658039437, 50.07112869504931], [4.142561330700392, 50.07439157724505]]], [[[1.273104004188787, 50.06307432192734], [1.3368335668534388, 50.1590548553934], [1.3889187910697032, 50.2006505241734], [1.3964071930537891, 50.204039307375204], [1.3818201956726284, 50.18835523873965], [1.4058962980034684, 50.243783585906954], [1.4819400541769725, 50.30672010284863], [1.5661340062069238, 50.31713571711094], [1.667014084112746, 50.28578036441651], [1.6334597398888933, 50.28227788815196], [1.5847420511717667, 50.24040732725996], [1.6033382331945312, 50.127177067933694], [1.652413159170783, 50.09937646629626], [1.6108681557275626, 50.11091217438174], [1.5773388622843256, 50.136154596199816], [1.5554301507046229, 50.25776506816397], [1.594339321881345, 50.283098678118655], [1.5938953638168576, 50.149530085010554], [1.6346415997513326, 50.12064920967559], [1.5920212741318187, 50.13008127077034], [1.541162738203191, 50.15974440647177], [1.5201106229007788, 50.18832280550145], [1.536191109524493, 50.17464112419715], [1.5026903743383386, 50.18218793220511], [1.4496484316087193, 50.238395410137684], [1.4439988934459638, 50.323067093922], [1.4607938596694465, 50.3911140871812], [1.5338391779539475, 50.46809719900193], [1.620814411874572, 50.469272563146845], [1.654448105626142, 50.455266240404704], [1.6827130863864699, 50.43325183480557], [1.6767300931175833, 50.43661528554086], [1.6738556137676301, 50.43699237065069], [1.668729873984113, 50.437778088888855], [1.664544243377801, 50.437443497089994], [1.725654583641107, 50.4526682556462], [1.779833360163747, 50.457251353002135], [1.811601193106895, 50.45646468704603], [1.848678294451209, 50.450335031761426], [1.8900357329004667, 50.43104483049693], [1.9102289534899117, 50.41653491275638], [1.9218834019101942, 50.4050714534039], [1.9145488904833556, 50.40960376935145], [1.9032058018117717, 50.41252463607488], [1.875751623808015, 50.411496401865676], [1.852940122354019, 50.402175446946785], [1.8577327746790018, 50.40658348023115], [1.894394663511635, 50.42387892521236], [1.9530403765446211, 50.42792134371703], [2.0099768812484955, 50.403982308553005], [2.0521017655993976, 50.32012051804907], [2.0190609638063166, 50.24354635951447], [2.0082931412093177, 50.23502986008468], [2.0315354126540193, 50.27581272241968], [2.0125762408222636, 50.36064138689394], [2.065145156606941, 50.357274942222595], [2.0968030166058864, 50.342457286436144], [2.141855746098252, 50.300713043043224], [2.157194072634684, 50.25146796231847], [2.1552105884988473, 50.2577981014918], [2.144954432163164, 50.28219216477197], [2.134419479569445, 50.29438972166815], [2.127876201794992, 50.298329058165415], [2.1154305264628803, 50.302556445434455], [2.1144144046800633, 50.30312916585497], [2.1642609062522715, 50.30486102003854], [2.188877611967141, 50.30909694034025], [2.212897138417849, 50.310424701981724], [2.2286022878949625, 50.30944684030979], [2.2248947109146697, 50.30898137555741], [2.251294354842865, 50.31558181105712], [2.2774902500789946, 50.31715330673961], [2.2711415871385925, 50.31530092205324], [2.2361172045842115, 50.29159744378425], [2.2224675659485897, 50.27501475927021], [2.2527493281883566, 50.31497408483653], [2.3246955760006878, 50.340240953810955], [2.3801774437776615, 50.32599271280607], [2.41107388923519, 50.30239908235919], [2.418812951172997, 50.29312839753797], [2.40154435786168, 50.30499180077339], [2.3594337058862664, 50.314103752608105], [2.3237043568705746, 50.30449182854232], [2.344477786091264, 50.318146485025494], [2.3992632505796743, 50.327782594857524], [2.4372691017414327, 50.321139010467945], [2.5014351172192613, 50.29772732143548], [2.55221561567723, 50.25334771822939], [2.559904262451412, 50.155022361031534], [2.511847146432351, 50.10291335053357], [2.4875966881482183, 50.09084967958208], [2.4561728372488862, 50.079250268707796], [2.4502197842129623, 50.076630966424425], [2.456480453669913, 50.08241626073055], [2.46605675391029, 50.09624187864346], [2.47187471623311, 50.111925345435644], [2.4739754403745677, 50.12706543094316], [2.472441074141185, 50.14293372643087], [2.468723883917041, 50.155562527610634], [2.463502932306631, 50.16496132973016], [2.453228735216092, 50.17686832983839], [2.43618613181955, 50.18752030392472], [2.4054781540180357, 50.19381583283659], [2.3680659962459596, 50.18433636313781], [2.3436252684597543, 50.16527638330331], [2.3470535027030994, 50.171822220930224], [2.36764826291256, 50.19500543072177], [2.407686992475561, 50.21857922522162], [2.4491430676549637, 50.22716590413947], [2.491447887975563, 50.22703109040086], [2.5123089211023477, 50.22244920196856], [2.5013363632373546, 50.2218705533848], [2.4897746151769526, 50.218633876472644], [2.502424173629687, 50.22501328067841], [2.539248271913317, 50.23377632158039], [2.595921308169124, 50.229873197989114], [2.6627929934944476, 50.17610282299685], [2.670092341563004, 50.0956785489097], [2.6589151742781887, 50.07123937827393], [2.6670062148834015, 50.124755851762494], [2.627040955042909, 50.18988073416295], [2.603472126355693, 50.200980571878596], [2.6471046186519733, 50.195763614469165], [2.680308629132762, 50.187194321514724], [2.706005152216265, 50.177383423003775], [2.713525548612352, 50.17288220656367], [2.697436428124959, 50.17709965532653], [2.6689124456921562, 50.175472678966756], [2.6260939674976167, 50.151324651470496], [2.600286145193293, 50.101532556715036], [2.601251627577013, 50.06461877972589], [2.5975713048826377, 50.07672950494188], [2.59673372804663, 50.11636177831321], [2.5994699646894412, 50.13427385505177], [2.6088019614666194, 50.163503785058964], [2.643547423993955, 50.206297598617795], [2.7073875754780925, 50.22857085620674], [2.758175129614099, 50.21830220706582], [2.785199241050107, 50.20338196960085], [2.8105175667829587, 50.1827262309839], [2.830523753581559, 50.16215295714463], [2.852851058952866, 50.1282057379738], [2.8645687617433753, 50.08593908837222], [2.85679134285589, 50.03488261786266], [2.834535107453117, 49.9996744462984], [2.8242211733224156, 49.99134955086613], [2.842707765634452, 50.049383207898416], [2.806578567172199, 50.120671684674065], [2.765722143295806, 50.137458884955926], [2.743635197515103, 50.135848022438914], [2.741693642085025, 50.13652768732361], [2.783960769565735, 50.16051389640946], [2.8320936184669603, 50.17105248677705], [2.8894423057426417, 50.1560156372514], [2.9237871450951674, 50.12616882069065], [2.941719027644458, 50.09568284336521], [2.9500937379506347, 50.06440962194204], [2.9507966353372543, 50.03492748297009], [2.9484969186980146, 50.02085665360831], [2.9476205424433704, 50.04415765637832], [2.9195220005127096, 50.09469396766787], [2.87288495587366, 50.11720097369653], [2.840832453931257, 50.114722668274695], [2.8517721761297268, 50.12246820829331], [2.8919612029932353, 50.13328586467772], [2.9365616478920566, 50.13479755303005], [2.928420029818022, 50.13130780911083], [2.900854078939885, 50.11366354038257], [2.8832076183212254, 50.08808811219619], [2.8759746428031816, 50.05648831606676], [2.87900020602746, 50.100211067007365], [2.926310888709998, 50.15779760347234], [2.972269911871122, 50.175050396240394], [3.0179232904842896, 50.17633847980691], [3.0426249167852624, 50.17305559240625], [3.0634568052244577, 50.167478977546345], [3.1254188383974486, 50.14286275942073], [3.133202552088086, 50.13971314414165], [3.2160363665875003, 50.099390348577145], [3.2668356140189654, 50.045933553674594], [3.2926896765533575, 49.9668345573758], [3.2571858022225624, 49.897523238453005], [3.2287317036484278, 49.87563200433119], [3.190340806986145, 49.81416807796446], [3.1555966579494363, 49.78781969443936], [3.146752618531072, 49.78427773953432], [3.170136538976216, 49.810169973322395], [3.181228572776193, 49.84538602967047], [3.184624966913905, 49.8330995899553], [3.1827056572296453, 49.793016933461], [3.1558592201429283, 49.73905442103141], [3.1246277820473867, 49.715259182684136], [3.1482600686452993, 49.747337412818936], [3.1409853951860285, 49.83235428317927], [3.0981949890422706, 49.86785608161317], [3.125926767110057, 49.86445827293687], [3.1772731512855845, 49.829822747746185], [3.2016247314191464, 49.78068705078008], [3.205062559110358, 49.752884270802326], [3.2012779800210636, 49.64956837803441], [3.1198060282563653, 49.63997171608718], [3.144550375302037, 49.65456171609965], [3.0774448255324973, 49.592060678282046], [3.0033371862708793, 49.58867101758555], [2.96727255473185, 49.60554684691927], [2.986022351756874, 49.60293791749292], [2.996959732509938, 49.604213343122986], [2.97789549900871, 49.59734447607865], [2.9188537744342145, 49.59450371301806], [2.8805960348595083, 49.61100412250425], [2.9164160860131703, 49.61380311053014], [2.9445820245922576, 49.62996163444291], [2.926704183410803, 49.60483833605316], [2.8814093970269843, 49.572683620841616], [2.8375986071658486, 49.563470326057846], [2.8638323353754553, 49.57730496997051], [2.8927458390126985, 49.61831076419913], [2.896444385369176, 49.64863027038419], [2.898301541490769, 49.637552808099414], [2.890403350465415, 49.58352623517193], [2.8394193320486294, 49.52789487308895], [2.7746460272368556, 49.51421938991439], [2.726353254035722, 49.52604452730735], [2.724834273739831, 49.5255157332528], [2.740072744394873, 49.530586935343905], [2.7380448675501183, 49.527398606885285], [2.746335018924373, 49.53691788768251], [2.74215369145251, 49.52916506956842], [2.7094571747301637, 49.49487418299101], [2.6381838442056815, 49.475217368659465], [2.5574332156432016, 49.51535564883807], [2.5387604953248815, 49.556736335954035], [2.5709404213114415, 49.5237496431133], [2.622157540291873, 49.51282324164238], [2.617670466270309, 49.50707473249969], [2.572386926439653, 49.50017025419052], [2.519259196029827, 49.513352051363995], [2.489093826428706, 49.535034501993266], [2.515889510061202, 49.53086051439818], [2.495947296877263, 49.52653046244739], [2.4532638791473076, 49.529401382950304], [2.4153719840902643, 49.545505916083265], [2.3995471939288398, 49.560349824693375], [2.3284032064369615, 49.56884873213412], [2.278105963123323, 49.593358078260856], [2.236212399598575, 49.597876640788456], [2.054517762066185, 49.58516644232699], [1.9623645118949609, 49.61577855166258], [1.8372457145252177, 49.603222265536246], [1.7668122070955687, 49.64665410894843], [1.747842783486753, 49.69605216451765], [1.7675182988725953, 49.66791443501091], [1.786474493173795, 49.65372848383438], [1.678120258657905, 49.7011308683592], [1.6568392241715162, 49.75106330349522], [1.6627695859898148, 49.73543651917004], [1.6622895321870488, 49.736232661302445], [1.642289097116402, 49.75761961769757], [1.6214957103686498, 49.78890521086245], [1.6116764588572183, 49.819563773088454], [1.6174465356556649, 49.8111687584263], [1.4673631631026651, 49.91351347252405], [1.273104004188787, 50.06307432192734]]], [[[1.4983556077965139, 50.398426145589916], [1.544353083821936, 50.44579172592767], [1.5251890807945907, 50.324500776422965], [1.4700130807945906, 50.35237277642296], [1.4582492807548408, 50.43612760544397], [1.4767544815912117, 50.47069570919262], [1.4744694075833356, 50.49930691492451], [1.4980036078407875, 50.59141529228382], [1.5116904044931245, 50.564408499072904], [1.4999168693897924, 50.519557585989155], [1.4805823126330033, 50.56556514262081], [1.474942100421137, 50.61910415815432], [1.4640239189184334, 50.66518882144749], [1.4634447982630958, 50.71136116048526], [1.4748071947756405, 50.7539231995691], [1.504777258705201, 50.8106479039768], [1.511008070453761, 50.816382468663384], [1.5056439536563022, 50.790650081949565], [1.5050581683528779, 50.77947345556666], [1.4873573208311386, 50.82120140376285], [1.4814032492235116, 50.85293952643528], [1.4941746532114262, 50.91914615338567], [1.5691199797313942, 50.97445637277376], [1.5974668237425502, 50.982081617196215], [1.6197676257800875, 50.983529177544376], [1.6138934645013374, 50.98100094433205], [1.6096072581057685, 50.97966150651391], [1.6401399274239, 51.00639856482797], [1.6906042404964297, 51.035901394050455], [1.914384964120959, 51.09652585382446], [1.927985853731668, 51.093809775060265], [1.9518869553697706, 51.104788653605496], [2.0903236913013616, 51.11060611877956], [2.175175402520607, 51.05557078429374], [2.272454253237654, 50.93100694594053], [2.2962359157422063, 50.873060026663666], [2.2831948612110238, 50.884415682649085], [2.284074608273126, 50.88463038741679], [2.3731380699012994, 50.88616984794631], [2.4298155394731014, 50.86985656873443], [2.493393581326524, 50.77317788906501], [2.446597138826519, 50.68260906590665], [2.427309304211917, 50.67064073515175], [2.4432187585341594, 50.6931024266248], [2.4481448795543113, 50.75491413321673], [2.4228039284957212, 50.79644722833454], [2.4316811158294485, 50.79018051732023], [2.46362554052406, 50.742150911059035], [2.4666539435508676, 50.67884954403231], [2.4608225442855827, 50.67001815121831], [2.4534214343766108, 50.72568567080666], [2.4197305594631175, 50.76189688133545], [2.395207176752435, 50.77073046385363], [2.4191447001222075, 50.77064761417401], [2.4637898948419727, 50.75904337427284], [2.5123598276804877, 50.72925869399336], [2.5017594469026783, 50.732464293057554], [2.722266673266028, 50.728337377288966], [2.7329154654527907, 50.72560754482468], [2.7092868241484083, 50.72321494275604], [2.6988124298871132, 50.719197628761826], [2.7325235320177255, 50.74698169918178], [2.791218728244989, 50.767736309211095], [2.8513363139969408, 50.761486232614], [2.8950903936397827, 50.73969729678782], [2.9650897776171785, 50.60083515801188], [2.871353996781343, 50.53137933106572], [2.8712468632984125, 50.53130099642508], [2.8728750254791504, 50.532274333705864], [2.885815960630789, 50.54383229248078], [2.9023743766944285, 50.576390795541876], [2.904411767807791, 50.56009422861142], [2.8806103525205384, 50.506104600741864], [2.8631689931054862, 50.48968777656881], [2.8829132470019894, 50.52244032274365], [2.886607198865594, 50.56565269765023], [2.8764279884751662, 50.59336270479068], [2.8670342367608783, 50.60593521373839], [2.860086102753703, 50.611976872444004], [2.841395115994504, 50.62158853913652], [2.821842634056411, 50.62492478420251], [2.8535396772132366, 50.63227646362097], [2.90925583703331, 50.62567140278203], [2.9572078093425613, 50.59707711339186], [2.9678416778859686, 50.58502404393749], [2.9368315354431194, 50.60040893792766], [2.9586345381152457, 50.608020615757134], [2.9958144610705246, 50.60378661660986], [3.036730293155698, 50.58745697166079], [3.070190662462244, 50.55898808967286], [3.0901719700956205, 50.52589606461888], [3.092424010947405, 50.51359935592157], [3.0639873699376037, 50.5406647768702], [3.0859597527270393, 50.54241908682047], [3.1518281468498475, 50.479202334090175], [3.139233711255539, 50.37162342315916], [3.09082779576687, 50.32934325458137], [3.0836871864898794, 50.33593594067011], [3.098335472449286, 50.40780834171843], [3.0834786275608783, 50.44083410378763], [3.1103990045432863, 50.42177203458964], [3.150561353668218, 50.37229935412685], [3.1615907375129284, 50.30274034502752], [3.1340486363062787, 50.24258850472757], [3.096237440560502, 50.21521639053959], [3.113701835892773, 50.24207124049544], [3.1118134653919713, 50.306493592978846], [3.0692195934869346, 50.3504740480183], [3.030663992461279, 50.35615519761964], [3.0606413069243765, 50.36789644753555], [3.103004963189568, 50.37031248256346], [3.140792649325246, 50.36465134353486], [3.181758959476863, 50.34952584187706], [3.235572757609607, 50.309128253183225], [3.2620816126940535, 50.26747678108416], [3.2665335485478266, 50.20104528808355], [3.2354460252669885, 50.14664427658594], [3.206991183987532, 50.127017962696115], [3.215168860129864, 50.13760477518724], [3.187500670218423, 50.0557279360574], [3.142779528923629, 49.966186841471185], [3.0001311947755425, 49.97776902245365], [3.0032970832147377, 49.976960407593744], [3.00470870951571, 49.976775520193094], [3.006856088128878, 49.97806360375961], [3.0311051112900023, 49.987450396527656], [3.0682197939725397, 50.03543493299263], [3.0758613571968185, 50.04975768393324], [3.0661663816787743, 50.007303887803815], [3.041093921060115, 49.97107045961743], [3.0007839701819785, 49.94485819088917], [2.9535743521079434, 49.93552244696995], [2.920566797006765, 49.93534213532229], [2.9257318238702736, 49.93664579170668], [2.8956275460687433, 49.922375331725306], [2.8471390441263402, 49.91886502630348], [2.785295999487291, 49.946426032332134], [2.75007945755663, 50.01289234362169], [2.7507850813019856, 50.05102334639168], [2.751561364662746, 50.05240051702991], [2.751956262049365, 50.037178378057966], [2.7569029723555425, 50.019243156634786], [2.767100854904833, 50.00187317930934], [2.791205694257358, 49.981804362748605], [2.8327343815330397, 49.97105351322295], [2.861883230434265, 49.976318103590536], [2.8319043579149747, 49.95802831267639], [2.788918802484897, 49.94104197756109], [2.746351856704194, 49.93839911504407], [2.6881374328278014, 49.95951431532593], [2.642736234365548, 50.04600879210159], [2.6683408266775848, 50.11665444913386], [2.685010892546883, 50.13249955370161], [2.6711026571441097, 50.10917738213734], [2.665171238256625, 50.070426911627784], [2.6728469410471343, 50.041036262026196], [2.6762782464184416, 50.034841042855376], [2.675540433217041, 50.03514176901609], [2.671680758949893, 50.038720030399155], [2.6810388703859007, 50.03377579293418], [2.7137204245219078, 50.02867114379327], [2.7627065760060447, 50.04567040138221], [2.7893660385333807, 50.07750021494104], [2.7952700353105584, 50.09350214494824], [2.79589827195337, 50.098100221686785], [2.7944006951173623, 50.11220049505812], [2.795378372422987, 50.112731220274114], [2.7972678548067074, 50.06691744328497], [2.7683820325023833, 50.0107753485295], [2.7131715543078436, 49.98043132103325], [2.669443571875041, 49.979068344673465], [2.6399944513876474, 49.98688979343633], [2.6233448477837347, 49.99526457699622], [2.619509370867238, 49.99665967848527], [2.609911381348027, 49.99925238553083], [2.566267873644307, 50.0044714281214], [2.5185290449570914, 50.021877265837055], [2.4686317851165986, 50.099308148237505], [2.4819968257218115, 50.164512621726075], [2.478291658436996, 50.152357451090296], [2.4858970065055526, 50.08278717700314], [2.538222691830876, 50.03837680201088], [2.5607517280866827, 50.0349356784196], [2.5736258263703133, 50.03811671932159], [2.568257384823047, 50.034676123527355], [2.536215636762645, 50.02493544661521], [2.496153078897652, 50.023102798031445], [2.4710021120244368, 50.028078909599145], [2.466768932345036, 50.02794409586053], [2.476937007524439, 50.030950774778375], [2.49825373708744, 50.04353856927823], [2.5092684972969, 50.05483377906978], [2.4968767315402456, 50.03676961669669], [2.4612740037540406, 50.007383636862194], [2.405843845981964, 49.9938161671634], [2.3556238681804498, 50.004463696075284], [2.318103264783908, 50.02941967016161], [2.2966670676933685, 50.054662670269835], [2.2845461160829585, 50.077597472389364], [2.276478925858815, 50.102948273569126], [2.274022559625432, 50.131406569056836], [2.27766128376689, 50.15968665456436], [2.28822524608971, 50.187762121356535], [2.306501546330087, 50.214727739269456], [2.337900215787038, 50.24211303357557], [2.374705162751114, 50.2619057312922], [2.409111311851782, 50.27480632041792], [2.4087228535676486, 50.27427664946643], [2.3758717375485876, 50.23332963896846], [2.38171438432277, 50.14880428177061], [2.410478882780739, 50.119606678564516], [2.383368898258567, 50.12853898953206], [2.3925467494203256, 50.12789540514248], [2.422812213908736, 50.1341255149745], [2.4199416431294254, 50.129168171457685], [2.3693602941137333, 50.1143502473919], [2.3083076421383195, 50.12805419922662], [2.2736810488270027, 50.15551760246203], [2.26902811076481, 50.161604917640815], [2.2856425562223386, 50.14974528719394], [2.325610423999312, 50.14024304618905], [2.3785726718116433, 50.15951191516347], [2.4035824340514105, 50.19017724072979], [2.3834287954157882, 50.15632255621575], [2.3319684128614075, 50.124775077946765], [2.299559749921005, 50.11837469326039], [2.280799645157135, 50.11777018894288], [2.25595928908533, 50.11140862444259], [2.2289597121050377, 50.109447159690205], [2.212408861582151, 50.11042529801828], [2.211204388032859, 50.11034705965975], [2.1846690937477287, 50.10590497996146], [2.1113375953199367, 50.103152834145035], [2.0796034735371194, 50.10579155456555], [2.0425477982050078, 50.117444941834584], [2.004100520430555, 50.14267627833185], [1.9783595678368355, 50.17152983522803], [1.9603694115011523, 50.212665898508206], [1.9580779273653157, 50.23268603768153], [1.9712642539017484, 50.19631695695677], [1.9954869833941138, 50.17001871356386], [1.991108843393059, 50.1714830577774], [1.8593717591777366, 50.23207861310606], [1.8385665873459809, 50.32837727758032], [1.8717408587906823, 50.381158139915314], [1.8764850361936833, 50.38380364048554], [1.8521022344006026, 50.31968748195093], [1.8867991187515045, 50.24641569144699], [1.9241796234553787, 50.230014656282975], [1.948637336488365, 50.23137507478764], [1.9688632253209981, 50.24030051976885], [1.9609558776459812, 50.23385255305321], [1.9214003761919851, 50.21677559813432], [1.8710081981882285, 50.21513336392512], [1.8254311095166444, 50.230556230648546], [1.7979245980898058, 50.248118546596096], [1.7819830465100883, 50.26306508724361], [1.7867062670995333, 50.25980516950307], [1.790535705548791, 50.25897296823857], [1.795882806893105, 50.257083312953974], [1.7854646398362528, 50.25733064699786], [1.7579914163588928, 50.25529974435379], [1.6965837566221988, 50.240026502910005], [1.6678761260158872, 50.23777991111114], [1.6335703862323698, 50.241091629349306], [1.6042399068824167, 50.25021471445914], [1.5790529136135303, 50.262212165194434], [1.553397894373858, 50.282671759595296], [1.4983556077965139, 50.398426145589916]], [[3.026885792657053, 50.02132069689758], [3.065561568196054, 50.029995011049415], [3.1509276392147196, 50.068937310140676], [3.1668464317902436, 50.17458236259911], [3.0870411358286236, 50.27086333976881], [2.990685997167611, 50.24197191514297], [2.999585573236681, 50.24700831263921], [3.0083491040634707, 50.249308785467825], [2.9361981540217528, 50.2238561880795], [2.923616156913048, 50.060569772328826], [3.026885792657053, 50.02132069689758]]], [[[3.1827314867284806, 49.78246567693321], [3.2203921626926335, 49.71028675212362], [3.2199209638452384, 49.671852858364986], [3.2066900778805696, 49.621362343612645], [3.206666877581162, 49.638115239037255], [3.198785128593324, 49.66321191616497], [3.213117308511243, 49.64626860447134], [3.230604813883513, 49.598715244488936], [3.2320614103883276, 49.551627367868484], [3.220429674583528, 49.50143023788788], [3.220674056090634, 49.50970595743408], [3.2188025114838137, 49.52001075824135], [3.2121878251933027, 49.53396121958578], [3.1913519798262757, 49.55462448546176], [3.197696722851502, 49.554894050821545], [3.233505829101711, 49.52890031566817], [3.2622240078617835, 49.48221673717533], [3.2684412579557067, 49.42357443219672], [3.240535430340936, 49.3614795433937], [3.182389630897705, 49.32465109134547], [3.127354233255092, 49.32186810663772], [3.0995087224522546, 49.3311283713916], [3.1335902111235674, 49.32991733509969], [3.176306763122956, 49.35380370597768], [3.172737726614043, 49.32570734178437], [3.1355794147000506, 49.27485500714704], [3.065134846906407, 49.24051470069256], [3.0173126783123108, 49.23860878646103], [3.0558291916709455, 49.28116969590683], [3.0474499456738586, 49.373718152019194], [3.079786596328424, 49.35655027479644], [3.109464248599959, 49.315223701621136], [3.1174174091756526, 49.24113581935482], [3.068351317514424, 49.164897293656146], [3.025800573035325, 49.14426713734677], [3.0561288283037906, 49.18266721213776], [3.060567752921598, 49.24253278695106], [3.0400741025750433, 49.2691295734931], [3.00692575920359, 49.28498720433978], [2.9844130054132223, 49.287056386756504], [3.0390400586016564, 49.29701153632987], [3.080355993177538, 49.296309868187876], [3.136642375195725, 49.282401591420076], [3.174664906298014, 49.26324860360319], [3.217627010727892, 49.216187897908874], [3.229431341785671, 49.14004065489526], [3.2057100520032322, 49.08434719291773], [3.177848154850584, 49.05266461569884], [3.1482364365177515, 49.02961623818258], [3.123828285195505, 49.0164445168729], [3.0908783882526603, 49.001563686961575], [3.05647441969687, 48.99293098740668], [3.0309143186278593, 48.99307851325316], [3.0335143104966535, 48.99359012693236], [3.041675298006667, 48.99623795389536], [3.0173342945612616, 48.98370030634716], [2.957732925184559, 48.98033260136507], [2.9269195619442896, 48.993421396787376], [2.9549186236204377, 48.98894978677595], [2.957496807568824, 48.98647958050934], [2.855664420923561, 48.97511268501282], [2.790819945702556, 48.98683331157259], [2.796816004869273, 48.98668919981175], [2.815188376861353, 48.99016740300742], [2.83445599150725, 48.9999206513257], [2.8335564388747416, 48.99796150927336], [2.808596897080467, 48.98120423586295], [2.771812993708858, 48.96910478667594], [2.730820612314923, 48.968985972317085], [2.699391385177814, 48.977729520249795], [2.6802868327726266, 48.98686024890189], [2.6802101286638416, 48.98869963501887], [2.714981049828397, 48.982137108323066], [2.7059761015186026, 48.97704342490998], [2.6590676543866794, 48.97811967888424], [2.6180480311686654, 48.995313454300494], [2.613556667973689, 49.00137296364181], [2.6338650998216755, 48.998101627198835], [2.5734061131487866, 48.9850398355165], [2.5030908694090876, 49.01534246520544], [2.4778517773970314, 49.03889007543463], [2.475937057037893, 49.04210360984348], [2.4934088330550503, 49.028442683812415], [2.534311978942867, 49.01783356419359], [2.5329998255358093, 49.0132597550182], [2.4901021461136, 49.01440080061265], [2.3079704435395243, 49.08008391595619], [2.317719971755156, 49.07958317186599], [2.3290711919435725, 49.080516718053325], [2.2881688530084476, 49.064231145601966], [2.2490914065851624, 49.06147136223453], [2.2179930742151206, 49.06507817706187], [2.152424883808213, 49.08428413968269], [2.1442214503549994, 49.08563193955175], [2.1190868720498663, 49.08616581052363], [2.0693820484953553, 49.10230085004938], [2.0415436116339336, 49.11670289587196], [2.0329392797021244, 49.12350795816817], [2.0499396997152655, 49.11564912546566], [2.0766896584418966, 49.11206316830164], [2.0871413325302326, 49.1131114984569], [2.0853656246558, 49.1122311913811], [2.0405470285996827, 49.090145014090105], [2.0101459990783708, 49.08006184078826], [1.9749833692504646, 49.07520290768469], [1.9302064117488769, 49.07443331643131], [1.8808018586180393, 49.06792103098217], [1.8498153209500894, 49.074432463638495], [1.8235079462328034, 49.076652112219406], [1.7810875946883935, 49.086472321980345], [1.754712538859313, 49.08608568953632], [1.733709773671574, 49.08829630517541], [1.7039864478570155, 49.09523622833915], [1.6635580533594927, 49.11721074004145], [1.630924039825176, 49.15542438319417], [1.6209672787409233, 49.18150896035183], [1.6357032818700101, 49.15750486964432], [1.6218162330555896, 49.165950764172], [1.598401152628854, 49.210067997823415], [1.591280591806041, 49.25801055930646], [1.609926580695198, 49.309212254347486], [1.6489864647310346, 49.348405572686985], [1.6918767529462115, 49.36697731217137], [1.737781139703568, 49.36968590174635], [1.778230076265201, 49.357552187703995], [1.805993391043233, 49.340092797077254], [1.8190651321332063, 49.32752892619893], [1.8069148789197147, 49.33594321449993], [1.7939644386304379, 49.34185025931059], [1.7760513911088234, 49.345440577181584], [1.7503881345657752, 49.34322032745149], [1.736091722526445, 49.338348206931684], [1.7154400374133008, 49.32400257663761], [1.6838897625604643, 49.26068265957443], [1.6877024316519398, 49.22148595394753], [1.6605687651147791, 49.26607125648191], [1.624259357198275, 49.35756128327424], [1.6186006250701568, 49.399905952942284], [1.617386028405622, 49.436669266142346], [1.631951743483471, 49.480927458729425], [1.643567915325727, 49.49981131674088], [1.6531066696835577, 49.51828167660055], [1.6724134728928346, 49.541809256724235], [1.7067253518761771, 49.56389196815594], [1.727881674634006, 49.56951149306491], [1.7144105624998927, 49.565112713280726], [1.6889314680509488, 49.54668836995025], [1.6733758055715011, 49.522456741255525], [1.6727614613328856, 49.4733834923306], [1.714593426944399, 49.420123613493175], [1.7552547102863525, 49.409394258623536], [1.766928345325697, 49.410912821044825], [1.759085965348696, 49.40795177498889], [1.7325684906392895, 49.40333931600548], [1.681276280309081, 49.41115415828366], [1.6278929586306896, 49.456639886326535], [1.6112439806331897, 49.50134341055031], [1.6075362160492985, 49.534630529657036], [1.6087493704837161, 49.5302639744444], [1.6007646534141382, 49.54907049134971], [1.5932178858852755, 49.60308212901871], [1.597337957890929, 49.59980773770845], [1.609853487583517, 49.57291198741028], [1.6027712345482887, 49.58117655562483], [1.5822800902067204, 49.661808194945465], [1.636990899231964, 49.737268630725595], [1.66677810471215, 49.74923375164191], [1.656948166205909, 49.742699679213445], [1.6483962436451645, 49.73400582515883], [1.6349639345810738, 49.680743294438], [1.6779598514793976, 49.608023654906624], [1.7252094283770132, 49.59458439273326], [1.7322060357777487, 49.59509628721645], [1.7211102661197208, 49.5920437732032], [1.6929717383262775, 49.58813340482922], [1.6132626092104494, 49.61511543106942], [1.5800654368974714, 49.710493498871536], [1.6033769505753246, 49.76689321832559], [1.651308447639175, 49.81856202619986], [1.678276390365095, 49.83927159947754], [1.6980816146042992, 49.8469372366149], [1.7354266385795496, 49.86377723429178], [1.8553315068262048, 49.84150151616563], [1.9054897011274046, 49.8127035649891], [1.935755216513247, 49.76452783548234], [1.9270697929044311, 49.76630989105157], [1.875180285474782, 49.79959173446376], [1.9820494881050392, 49.814807448337426], [2.0783322379338154, 49.78374355767301], [2.2410816004014245, 49.79781735921155], [2.335024036876677, 49.78508792173914], [2.3870747935630385, 49.760049267865874], [2.4757148060711605, 49.74527817530662], [2.517854015909736, 49.717254083916735], [2.500354120852692, 49.723778617049696], [2.4795547031227367, 49.725857537552606], [2.503778489938798, 49.73049348560182], [2.5530301735712944, 49.724539498006735], [2.601350803970173, 49.695727948636005], [2.579775073560347, 49.70003374580948], [2.557431533729691, 49.69778726750032], [2.596890459708127, 49.711220758357626], [2.6716615786885582, 49.6965363568867], [2.717551504675119, 49.64636766404596], [2.710216784356798, 49.64441835116193], [2.651088155794319, 49.67480063134054], [2.5972608252698364, 49.66043981700899], [2.5758583085474904, 49.64027693043158], [2.5810369810756275, 49.649508112317484], [2.6008411324498812, 49.67291539311472], [2.657217255605127, 49.7126170646561], [2.7009317262601695, 49.7240822667472], [2.751004745964278, 49.72451947269265], [2.784933972763145, 49.71395461008561], [2.7454286679513706, 49.70443312691105], [2.706090649534585, 49.66117176482807], [2.698850458509231, 49.62274519190059], [2.6974556146308237, 49.628543729615814], [2.7009781609873014, 49.675101235800874], [2.7441316646245446, 49.73752903002949], [2.794095392834152, 49.75868167394216], [2.803678602973016, 49.756960379158386], [2.7827278165891967, 49.743657663946834], [2.8017639754077424, 49.769972365557095], [2.8532219139868293, 49.80355688946986], [2.9233639651404917, 49.806377877495756], [2.9531322255657853, 49.791544286981946], [2.93206050099129, 49.79202152392134], [2.941384267490062, 49.79633665687701], [2.979831648243126, 49.80284208250707], [3.02582744526815, 49.79678315308074], [3.050142813729121, 49.78311698241445], [3.0079411744675024, 49.779595321717956], [2.961401624697963, 49.73491428390035], [2.985001971743635, 49.78771428391281], [3.1827314867284806, 49.78246567693321]]]]}}]}