{"type": "FeatureCollection", "features": [{"type": "Feature", "properties": {"name": "\u00cele-de-France"}, "geometry": {"type": "MultiPolygon", "coordinates": [[[[2.191349234846075, 48.74400608762719], [2.1268364132334234, 48.85025510210986], [2.1478688427837906, 48.92129734217647], [2.1791601632882545, 48.958381542556886], [2.2329140819596107, 48.995297934939074], [2.3902244827636143, 49.00028630673511], [2.4398941986632257, 48.9845614013733], [2.4707033772556066, 48.95904394043058], [2.462633322883659, 48.963264261761594], [2.5607008767773345, 48.90800723473471], [2.5563928298306893, 48.794347489186016], [2.522902429588727, 48.745869901199306], [2.461453843774963, 48.717481453953866], [2.3179209430246988, 48.71810808896835], [2.253121073851513, 48.73851104462853], [2.191349234846075, 48.74400608762719]]], [[[2.32504575173247, 48.82000145031915], [2.3176898367117458, 48.814126457443116], [2.318439157216209, 48.816866657823525], [2.3267715867665766, 48.855346897890136], [2.2793527651539254, 48.923603912372805], [2.256472926148487, 48.93848295537146], [2.4240881964866245, 48.856018371043795], [2.4175463333572664, 48.766512581310884], [2.4170408769747405, 48.763690722743824], [2.4159605836445976, 48.77195983981703], [2.4203441851931022, 48.73960605005753], [2.3846873288840666, 48.66569797347464], [2.3233486174363756, 48.63228842260898], [2.246397418056679, 48.64120846080565], [2.2125044081702696, 48.67169114587527], [2.1902088344919384, 48.6783782822176], [2.1663801216499174, 48.69619215875765], [2.0922576702092672, 48.750259447192995], [2.0561411174731425, 48.81489823034349], [2.062743192009982, 48.92873028819314], [2.0977986724038438, 48.96645219597823], [2.127953671238138, 48.99590230247096], [2.1697261295663184, 49.01408391824945], [2.182931254673114, 49.01586920914381], [2.179844246757906, 49.01523489861132], [2.2126615030886763, 49.03564897133176], [2.2774969428279976, 49.05524417493395], [2.351807847983418, 49.052538770983354], [2.423796206460805, 48.982526393265275], [2.4153250765206704, 48.88326313789838], [2.3693120275111053, 48.836980608094635], [2.3250237037811847, 48.820569370190675], [2.32504575173247, 48.82000145031915]]], [[[2.170529651219562, 48.87336949244288], [2.238930296218815, 49.00109062980932], [2.2688659724888947, 49.009927391905364], [2.239288923479329, 48.97819086210161], [2.2358717935391947, 48.91408360673472], [2.219638696145835, 48.97068536161208], [2.3312411668108863, 49.07118537290369], [2.4390998910028587, 49.055424133925186], [2.43336055238813, 49.05418282926105], [2.477417468760912, 49.08642558216755], [2.545147695819244, 49.109465705272584], [2.603231824491107, 49.09934278177699], [2.6492169188504597, 49.06692987340943], [2.6788278412256314, 48.989342943263836], [2.6658921731045138, 48.943544118559835], [2.669395192562048, 48.983825228823015], [2.6886327655097584, 48.960405011178295], [2.6913995624535407, 48.904780842683905], [2.6803470725620486, 48.86513619999706], [2.668500387595052, 48.845046965509454], [2.6691832888152174, 48.87737953105692], [2.683299011064085, 48.85785717484678], [2.6479244147760403, 48.724312275825476], [2.5066782582946368, 48.744792042675094], [2.4839196960535084, 48.75490998271845], [2.451943090729158, 48.76153426406809], [2.451720077120998, 48.76158382247962], [2.395534677116341, 48.7748557382384], [2.3577146227443935, 48.79401805956942], [2.343215801336774, 48.809480598626706], [2.3630015172363854, 48.80214769326489], [2.170529651219562, 48.87336949244288]]], [[[2.3452951484959343, 48.86168792368164], [2.3118570571720025, 48.85821782506605], [2.296624496911324, 48.85412702866824], [2.278641753242094, 48.841341101388686], [2.2447927453268863, 48.825676790856186], [2.2228418704336814, 48.82126608175056], [2.2395203287618615, 48.829911697529035], [2.227883327596156, 48.814537804021775], [2.175050526829838, 48.78566638002903], [2.0543797083372506, 48.815271473828076], [2.0232756757949506, 48.92821854464765], [2.0657109472237782, 49.00944780162759], [2.107055284621978, 49.03452233507726], [2.093214259203969, 49.02126837544303], [2.0846861446113922, 49.006252111294714], [2.0790208632235903, 48.979492810032035], [2.09049630417392, 48.93547945481986], [2.1285592930352513, 48.899060674924144], [2.1397622219090087, 48.89373361581788], [2.1263917927731866, 48.89897975393449], [2.1023332706293747, 48.900606018698035], [2.1224864435217436, 48.90842753591025], [2.1399115905110264, 48.92164102678881], [2.109797937791178, 48.878500276803834], [2.03656195422549, 48.84355260644889], [1.9495733460129498, 48.865712444406405], [1.9006422368346823, 48.95091435227479], [1.908839567419185, 48.964105496672396], [1.9220415483828863, 48.928037533036175], [1.9377046515837388, 48.91799543972432], [1.9488053095800155, 48.91447268675289], [1.9541350870771101, 48.914476024309124], [1.847284446141873, 48.904279677460075], [1.777414961911829, 48.9730881975404], [1.7652268308884826, 49.011216677472866], [1.7817044293516668, 48.9891967324554], [1.8009543315215686, 48.97607208435233], [1.8094855750753143, 48.973489189915995], [1.8108961274817805, 48.97300189380874], [1.808879463948812, 48.97276245716426], [1.7410900445447577, 48.948037226496815], [1.6486588257905317, 48.96449632845174], [1.5972954761749685, 49.06931816449632], [1.6069754427070508, 49.03015480393499], [1.6559321838296164, 48.97814257453752], [1.642682982711931, 48.97877960958578], [1.5326222420594837, 49.033734513923186], [1.581937104326715, 49.24141059348792], [1.6799393008581975, 49.329009603231675], [1.7893647181299899, 49.28552113035568], [1.8099887212590768, 49.246861039648174], [1.8062279601748241, 49.25169761680583], [1.7872179466405071, 49.27439925995855], [1.7710035521429845, 49.28367377166086], [1.7642182263284258, 49.28595569482459], [1.765541461140687, 49.28579231046368], [1.8031504053116065, 49.285251678019655], [1.8544640537671966, 49.27424188778059], [1.8861646790499107, 49.271101536361506], [1.8905981413819606, 49.267680969017825], [1.9106275882511232, 49.273472683568684], [1.9602446307495354, 49.27465909231531], [1.964898000921629, 49.27487615921174], [1.963586971400317, 49.2747449859099], [2.0041543753442004, 49.295000808618894], [2.0272086674697674, 49.303920501543104], [2.0664883415581032, 49.311802831698365], [2.112134300284734, 49.305732874534336], [2.144954720297876, 49.289196041831836], [2.150326388366066, 49.28453110412804], [2.1479759515046446, 49.286211149950624], [2.1500391279501336, 49.28375618947637], [2.1553145496450004, 49.285324060448254], [2.1952751161917865, 49.27963986031731], [2.2575869257848793, 49.261119822938134], [2.2568545934148374, 49.26132063776548], [2.2448471469915523, 49.25948285439803], [2.272148808056427, 49.272245281946674], [2.319754028244844, 49.27957282813401], [2.361891556460476, 49.27267808404381], [2.5282898538864003, 49.21072119938735], [2.5045521744641905, 49.2112262449818], [2.537078021057133, 49.21781443580641], [2.5934511669449494, 49.20162331618758], [2.6225249429621065, 49.178162390156515], [2.6286962226029686, 49.17021392456537], [2.6211231305909126, 49.17679953479456], [2.680383910074546, 49.10864842209576], [2.665377517602162, 49.0316649828787], [2.659648917093868, 48.993463450312895], [2.6160905333536886, 48.93210059167395], [2.5725285312390884, 48.910488417832454], [2.5136654476118703, 48.87101317073895], [2.443282108997141, 48.85546786607482], [2.3612968331891135, 48.87345662709631], [2.3452951484959343, 48.86168792368164]]], [[[1.6090776839944216, 49.18200638093814], [1.664259017288069, 49.17761239041422], [1.6935058161703838, 49.174581425462485], [1.7912405572929493, 49.10791319606501], [1.7971425238250316, 49.06149783550367], [1.7613351742094685, 49.12973567154827], [1.7070479554552425, 49.14511877350318], [1.7554065360511881, 49.16548154283574], [1.7943478725182194, 49.17231610619126], [1.8368464249246859, 49.17160881008401], [1.8819396684784315, 49.15894191564767], [1.9192955706483332, 49.1343472675446], [1.9442111691115174, 49.10046132252713], [1.955841038088171, 49.063443802459595], [1.915019553858127, 49.09246032253993], [1.9280069129228898, 49.11276197569087], [1.9709106904199847, 49.113247313247115], [2.0181793484162616, 49.10109056027568], [2.057924451617114, 49.074788466963824], [2.106588432580815, 48.994028503327606], [2.0998457631653173, 48.9687456477252], [2.06704265398705, 49.0275795555936], [2.0122660457745103, 49.04207139355112], [1.9737020622088222, 49.025053723196166], [1.981952409488974, 49.04431497321119], [2.0230215564782568, 49.081940464089755], [2.084174729370625, 49.09977998130197], [2.1641342072268133, 49.09538624606551], [2.1935237780909915, 49.08637238418213], [2.2176467069647483, 49.07812332507585], [2.2642776958260797, 49.03447454518014], [2.2788731367764097, 48.97180718996797], [2.2693418553886073, 48.92942588870528], [2.2513217407960306, 48.898785624556965], [2.225966715378022, 48.87371166492273], [2.2067550527762214, 48.86765019837242], [2.2201863242050495, 48.893201455352354], [2.1954102916627494, 48.95708252617193], [2.2257840393405917, 48.94995302787404], [2.2489308825268575, 48.86811576965651], [2.2397103297907326, 48.885380552807], [2.322440229556626, 48.7477321698843], [2.221414815542196, 48.67636788275572], [2.1661850246827283, 48.66548987817639], [2.1900739820658655, 48.68346062960999], [2.1995879293526293, 48.69748912009622], [2.1866871357318707, 48.65964130247255], [2.1454080491887315, 48.61432435530846], [2.099775357722183, 48.59627278579149], [2.0835886109632575, 48.59579033398848], [2.1071845816493906, 48.60785984966768], [2.1215677172878564, 48.62661981781908], [2.128044467324345, 48.654393312899806], [2.1365477008502496, 48.62276537472279], [2.1341335957085117, 48.5769799022221], [2.115692131810655, 48.52899728688984], [2.075384385000519, 48.48287251981394], [2.018075933282777, 48.459802313351425], [1.9765052958016605, 48.459821055139045], [2.0069206686659755, 48.470772082477], [2.0354767165983865, 48.49879162895594], [2.0185948939850498, 48.442699562373704], [1.9666237700212883, 48.35636804614667], [1.8920316278936873, 48.351083599257485], [1.8702239088998316, 48.34424155357172], [1.8209149867278318, 48.35457854677794], [1.759436329388701, 48.37682100841608], [1.7289154853980206, 48.39397602893776], [1.6999294868251602, 48.41838366650031], [1.678745621108966, 48.44837092666134], [1.668347300486152, 48.471239297761066], [1.6629632516264083, 48.50874305902264], [1.6649606112716446, 48.52770283347381], [1.6649814685620683, 48.520792970571826], [1.6657468830343207, 48.51573946733774], [1.667262308710925, 48.51026538565952], [1.67496019592221, 48.496196121541246], [1.6889246621445015, 48.48141454962757], [1.695602963464654, 48.47675304482064], [1.6681253912474872, 48.488368756097636], [1.634504849019492, 48.51574423157952], [1.6110789935682008, 48.555055251094586], [1.6089860419134854, 48.570161369375064], [1.6280218706736205, 48.54058622293149], [1.6390161698152248, 48.53071058615218], [1.5842547922949446, 48.55657272138682], [1.5522714185831592, 48.57993998151678], [1.5279319195662444, 48.608543894325045], [1.5266725185223027, 48.616196273473285], [1.5477148063399304, 48.5986270385074], [1.5131355861808802, 48.61755863444964], [1.4813702439060723, 48.66601824684161], [1.4759990708449178, 48.71670743909981], [1.4940680840530391, 48.7648933208662], [1.5143831114687163, 48.788997374072366], [1.5260274357090027, 48.79814008133878], [1.5133556829616108, 48.7785289571755], [1.5071403081793622, 48.75854434376016], [1.508289313376811, 48.72917837903658], [1.5367851812209576, 48.67792840450505], [1.521717706866023, 48.67833191633594], [1.491047924222824, 48.70733902516923], [1.4733293098016658, 48.739904877087696], [1.4665862815289386, 48.77409781872474], [1.4661302716900662, 48.79161077922795], [1.4679292396343164, 48.808627607949894], [1.4714649673033935, 48.82517757966598], [1.476981783502152, 48.84141639815467], [1.475863478379401, 48.834300142067455], [1.476624979225082, 48.814874109334], [1.484070229973483, 48.794876923476075], [1.4912343720884556, 48.78423639576191], [1.473363697810007, 48.800720698654], [1.4057316880203667, 48.890376954652574], [1.3923647310633906, 48.92245115358287], [1.3866434375485912, 48.95544814752611], [1.3884749315301597, 48.97655489723989], [1.3999921566181814, 48.926404106015084], [1.4476514165239251, 48.88300143260761], [1.4615356777679394, 48.87899805034055], [1.447675234961963, 48.88033199944208], [1.4058670748307631, 48.894801757365016], [1.3614789048009381, 48.94265103346787], [1.350953059412123, 48.99892548701768], [1.3567326573462188, 49.02745002186328], [1.357981578882543, 49.029557360047825], [1.3557054505336164, 49.0144749632752], [1.3571046451022848, 48.99648755149741], [1.3637909772725727, 48.97643794056522], [1.3458822400569919, 49.01382213426116], [1.3609791021997695, 49.0976311175161], [1.4189430626882917, 49.14228417923158], [1.5563671340278926, 49.165499171267506], [1.6090776839944216, 49.18200638093814]]], [[[1.9853560667172234, 48.65710768664858], [1.958765614999481, 48.64535348018606], [1.9425398681893453, 48.62908871311016], [1.9383804042914883, 48.617976097777905], [1.9373722991497506, 48.604622625277216], [1.928077532675655, 48.65075668710019], [1.9411022827121434, 48.712830182180916], [1.9844014183506096, 48.765734150332314], [2.0297073890367425, 48.78839566601152], [2.0591786422778164, 48.7921092142085], [2.035035950811268, 48.78111164469154], [2.011422864268129, 48.75598669752745], [2.015396070647371, 48.77542087990378], [2.0391920179341345, 48.81474137039002], [2.0810989753172713, 48.84648812182361], [2.195981184457804, 48.87474411724428], [2.2588736037061645, 48.870700421055055], [2.2891511655080614, 48.8521897177824], [2.3225335918297305, 48.83870485412473], [2.333684581943321, 48.82115553919434], [2.2817833825636247, 48.827921577391024], [2.2432506711159337, 48.80710402652536], [2.283066820057138, 48.841329508479966], [2.3809055900979192, 48.834177932712265], [2.405051928832555, 48.81836342735851], [2.3909945056121438, 48.821532627873616], [2.5007408891798715, 48.833577049300445], [2.5617419147357974, 48.81500649870932], [2.6022909644029304, 48.77284319033923], [2.590616091410819, 48.780801279772696], [2.5631745671440522, 48.78916055844518], [2.6283647082158974, 48.7743783713104], [2.6710678576700504, 48.642309686686644], [2.618877630124237, 48.578596775862934], [2.6028987035283486, 48.57018958746253], [2.616936054529368, 48.592669040156494], [2.6199331775737584, 48.56379351826352], [2.609438306527251, 48.524485623603795], [2.5941486564676923, 48.495169756455915], [2.5956449172021414, 48.505851035464936], [2.599535696911732, 48.49132222761544], [2.601089948440182, 48.4594282127231], [2.5835452463600155, 48.49533164826825], [2.6254015125847276, 48.43334346995476], [2.5725799523815556, 48.32795737986986], [2.5368043947490033, 48.310636071932024], [2.467784234996963, 48.260967900848094], [2.486957718896416, 48.29510145791484], [2.4628619578493787, 48.244413694010966], [2.400905323923425, 48.21412807481722], [2.3467379078228463, 48.21139232667778], [2.3013569331660864, 48.22907932259274], [2.338063592163582, 48.23260437593027], [2.36385548485649, 48.24674222142777], [2.3526121620618787, 48.23599219140476], [2.3135055218226483, 48.21585386262421], [2.253773474089864, 48.20562799760135], [2.201167531428318, 48.21810287502263], [2.155643719939728, 48.25614778960285], [2.147212722526175, 48.27325854720318], [2.1624305044253087, 48.25304165656321], [2.1716271006191397, 48.24571614825973], [2.187167600016609, 48.24118786267661], [2.2255096729131276, 48.24264721913841], [2.259670106533012, 48.26225764661857], [2.2612958430878063, 48.26032232616683], [2.240621976221446, 48.23854050024366], [2.2092152151189914, 48.218808333549], [2.1560923631526183, 48.20165164336011], [1.9744320148360313, 48.17773054499633], [1.8973493917840665, 48.21800569778187], [1.8709968047763568, 48.28156336067271], [1.8826995822987858, 48.34061607437691], [1.9135433874118548, 48.37751648357761], [1.9222935240787633, 48.383403556969895], [1.9042949218363665, 48.349785237603356], [1.9085811713138061, 48.28214696672416], [1.9385273863447743, 48.24700894289107], [1.920199387210529, 48.253778331107746], [1.882345437520953, 48.295081220508756], [1.8673277099147714, 48.330610515786915], [1.8666810507365241, 48.34214049952935], [1.8782652662622923, 48.32400934237963], [1.8869872303812534, 48.31638035572203], [1.8760182688357252, 48.32242860579867], [1.841251050678202, 48.35554437242153], [1.8218985579642153, 48.401599563326535], [1.8193532491107143, 48.44611077351124], [1.82210710601495, 48.48001643762629], [1.8623552834016135, 48.59893637104406], [1.9055013313340246, 48.643149917523004], [1.9563507041983397, 48.65880294486095], [1.9853560667172234, 48.65710768664858]]], [[[2.3214657925754483, 48.24140765625014], [2.2956682811035836, 48.35348254208516], [2.318885765003037, 48.394494099151906], [2.435269605250997, 48.48294592806798], [2.458820047618444, 48.49245262013014], [2.4270044874152727, 48.40807253004524], [2.4272007536399847, 48.37060635173175], [2.404470051559818, 48.42281378727691], [2.4017623030882684, 48.461561772384556], [2.3969950827978583, 48.48265096453506], [2.398755343532308, 48.53784824354408], [2.421259693472749, 48.59222637639621], [2.422540822426242, 48.59598448173648], [2.4311639454706317, 48.6667549598435], [2.4735892964716517, 48.722764412537465], [2.5015563698757632, 48.74057122413707], [2.4809181423299496, 48.70430231331335], [2.472614797079007, 48.6786953180151], [2.4753519509188444, 48.73378959678165], [2.5046083240792294, 48.78231568152246], [2.5160620511629554, 48.79195719703182], [2.5053851710655244, 48.776585798662076], [2.499314085321248, 48.7564918672427], [2.4935384456154552, 48.792326407357635], [2.494878988935915, 48.790790825153216], [2.4729587111847824, 48.83870246894308], [2.476805612404948, 48.902083034490545], [2.4947549274379512, 48.939671800002934], [2.4933704375464596, 48.932789157316094], [2.4959612344902413, 48.9067609888217], [2.471164807437952, 48.95727877117698], [2.480513826895486, 49.01860988144016], [2.4788721587743687, 48.99355305673616], [2.4994290811495405, 48.93440212659058], [2.525200175508893, 48.91519321822302], [2.4601938703852047, 48.97284168774408], [2.4731330829061315, 49.0656565496871], [2.478698482397838, 49.10343501712129], [2.5234966037999964, 49.16466918866339], [2.6191069001783243, 49.19755637280116], [2.6884153320263113, 49.18683503635819], [2.7196519688313345, 49.16758254569951], [2.7021863456133204, 49.17341632111575], [2.6761078984813973, 49.17480057509002], [2.7092469501716034, 49.182054891676934], [2.7614638713361583, 49.17145036498113], [2.7806351672273735, 49.159863751098115], [2.771462614822186, 49.1642924797502], [2.7607753876850776, 49.16673002768292], [2.7396470062911416, 49.166501213324054], [2.718331102919533, 49.15967576413705], [2.703917561125258, 49.15025649072664], [2.7136980084927504, 49.159349348674304], [2.754673623138647, 49.180792596992575], [2.792601995130727, 49.18664480018825], [2.8181100542974438, 49.18496268842741], [2.863129579076439, 49.174973314987184], [2.918357192431176, 49.18261241949067], [2.9522673763795626, 49.18893221322405], [3.0007464380557107, 49.17929660321263], [2.9993750748154406, 49.175949398634934], [2.9559017054387384, 49.174031693652836], [2.962982701993333, 49.18010604610464], [2.999047689503347, 49.190597873067645], [3.028631681372141, 49.19306548674684], [3.0340955803031298, 49.19167501259332], [3.0217536117473394, 49.18923831303843], [3.068677156772042, 49.205586406248976], [3.1820400024563718, 49.1842791350911], [3.212335474630775, 49.16450583172168], [3.2345160328535374, 49.14371344115568], [3.2670941748023803, 49.092405855903955], [3.2753488564097974, 49.038362995617035], [3.2626779913992343, 48.99318101655694], [3.256203914003038, 48.98217988397418], [3.263764077991494, 49.00483831399921], [3.2636401169539844, 49.03942665992951], [3.2510556966639856, 49.067709080852225], [3.2345647232645245, 49.08537151927479], [3.355824113179969, 49.01324640280814], [3.323671811719253, 49.01709233917833], [3.324258339699933, 49.02083658908718], [3.3782984815848742, 49.02231586470478], [3.431671956545339, 48.99338483749071], [3.457778146515951, 48.95737120637296], [3.4694637622852427, 48.918537625826175], [3.471111715224995, 48.9058615158326], [3.463098748289792, 48.926975608676116], [3.444285524290837, 48.94985456068074], [3.4543512118785644, 48.94626406406989], [3.45329996002387, 48.946734524666496], [3.4490087543428443, 48.946943599485365], [3.5490573491821977, 48.92036423090685], [3.568917111145329, 48.793737868535274], [3.54521140208529, 48.755665216872394], [3.505753306092602, 48.72632789832602], [3.463039299075156, 48.71577892249364], [3.431740579560042, 48.71645450325796], [3.466741282778077, 48.73126378269213], [3.5062346433697873, 48.814110425540775], [3.4745788550586694, 48.88040294869413], [3.506020947976547, 48.853875170468534], [3.5185068991782824, 48.753470244934626], [3.4735671945765345, 48.70178328369406], [3.4686393433219007, 48.69997748411656], [3.4836888247059905, 48.717324289864905], [3.49399401834256, 48.746619709001955], [3.4904314237064247, 48.78538931050999], [3.466690474172686, 48.82298570832603], [3.429011679848188, 48.84549806795413], [3.4049261475308112, 48.849582408675154], [3.4145222566961437, 48.85066342249452], [3.449097229189032, 48.84617380378564], [3.4826220312534546, 48.82922002757547], [3.5020617302606483, 48.81094685627216], [3.5010200735254458, 48.81023966692744], [3.488045636481953, 48.82074024236565], [3.507729803143988, 48.8090662010639], [3.5366985889354003, 48.77631075013226], [3.5487174464599334, 48.74969717607531], [3.5506084294827094, 48.74273349878337], [3.5581118688808413, 48.72225891293094], [3.562929783673623, 48.67659559983478], [3.554235151867457, 48.650194275782084], [3.553299515391888, 48.6740418974316], [3.53134997690927, 48.711741283178085], [3.4858561870344205, 48.73706533185738], [3.4626093298514737, 48.73823198567045], [3.4839436660026433, 48.74305278923112], [3.515138078405769, 48.74266941777413], [3.5616719890542132, 48.72621510085359], [3.586589936849758, 48.70362102454652], [3.6372911578842864, 48.60332507734177], [3.5555055569487926, 48.50922214958519], [3.5598507706606637, 48.514633763611386], [3.557576000405427, 48.50595683613325], [3.533033258743024, 48.470110439817816], [3.490391625869853, 48.44121774456476], [3.451018140126663, 48.4312406303541], [3.4364996887981367, 48.43077181580841], [3.4437144982997627, 48.43296514095741], [3.4818395365370156, 48.45962621984809], [3.5029386233337827, 48.53421163879109], [3.4849919874054076, 48.577640543655505], [3.5052264799064607, 48.55339862809806], [3.5203102488140883, 48.49032873794808], [3.4898921153317892, 48.42375016021643], [3.46050660633814, 48.404128559332825], [3.480328704862886, 48.429412050921655], [3.4873149596123274, 48.48862397291447], [3.492424156180118, 48.49280572152973], [3.5011095993401913, 48.449050726913626], [3.495876519729154, 48.41550802785352], [3.4890544323932273, 48.399737477295425], [3.491620145005773, 48.42735960865677], [3.4912233137466804, 48.38322571731072], [3.439160303630499, 48.32111686397358], [3.4124360150998396, 48.29244430946562], [3.3591189766989156, 48.27228594064031], [3.321332557754642, 48.27325367245586], [3.3002928238139195, 48.278419922445465], [3.3087364710097265, 48.27787704532231], [3.210179106254868, 48.266239738852995], [3.17525770951688, 48.268040237518264], [3.1636000206209736, 48.27124126575007], [3.1334959226307824, 48.27238816205688], [3.138135919296828, 48.27284257969789], [3.1444919553416324, 48.274558680126155], [3.1529532932978457, 48.27818203487075], [3.1337936518624527, 48.26828620123122], [3.0997865343980195, 48.26114729660994], [3.0662639245998196, 48.2646596886458], [3.09405360255844, 48.27689376325187], [3.114660657622386, 48.298519746503466], [3.1243774877101225, 48.31702798500504], [3.121500121435015, 48.306187662734985], [3.1090828001486264, 48.279245986581934], [3.0992803854341937, 48.26662858246217], [3.1054444756758026, 48.2769291394493], [3.1105417355967377, 48.29132051728414], [3.112240917508767, 48.30176696771834], [3.1120808996228817, 48.30882731235223], [3.110507340914548, 48.318380197370864], [3.1045856326896857, 48.333307650953046], [3.097276827601803, 48.34489660331251], [3.107143090537854, 48.33368546141963], [3.1294747393725353, 48.27780638824894], [3.1160669683022237, 48.214847947780804], [3.097506904023836, 48.18925837229844], [3.0909208340798777, 48.18288857882988], [3.0971569638879393, 48.19048606912306], [3.0887167251302685, 48.177411802416024], [3.0702655518831756, 48.1559249964689], [3.034723732478217, 48.13155859063941], [2.995845204229897, 48.117916320873036], [3.0018657896120087, 48.121512116485086], [3.01533860342117, 48.133144515957014], [3.026246494398529, 48.14918119132373], [3.0288614307138007, 48.154895908628504], [3.026667946429649, 48.14415218970994], [2.9939447035040816, 48.08288582051303], [2.8393890013645646, 48.03250540144733], [2.8058295752140623, 48.030952200010034], [2.7212148923337196, 48.06624553804617], [2.698011748104481, 48.16298414224126], [2.715538230631352, 48.20084732723082], [2.7035869873157465, 48.15981593314293], [2.737474485249315, 48.07903784911811], [2.7780623345744604, 48.06048824424539], [2.7764834764178086, 48.059459483918175], [2.785213822076331, 48.0625177401964], [2.796773583955414, 48.068820911239406], [2.7921927786126752, 48.06422395825035], [2.7685047134529803, 48.047259195632385], [2.7281716730647787, 48.02989808355169], [2.6921619637785703, 48.022863591961205], [2.5493224473688225, 48.030117744717565], [2.545610545800436, 48.02974534673213], [2.5064396222329934, 48.02228335141909], [2.4734737668432687, 48.02201158383128], [2.436258932616767, 48.029100455700004], [2.404788216617674, 48.04376835923129], [2.3656666291284756, 48.08124130236321], [2.3493071734604785, 48.14134152465376], [2.3614629226612904, 48.191479380486314], [2.3933336338934534, 48.2305439427631], [2.4372464104935907, 48.252870148107334], [2.4775640360823, 48.25677901721107], [2.4963465724868468, 48.252920746508764], [2.465523198880693, 48.24684890876838], [2.4265270846672924, 48.2159158309878], [2.40926821787724, 48.15369111181973], [2.4192745655880943, 48.119023273669995], [2.411211007660516, 48.131762188177696], [2.400941993177347, 48.164882770962926], [2.407638899741655, 48.21907195924135], [2.4251522890242434, 48.24470381766541], [2.415338874008757, 48.219568878238746], [2.419179986122379, 48.17390811806568], [2.4385662054352433, 48.14162141095631], [2.443214402985091, 48.138090145651006], [2.3746363511078115, 48.171552150060236], [2.352431109176738, 48.19599877296341], [2.3433117548349487, 48.21203209688932], [2.3303341540669704, 48.24802593006325], [2.338045766431193, 48.236514532390245], [2.368490701338825, 48.21943296793059], [2.3214657925754483, 48.24140765625014]]], [[[2.424607616526926, 48.94647843820528], [2.495346909270842, 48.956767735931905], [2.546162303946492, 48.94497801728155], [2.602593741705363, 48.9202919573249], [2.6777557745675833, 48.859546242195606], [2.6986399146787523, 48.7400841327573], [2.6821088289344757, 48.682944201337925], [2.6552599488370445, 48.64834680296818], [2.649311675920771, 48.644254318477536], [2.667010049081156, 48.676630403218354], [2.648624993168687, 48.62802889683911], [2.5461854328559475, 48.58988344155481], [2.491717908589181, 48.6069647202273], [2.45802503559707, 48.63432480966077], [2.4549800852642023, 48.64588550129068], [2.488517110820129, 48.63395095069956], [2.3864894943878565, 48.62158337212639], [2.3361780711674447, 48.63059657264149], [2.2996364099020807, 48.65143406728774], [2.2510610743582538, 48.67699587114434], [2.217075416355402, 48.750872160182965], [2.220785123025259, 48.802209277256175], [2.232497666642734, 48.84238741868912], [2.281503780598416, 48.90345161262151], [2.4252781562250374, 48.914182546046135], [2.3916035704112732, 48.896736098800694], [2.3740211701693106, 48.87644851081398], [2.424607616526926, 48.94647843820528]]]]}}]}