{"type": "FeatureCollection", "features": [{"type": "Feature", "properties": {"name": "Martinique"}, "geometry": {"type": "MultiPolygon", "coordinates": [[[[-60.72685249773671, 14.407050448597355], [-60.75152373222385, 14.386411512965482], [-60.74838233892453, 14.37728725620975], [-60.78413480288625, 14.334943175566377], [-60.83219045355167, 14.31235249641677], [-60.88659608917354, 14.309396475114298], [-60.95735103702527, 14.34698979176721], [-60.98603491672715, 14.440067663611126], [-60.9427591297249, 14.516440399510692], [-60.90841812924704, 14.533588428049447], [-60.944143992082786, 14.500528470481171], [-60.955261514334026, 14.435339315702697], [-60.89754529706321, 14.380284004674268], [-60.8376338843454, 14.381021765016067], [-60.8744477279467, 14.363720647614045], [-60.989634952370274, 14.396411769039013], [-60.992686696659526, 14.411172222968416], [-60.92110533119744, 14.373380749636278], [-60.94570669251101, 14.368754324544756], [-61.00527307722882, 14.376266435510631], [-60.99586342588365, 14.37739352808012], [-61.020402047262614, 14.367611128638993], [-61.079364966587505, 14.363648071314406], [-61.135913302332355, 14.39187931929399], [-61.187628741365934, 14.468788261235117], [-61.190444521139895, 14.49248688705346], [-61.17395986730227, 14.450429427656948], [-61.15096813104646, 14.42748940651488], [-61.20481823674109, 14.502156889908871], [-61.13670568339773, 14.62591183842297], [-61.10860163801369, 14.639730152364285], [-61.03324285888468, 14.66444879141572], [-60.97485454405528, 14.631033364990516], [-61.02081773146407, 14.645267318204262], [-61.06962557873704, 14.625385312676615], [-61.09599659667049, 14.563969463225583], [-61.08420840321484, 14.518404451900647], [-61.09199758164658, 14.529192195020839], [-61.109714328559306, 14.565878750168505], [-61.069719863594855, 14.528136543003512], [-61.006055059391734, 14.511080659655937], [-61.032488009557596, 14.50607072653686], [-61.056557451768214, 14.505155165601153], [-61.065644628877905, 14.505945546363296], [-61.09405552525599, 14.50497191212837], [-61.14000827683805, 14.518427505629809], [-61.176506717096345, 14.55102323299545], [-61.184854730467436, 14.565927868809206], [-61.171880777498764, 14.551338303861238], [-61.20358320987513, 14.571625663811814], [-61.2412731349528, 14.609270174130593], [-61.263899408147914, 14.658724916273343], [-61.265002947227174, 14.666451104712628], [-61.258254035162444, 14.64897220683047], [-61.251444013487266, 14.638500612560847], [-61.25954271245934, 14.648151536200832], [-61.28086963232975, 14.70073065425181], [-61.27370479776084, 14.754707234267903], [-61.26969050068803, 14.762835899652975], [-61.27471367939562, 14.736903202200665], [-61.27167880852786, 14.71242372934249], [-61.26760620009659, 14.703149425362994], [-61.26615384161097, 14.700900672844597], [-61.29876777677226, 14.735029664030462], [-61.32000512233492, 14.773154263777942], [-61.328830068108154, 14.822398714605063], [-61.31939429919024, 14.871741480148952], [-61.29628996593018, 14.910526434071839], [-61.26850919486035, 14.935964934003527], [-61.196702369549634, 14.973002260097866], [-61.121424254963685, 14.975846594607368], [-61.060130735752445, 14.957028692211674], [-61.01141356512756, 14.927253901463677], [-60.97200431332405, 14.910190573572823], [-60.92996310517299, 14.880507679964909], [-60.9058618767957, 14.842674292555948], [-60.904978036155455, 14.83747344715024], [-60.93246179247506, 14.869249907887239], [-60.91586473602202, 14.86229028535907], [-60.93999702707366, 14.847651097747892], [-60.99997616908158, 14.846124220979732], [-60.96073191589855, 14.865133934666723], [-60.91601134638586, 14.876260400867706], [-60.78516570522862, 14.811025771231494], [-60.82814623409914, 14.690281766432124], [-60.82451053939464, 14.694386060380923], [-60.79636147335928, 14.7498095210571], [-60.795275214596096, 14.73606250561776], [-60.9255149320185, 14.63696385342977], [-60.946543851726545, 14.657656801502425], [-60.8490451464045, 14.697283353959284], [-60.83671231084863, 14.728574403323394], [-60.88417479233198, 14.795348995411219], [-60.94372708769931, 14.811162105725412], [-60.88956971123578, 14.807817212021785], [-60.85028604014453, 14.786720836454599], [-60.80868439951473, 14.686226149834033], [-60.835645699800764, 14.67376738105774], [-60.82834971221458, 14.665419575786618], [-60.8492381586448, 14.631491508055671], [-60.86274825621219, 14.73284559547302], [-60.95841848690081, 14.759052576611627], [-60.945940483279806, 14.771522843896715], [-60.78797152366589, 14.645222267308244], [-60.86853392932548, 14.56320893939532], [-60.85099956552334, 14.569922675040187], [-60.857005225145706, 14.566446002438838], [-60.815435764096314, 14.614238011612427], [-60.81763307697768, 14.693756583502985], [-60.83291390686451, 14.710452540123628], [-60.80280960485147, 14.690686114385707], [-60.776758399449534, 14.649989183848707], [-60.77611422288749, 14.64524102525914], [-60.80553783985352, 14.682066419270743], [-60.822727152075714, 14.69359875410668], [-60.77859812044983, 14.667725382308964], [-60.748063490575554, 14.613328758521432], [-60.744325755017016, 14.577664502069887], [-60.79018142413235, 14.654735593666755], [-60.77019782699342, 14.657102474707713], [-60.7371515398219, 14.549553990868164], [-60.737095805834585, 14.564613934300253], [-60.743605310507746, 14.585825273527496], [-60.727275911123215, 14.508007681609067], [-60.770246003004836, 14.447597488951907], [-60.751507514444135, 14.466974632323792], [-60.74997460100913, 14.468665216637712], [-60.74157411633911, 14.541706600395761], [-60.75234088419803, 14.5788276116925], [-60.723936746396674, 14.52506646367085], [-60.72223030755759, 14.513868801072134], [-60.713197678877016, 14.492166469634917], [-60.72685249773671, 14.407050448597355]]]]}}]}