{"type": "FeatureCollection", "features": [{"type": "Feature", "properties": {"name": "Mayotte"}, "geometry": {"type": "MultiPolygon", "coordinates": [[[[45.16461709233516, -12.741587016212737], [45.210489764260046, -12.672913897683316], [45.309231730389754, -12.64704368906129], [45.38622582476686, -12.735189565459125], [45.390817923347754, -12.777023215606073], [45.385193063786026, -12.813550372482363], [45.340257839567826, -12.886542060011504], [45.21696921885866, -12.885780766836954], [45.16461709233516, -12.741587016212737]]], [[[45.24273047668047, -12.632178479787173], [45.289411107966, -12.664448487157989], [45.320840776916604, -12.717899858047904], [45.324297522483484, -12.770904915576414], [45.311778789624405, -12.818477177640125], [45.26566335711289, -12.884354056872208], [45.2765422529777, -12.863857011623113], [45.28496971168491, -12.801621813214204], [45.267949001270395, -12.771939609642065], [45.304287437521225, -12.810674237275702], [45.306106350821146, -12.896069034939307], [45.290761348426955, -12.928853001621132], [45.28850809015617, -12.93180620871655], [45.27649376135352, -12.957909168018103], [45.2619411457803, -12.9739450137269], [45.26710205320337, -12.929330443482531], [45.286234949229225, -12.963630439199354], [45.264654518006104, -13.032490971742826], [45.24857271071972, -13.051971029784632], [45.229240816090915, -13.067742974681886], [45.13947888170445, -13.08564661357194], [45.11617341104615, -13.06853304104873], [45.19020235528301, -13.072526150517424], [45.18665963345678, -13.07635617086265], [45.132487133545844, -13.089187951124229], [45.078323920080614, -13.076877665002042], [45.06376268123273, -13.06792458821084], [45.10670249018593, -13.078122999968995], [45.038983312841516, -13.06367596502884], [44.99961140207555, -12.982862418764833], [45.02207787301565, -13.02714911663931], [45.06752124506878, -13.052174583593104], [45.00281488179259, -13.028785344972311], [44.98583770954497, -12.895407133675603], [45.00694443581844, -12.882339417541543], [44.99226395289395, -12.944313808904663], [45.011842899388874, -12.980309858837167], [44.96718976440914, -12.928763151263798], [44.99163048402184, -12.825515541184721], [45.04106431578471, -12.793571976734418], [45.10642340807005, -12.789931619262312], [45.15450640015614, -12.814549681100806], [45.17175403912219, -12.83473974965988], [45.128379211569595, -12.821547297808252], [45.05442514379056, -12.856526879828964], [45.03659638392203, -12.908622514387769], [45.04073079518445, -12.92858882034921], [45.04456792715609, -12.936013163445013], [45.044054968958974, -12.935531234336064], [44.985206207855676, -12.82352708836573], [45.07416554091878, -12.736308971954026], [45.0303582568318, -12.765676904177933], [45.00905201248582, -12.855759930554731], [45.00853316749369, -12.86083948159004], [44.996331363876735, -12.823131146175324], [44.99254201578406, -12.79227743489359], [45.005115959498994, -12.816858288177546], [45.03447642913138, -12.843441961356433], [45.02508431884948, -12.840817448157582], [44.989553549308766, -12.817570041853694], [44.96444541999761, -12.786914267803539], [44.95017862103544, -12.756422921455314], [44.94360919353198, -12.725170994714402], [44.94899685158131, -12.662938805363206], [45.10106894733081, -12.547756458360183], [45.183745893277, -12.607999310707696], [45.19038721567421, -12.623597162466522], [45.183492947090535, -12.711317559661548], [45.12823380644046, -12.75538467481888], [45.142713256446584, -12.748352699535944], [45.177845811938894, -12.633131283520685], [45.11467838279945, -12.570052740256179], [45.16843267611705, -12.602802856611367], [45.17791076744716, -12.616171290706369], [45.16671513978071, -12.602626976982185], [45.18124626233005, -12.615023976145146], [45.19791083015083, -12.635065182131564], [45.18145100631521, -12.624546455513133], [45.16367265223974, -12.618809020118364], [45.19759419882328, -12.618910570616034], [45.24273047668047, -12.632178479787173]]]]}}]}