{"type": "FeatureCollection", "features": [{"type": "Feature", "properties": {"name": "Normandie"}, "geometry": {"type": "MultiPolygon", "coordinates": [[[[-1.6796116584916607, 48.68551930231515], [-1.5826295302981452, 48.74321310935343], [-1.5036462398440875, 48.736413333390196], [-1.3882472983951988, 48.75229138254941], [-1.4423645938902998, 48.69460828165094], [-1.4273335206037072, 48.5770929829148], [-1.414110189134248, 48.570201304266924], [-1.3668937043742082, 48.595435945068594], [-1.344303704158799, 48.62212091821366], [-1.3912490975208205, 48.575916003837285], [-1.4803574374932642, 48.5699608936245], [-1.5398871033140085, 48.63316854180443], [-1.5406436186369126, 48.63856761692897], [-1.5243032696605283, 48.61202356892718], [-1.4960567219118694, 48.591877957286464], [-1.519770037250056, 48.594595500405255], [-1.5617498588921084, 48.61481643098746], [-1.594233349573062, 48.65103158095302], [-1.5934953156173184, 48.661392382816594], [-1.630746637565766, 48.683487960537924], [-1.6604582972795323, 48.75287174022117], [-1.6621065465482343, 48.788862215835785], [-1.658228608992929, 48.78174897280703], [-1.630377471153902, 48.752135296720176], [-1.6793612277508658, 48.77745544478629], [-1.6833256435118995, 48.90882657848178], [-1.6371995798635162, 48.94125583852547], [-1.6554462474945337, 48.92651049348657], [-1.6659478199288413, 48.908054156737904], [-1.6568143942280962, 48.95859570806958], [-1.5677051768043353, 49.03174732164946], [-1.5651303107645747, 49.02240641678526], [-1.6390596236616273, 48.96232423000503], [-1.6369029542065499, 48.91261353667201], [-1.5955777067099277, 48.86226972576501], [-1.6126290864578714, 48.86741203083661], [-1.6607713057561428, 48.93631952944476], [-1.647846512672122, 49.044747123614], [-1.6140904320840521, 49.1033599836987], [-1.5343764005747937, 49.13512122245695], [-1.5672100357362806, 49.108093696003735], [-1.5886412731718214, 48.974589446766636], [-1.5425175302656202, 48.94095305058431], [-1.5316356527469377, 48.941428524096786], [-1.5017368522458932, 48.95814809462476], [-1.4917478704504623, 48.96392285405204], [-1.5679080077459473, 48.913839134817444], [-1.659846576824867, 48.95097545743792], [-1.6819697614475067, 48.982235624914], [-1.695423006386954, 49.021184072625644], [-1.6952377834659773, 49.07306984659125], [-1.689097214761206, 49.10208030067521], [-1.6763870346434746, 49.03286807267658], [-1.6551299770861043, 48.99837507063166], [-1.705318247756747, 49.06551057890491], [-1.7052529447299993, 49.12487940684537], [-1.6939391059197977, 49.15707881185109], [-1.674124836628079, 49.190828100688215], [-1.6435175822899284, 49.21843352592977], [-1.66946332729598, 49.14576224561039], [-1.5790903988559475, 49.04988406877231], [-1.5241401558260117, 49.068482442350636], [-1.605312704211186, 49.044824069222024], [-1.6892517938293758, 49.11898688184624], [-1.7006039923735103, 49.150630700883724], [-1.707624681802001, 49.18256668930055], [-1.7060332268398788, 49.245188056351026], [-1.647637550953478, 49.31471863124607], [-1.577283770781271, 49.32600603238998], [-1.6120699744415334, 49.29642626305098], [-1.6256866712834226, 49.16202076581344], [-1.5944758788168114, 49.13283342031188], [-1.611459847134662, 49.13917663428487], [-1.5619575125989102, 49.154640487685235], [-1.5987870181171417, 49.1227120984915], [-1.7189984901103144, 49.169519719220965], [-1.736022993926796, 49.20697593230107], [-1.7718170710511152, 49.28316026418232], [-1.7167683383657801, 49.370407988811436], [-1.7015104834536423, 49.3781518558298], [-1.7579182318334508, 49.29495097784584], [-1.7441352237443213, 49.22042125637492], [-1.779239512594152, 49.253749230840654], [-1.7913862750651683, 49.38227682957607], [-1.756897678118655, 49.39987967811866], [-1.7822526048291114, 49.30757991911841], [-1.7474163996808567, 49.26829411845395], [-1.6529540525543158, 49.27150374228725], [-1.678674997737723, 49.24526251920582], [-1.7820952904086478, 49.25899101962812], [-1.8033962322235406, 49.27454697923818], [-1.8668814448805227, 49.32948530615449], [-1.862825568787538, 49.420674827212764], [-1.8527846665513656, 49.43764681222613], [-1.8548634289390855, 49.33423423092337], [-1.7598420028460289, 49.28399784980123], [-1.7774714209114, 49.27919244449745], [-1.8340229836863182, 49.280636755004714], [-1.8994092515857166, 49.327856977469054], [-1.9193836536666002, 49.39071036828122], [-1.9157361623292495, 49.433978923844194], [-1.9139220578277558, 49.42275679730845], [-1.9075783287160077, 49.404874437151456], [-1.9038683018092626, 49.39884410393172], [-1.9268373782042478, 49.42950748245068], [-1.937480857223943, 49.46062504596479], [-1.936293836199529, 49.45801124579735], [-1.92719608608551, 49.43850793935277], [-1.9217834267146428, 49.43116138321151], [-1.9485358278642124, 49.452656648963334], [-1.983567672206542, 49.516077200840485], [-1.9530914597108724, 49.61136686073441], [-1.919898339838736, 49.63339060951632], [-1.9375284534858899, 49.60653705117629], [-1.9390246548694812, 49.609471211300104], [-1.9364115377397066, 49.59508580743778], [-1.9318404665064222, 49.58114287302032], [-1.9389783581067523, 49.59071606510624], [-1.9361003690887018, 49.58921622113989], [-1.9079167989062633, 49.56936434342656], [-1.9213363292002374, 49.56780575675385], [-2.0339505794565733, 49.63107208676166], [-2.0371617685603782, 49.71145468963416], [-2.037672978051778, 49.73581738849279], [-1.9890911046758932, 49.80835030430434], [-1.9014744456010453, 49.82614900903222], [-1.8663018960332578, 49.818774127828384], [-1.848605164981603, 49.8100540718012], [-1.8632600453316674, 49.81263240093389], [-1.8310827903410383, 49.8150503464665], [-1.7821234778189268, 49.80080223802264], [-1.7404786425976155, 49.76248795516917], [-1.7344962289911037, 49.746608634269094], [-1.7684195745476285, 49.77933140386411], [-1.8084139817189808, 49.79068236330275], [-1.8024231084958071, 49.7920722931547], [-1.7804973556407417, 49.790425462317515], [-1.7581347025853769, 49.78544692284686], [-1.6919319432743727, 49.77890253961816], [-1.6245307277574592, 49.763156791089614], [-1.5562142973430526, 49.743561839304995], [-1.5176432847560963, 49.67579610041407], [-1.5199310086520978, 49.68352396919009], [-1.549691119357729, 49.728892595190516], [-1.6036901355915227, 49.75000632346777], [-1.6389085147691473, 49.74323071451703], [-1.6238774609771653, 49.753642015330165], [-1.5776378165109903, 49.76417903617399], [-1.5435332778455095, 49.76146039649358], [-1.5267157088442114, 49.756841966653916], [-1.541596598096712, 49.75658667949586], [-1.5525378062022746, 49.75371833901257], [-1.5556623985775315, 49.752379554593325], [-1.5260365543888175, 49.7779616259195], [-1.488179753095785, 49.79680087991458], [-1.4225659069347425, 49.81071707679842], [-1.3884680243563003, 49.81267487698319], [-1.2480802177359505, 49.79573501856272], [-1.1979943297094757, 49.77144691194747], [-1.166866801239814, 49.72693028818005], [-1.164461436872948, 49.71602652885218], [-1.1417204815023263, 49.68390543477433], [-1.1373866794137524, 49.581308841909504], [-1.1822323276043907, 49.54192440192003], [-1.1632349373789754, 49.569637149609086], [-1.1727157088314248, 49.54464908320587], [-1.2241715042437424, 49.497545554801754], [-1.2736912353606031, 49.489720934862646], [-1.2514193384576522, 49.49681157797385], [-1.2163538048882443, 49.52920492812716], [-1.2079653631620761, 49.57645985223716], [-1.2152311547334755, 49.60050205277739], [-1.1958674885605338, 49.57985934726585], [-1.1844090600031336, 49.556740250296095], [-1.1103622235542294, 49.496588323699335], [-1.082140179694943, 49.450564792329196], [-1.0722373330960093, 49.3922525760382], [-1.0802817420945319, 49.34811588324763], [-1.0975149372409532, 49.31619248113811], [-1.1032391532258632, 49.30947713725787], [-1.0860030942628351, 49.3535188196769], [-1.1267647952952904, 49.439550745278545], [-1.1984240509276187, 49.453926446905065], [-1.1878925756954335, 49.45838950219028], [-1.131416913520675, 49.46061461172597], [-1.0816878475707632, 49.43717181990892], [-1.0801215126002306, 49.43410568074774], [-1.11363504628598, 49.445017294009276], [-1.0557714649589913, 49.423867568491495], [-1.0239098354184122, 49.2934463690009], [-1.04612622798004, 49.25821533891873], [-1.03725285415563, 49.30438152928458], [-1.0510858379299974, 49.345911178562204], [-0.9767921520514153, 49.29207345830858], [-0.9929453028906429, 49.29564740413282], [-0.9395348627013286, 49.30968190687434], [-0.8975538695959873, 49.30955991171867], [-0.8380147624657831, 49.27593449071408], [-0.8104015352850304, 49.2131915855816], [-0.815862034958271, 49.16383477785728], [-0.8254489393273415, 49.148844279510506], [-0.8243611316459287, 49.1824290163846], [-0.8330217039391233, 49.20528334530537], [-0.804599308053528, 49.17217420642866], [-0.7892003389296602, 49.13935936774583], [-0.7769714160381606, 49.07561279043282], [-0.7690567630712308, 48.99114045764329], [-0.846508306511779, 48.92735053959675], [-0.8957952390517436, 48.88750423505014], [-0.9523142093250391, 48.85822336035654], [-1.0006070105377902, 48.85137413263547], [-1.0312228360585018, 48.85965525495498], [-0.9928055179871029, 48.87598202889069], [-0.9683758868468686, 48.913502610037426], [-0.9734373281073673, 48.968837629325435], [-0.9973370905147988, 48.999799007281595], [-0.9834055839152507, 48.99240282812492], [-0.9418558095169418, 48.93693068838193], [-0.9468593876566902, 48.85662108646692], [-0.9835167632681117, 48.81103790950803], [-1.019758776372444, 48.78920294996179], [-1.059629530636512, 48.77780978862307], [-1.0675292431910293, 48.772881303935094], [-1.05501284548125, 48.790399320073384], [-1.0643336777593717, 48.878208229180096], [-1.0700704793206663, 48.90780639543638], [-1.0163891525044741, 48.863211581775744], [-1.009692864417326, 48.83922775678444], [-1.04284233314924, 48.87417951596828], [-1.0310651654574614, 48.87418869980472], [-1.006146580187182, 48.87320968518602], [-0.9594498796802977, 48.8829673210792], [-0.8717300245372099, 48.86905796032103], [-0.7573201627487108, 48.80722143499652], [-0.766918695005044, 48.79405019588751], [-0.7937922654813243, 48.823321155854735], [-0.6373387448782328, 48.69636773083181], [-0.6890456623042275, 48.59705632975686], [-0.6732748967682004, 48.624129355228526], [-0.6691616448841996, 48.66990695742912], [-0.6629029587120865, 48.66164321666739], [-0.6522184700347357, 48.60602002284061], [-0.6716618709544224, 48.54896274847309], [-0.6836067013671502, 48.5341747903959], [-0.7155587772201083, 48.48831356040796], [-0.7769831573921052, 48.4484932336576], [-0.8167748558841649, 48.41297047048234], [-0.9072072371536783, 48.39723379465559], [-0.9252056244008027, 48.40077784317657], [-0.9402906750707775, 48.40354756701998], [-0.9530077597585999, 48.40856845581617], [-0.942642972734448, 48.407533227534906], [-0.9214319322522391, 48.40895321639059], [-0.9064534909110176, 48.41505181411828], [-0.9118555972674884, 48.411662355287824], [-0.9383078443494441, 48.40223693162201], [-0.9854766666267141, 48.39371732378913], [-1.0339921451359246, 48.39324707427995], [-1.0994068116316966, 48.400776480976575], [-1.1452993400532465, 48.41514955702689], [-1.1557625400234874, 48.42218540974759], [-1.2356614728379822, 48.436065602152], [-1.2471124991971787, 48.437012502818256], [-1.2304755272168282, 48.44190275014635], [-1.2077157007208277, 48.454483992436785], [-1.2190580051883009, 48.44225000959472], [-1.2370261897356332, 48.42738333156495], [-1.2594786425755264, 48.4140920117551], [-1.2817985774551042, 48.405383606609696], [-1.3034347807930382, 48.40033874363713], [-1.2975550851274968, 48.40286302601922], [-1.3184749853263311, 48.3892233096698], [-1.3494782725529024, 48.37572968238498], [-1.3972143912437327, 48.36408913731206], [-1.4422231163853378, 48.36331211920459], [-1.4843791086115736, 48.3725047545875], [-1.5146654445278882, 48.389332094624486], [-1.5174556692426617, 48.392056617739755], [-1.541372408289141, 48.402958205270906], [-1.5666939579292039, 48.42154567730083], [-1.6099007156699152, 48.47228370239017], [-1.6270579179527678, 48.500551112233715], [-1.6355474889093782, 48.52225366133995], [-1.6375078934603768, 48.53116206136285], [-1.6289916311472081, 48.514281648245216], [-1.6325755510686883, 48.517763641739755], [-1.6403866584111513, 48.53268891516343], [-1.6538704216738882, 48.549089616781636], [-1.6689071151748323, 48.57384845205405], [-1.6767102676138435, 48.59141316199482], [-1.6778678752621865, 48.5953158570229], [-1.6772323203395991, 48.59365135746971], [-1.6796116584916607, 48.68551930231515]]], [[[-1.1964267949544, 49.409197954472255], [-1.1802696722074075, 49.41301617630068], [-1.19542302702401, 49.31666788020333], [-1.2125675540146017, 49.35039942972], [-1.181446832546599, 49.44549923429599], [-1.1339231629545954, 49.48118227204798], [-1.085207940495656, 49.49595355812099], [-0.9264991925182068, 49.491305455857365], [-0.8079346930531076, 49.46168490862858], [-0.6390597496840043, 49.4551719773438], [-0.5952025655093024, 49.446578197680616], [-0.5974808195578749, 49.444891420042595], [-0.5567041994328801, 49.45847674887596], [-0.5010917153309494, 49.45296653195849], [-0.46536556465705686, 49.44175861743079], [-0.39798300562691274, 49.441893076351256], [-0.3607156897758154, 49.43246874796413], [-0.33585637088417636, 49.42114147149656], [-0.28690392183936914, 49.41383585195518], [-0.2274177152149863, 49.379780828225655], [-0.22795899236091585, 49.389319564575366], [-0.05644523145484465, 49.4174664444654], [-0.027204063106724755, 49.426240591863554], [0.006048542468855861, 49.444362438673004], [0.030067959949073617, 49.448871883338256], [0.011800308712619369, 49.439166759463944], [0.03797753086889616, 49.46520954970257], [0.13332204366681993, 49.51087794081063], [0.2722296703059275, 49.53254261051304], [0.34700773383090144, 49.51967439348638], [0.3918252745096087, 49.45765288886848], [0.40329769362953244, 49.40354971221047], [0.4032576668572326, 49.37492809296763], [0.40637155540174735, 49.36237331047588], [0.40758803107534064, 49.33320741981395], [0.4047308280538996, 49.31415851672763], [0.4004516884797655, 49.34283603656647], [0.39303439335983226, 49.360777113153986], [0.37754431709386843, 49.37323404157838], [0.35555977142043377, 49.382229391101625], [0.36865703049181003, 49.38223871204473], [0.4038055175750011, 49.37331422074301], [0.45501646799981127, 49.334271085113315], [0.47522798343337236, 49.25280995687953], [0.4390235066987612, 49.18805772722915], [0.4053635714894192, 49.1668469487604], [0.3829379320186152, 49.158387440167864], [0.37848860374090804, 49.158596582690585], [0.4144091405999196, 49.185699779406725], [0.4333374716035701, 49.22369558338041], [0.4333349177021319, 49.257040369309145], [0.424125345726488, 49.28280454422869], [0.41629873420103747, 49.292669278550825], [0.40273593213900005, 49.30358605199407], [0.4052637582618392, 49.303293281896195], [0.43124830537523096, 49.287796796622196], [0.4665936839215938, 49.25230871711349], [0.4836506848148433, 49.21709410710029], [0.48428817746159647, 49.21628397485619], [0.5094793896062519, 49.18366648959211], [0.521523843521119, 49.11590653880203], [0.500342903133723, 49.06607264103859], [0.4977943655613363, 49.063992664487344], [0.5075936300876783, 49.09588547146007], [0.5047793469379016, 49.12912012129458], [0.5098844794690572, 49.117972304433266], [0.5158609048971008, 49.07683480371682], [0.4968756061205834, 49.01908391617492], [0.44626631927707394, 48.97992127846324], [0.40404722070801946, 48.972409927012826], [0.3898461076083373, 48.97438504398921], [0.4350102585458476, 48.990634747367295], [0.47126226855227815, 49.04425414711863], [0.4705768712239129, 49.08560555119933], [0.4620979211582815, 49.104593070937355], [0.45260405053016783, 49.1163848027927], [0.4439396273450003, 49.12320809003437], [0.47600505581227354, 49.10630068060206], [0.5069373813871693, 49.07594076026002], [0.5253239013550572, 49.04086581706246], [0.5312905367406724, 49.008415415673696], [0.5302076056884356, 48.986447637720524], [0.5279527313004242, 48.97630477938497], [0.5278466226720328, 48.97426225092452], [0.5272011919154868, 48.954198525615375], [0.5215599960782158, 48.92841851696522], [0.5074579814749942, 48.898430594934865], [0.4256371865476922, 48.84647951645234], [0.3612346015238334, 48.86881560054066], [0.4006664661630571, 48.86571673132983], [0.3720869801393275, 48.84993479264389], [0.32308458794785755, 48.844883027777925], [0.2761772537278772, 48.85431990454315], [0.2270382223666247, 48.88256344977023], [0.24130910213867873, 48.88034548103303], [0.30813576376763346, 48.87782304941065], [0.33405568936972785, 48.89503328257718], [0.3197766385614045, 48.87746871191961], [0.27389980858433827, 48.84883665521652], [0.23493662330440127, 48.84102638401326], [0.20618066916439928, 48.842216853057174], [0.22307154696015863, 48.846841558622124], [0.20064253961732856, 48.83406292528529], [0.13756699306182713, 48.82678989039598], [0.07999928066287464, 48.856484788831715], [0.06666922426038853, 48.87435719338189], [0.10854140512730977, 48.85397661121018], [0.15015063064978906, 48.858685881660236], [0.10984383063469978, 48.81797186214592], [-0.13065774073508532, 48.72597226960508], [-0.3069246934734521, 48.75625354382864], [-0.2711946807780379, 48.76813211942911], [-0.23764490036472752, 48.80553146387835], [-0.23377427375100063, 48.81175708003425], [-0.2440247994036211, 48.78728630975012], [-0.2685738877495355, 48.75627786736039], [-0.31081977833157887, 48.73224603467197], [-0.3549335045338849, 48.72816455658631], [-0.38749955479174636, 48.73588627809524], [-0.4235068065055516, 48.754679361111755], [-0.4528676466936199, 48.77930493427895], [-0.44197906064513626, 48.77499266183905], [-0.42633624599074554, 48.77455437242462], [-0.46188206036033086, 48.75621094246319], [-0.6065607067354639, 48.73211700845159], [-0.6466006277466112, 48.733797025695274], [-0.684570290113826, 48.74425382606369], [-0.6773727361468408, 48.74445979064794], [-0.6555783455999911, 48.74908984290962], [-0.6361269473260736, 48.76021847169486], [-0.6134598917438432, 48.788591419950556], [-0.6052056900448871, 48.83988027663761], [-0.626026995496388, 48.886360109780526], [-0.6331172786750334, 48.89455983583035], [-0.5991836404105659, 48.84619549258172], [-0.6102195014578922, 48.75571722469132], [-0.6709628371160802, 48.7069625916145], [-0.7457680570506788, 48.69215847796453], [-0.7398620327660133, 48.69478447141518], [-0.7760344087737555, 48.667976791256386], [-0.8453917264363409, 48.65239951432713], [-0.9230259754627901, 48.675748039678965], [-0.9539601203197023, 48.683042678920806], [-0.985947419812818, 48.674232314813985], [-1.0588728345425387, 48.67613130019528], [-1.14148966685076, 48.700200484031726], [-1.187779135582674, 48.74820424321557], [-1.1863788474955257, 48.75783841822425], [-1.1463195206793337, 48.72291160456362], [-1.2294883222406283, 48.7654077708199], [-1.2327231545187503, 48.88215467992662], [-1.1948267568089708, 48.9271386960649], [-1.140852469363488, 48.96057421137693], [-1.099227223627556, 48.972737050038205], [-1.1097172367318882, 48.96619409049197], [-1.12866461234331, 48.93996891353307], [-1.1318881904830582, 48.87457931161807], [-1.1014124160847492, 48.830927171875075], [-1.1084869094852012, 48.8335289927184], [-1.1549526718926328, 48.88486037067456], [-1.1608481131531312, 48.967857389962575], [-1.120114482012897, 49.03022997110931], [-1.052607163941498, 49.058508745045025], [-0.9960349894622098, 49.051321867364535], [-1.0142037906749608, 49.04840663964347], [-1.0057487609482563, 49.05456776494986], [-0.943019693488221, 49.102523460403255], [-0.9562232369287691, 49.061629542356705], [-0.9646545839618393, 49.00651120956717], [-0.9793656610703398, 49.07741463225417], [-0.9731726919464719, 49.06454979357134], [-1.0033082960608768, 49.10039065469463], [-1.0205368683540712, 49.1435049836154], [-1.0192730606726583, 49.19816172048949], [-1.005855965041729, 49.22630322214271], [-1.0092064647149694, 49.1913604144184], [-0.9868012375342169, 49.14228350928592], [-0.9365781304040128, 49.11340408828132], [-0.9074511372986714, 49.11227209312566], [-0.9734626971093571, 49.09659859586718], [-1.0410538479485847, 49.10267854169142], [-1.1944841620700024, 49.2064948214378], [-1.23685914584437, 49.29183847071542], [-1.2137917720199598, 49.36724866108126], [-1.2126081645815876, 49.3597256309991], [-1.1964267949544, 49.409197954472255]]], [[[0.20930313836903142, 49.48745636887608], [0.3880275835882605, 49.54930584226881], [0.41605004786787314, 49.55853611990813], [0.4176655206053575, 49.55947185154532], [0.457349995812278, 49.58696056784681], [0.5139840690335603, 49.59286255810902], [0.5418630044124029, 49.586175172753265], [0.56954891034954, 49.57324432255025], [0.6010362111162645, 49.55251892494193], [0.6213188618578133, 49.53153736458959], [0.6033084887583936, 49.53775696904263], [0.5997952830666449, 49.53858984077102], [0.6646686591667686, 49.53971283608147], [0.711808654976575, 49.49552774960509], [0.7063678214021613, 49.50247717721014], [0.8095820916965991, 49.519740265512425], [0.8601533991773853, 49.50687505120586], [0.9104310325909312, 49.47469220817739], [0.9545725192469502, 49.4591393003062], [1.0084186444102852, 49.40626263927717], [0.9882699823990948, 49.26548115416831], [0.9407004029693979, 49.286979124012625], [0.9435925373448685, 49.38647952716791], [0.9350129722183455, 49.396727114068995], [0.9712848935001663, 49.38853877940332], [1.0207250370705514, 49.36529777752408], [1.0383707988074913, 49.351357277506224], [1.0295362002050692, 49.35456879246119], [1.014702207623172, 49.35600555134781], [0.9547194965690868, 49.30588535288225], [0.9376122494267602, 49.28630870717588], [0.97711288801975, 49.364250545929885], [1.0283797657343827, 49.395192072068774], [1.094502256815813, 49.40756874334266], [1.073440392663044, 49.39541734364095], [1.0871031389487489, 49.4124854425246], [1.1358725669474086, 49.44010800869664], [1.185368192312428, 49.45120514679984], [1.2436516065838485, 49.4454161860702], [1.212207771557448, 49.429377457650745], [1.2484073616250773, 49.48435094900836], [1.3020924446584945, 49.52972140880533], [1.3836470635791795, 49.55347213228307], [1.558141986447746, 49.53790994359068], [1.6769813176493982, 49.49868880262642], [1.7730697212379467, 49.494453950369596], [1.8181666428017251, 49.40655071672576], [1.8392492348852207, 49.35592274351809], [1.8655535683480604, 49.31296804605247], [1.8829902374395355, 49.24173534042558], [1.849593962586699, 49.17566942336239], [1.824590277473555, 49.15899379306832], [1.800055865434225, 49.14948567254851], [1.7595386088911766, 49.14612342281841], [1.727651561369562, 49.15316374068941], [1.7074491210802853, 49.16243078550007], [1.6915648678667936, 49.17343907380107], [1.681432608956767, 49.18361720292274], [1.692407923734799, 49.176901812296], [1.7133468602964321, 49.17118409825365], [1.7378492470537885, 49.17233268782863], [1.7611835352689653, 49.18284042731301], [1.774403419304802, 49.195425745652514], [1.790589408193959, 49.24139744069354], [1.787158847371146, 49.27617800217658], [1.7973200962105143, 49.21857093822372], [1.7543608956732852, 49.140069406512076], [1.6879443363910482, 49.009334154290656], [1.6060828659721076, 48.971776828732494], [1.4890649373117084, 48.954979820768415], [1.5280868978002307, 48.987744882483895], [1.5410317599430081, 49.05760186573883], [1.5423270227274275, 49.06657605943478], [1.553671354897715, 49.0333864485026], [1.5554225494663838, 49.0038410367248], [1.552178421117457, 48.98172863995217], [1.5475393426537813, 48.967509978136725], [1.550506940587877, 48.98557451298232], [1.541563095199062, 49.029654966532135], [1.5071049251692368, 49.06728624263498], [1.4811187650380369, 49.07751600055792], [1.4867683222320605, 49.077399949659444], [1.517792583476075, 49.07029856739239], [1.5766138433818184, 49.02023789398491], [1.5872510684698402, 48.9544631027601], [1.5865785624514086, 48.96054185247388], [1.5836252689366093, 48.980926846417134], [1.5848663372951755, 48.90049674760947], [1.5125700908847102, 48.842900637233456], [1.5352461699247801, 48.86823408345173], [1.5452936569689526, 48.912041267242905], [1.552214049013566, 48.90800170560392], [1.553209104680057, 48.86689289580517], [1.5373254904849847, 48.8196637053518], [1.5040195294155554, 48.78363256256806], [1.475134104752685, 48.76712281998226], [1.446510705417301, 48.75766390988825], [1.4404206865681857, 48.755224312700506], [1.4323433627536912, 48.75075480014641], [1.4378513713502223, 48.75600788026867], [1.4441664894692974, 48.76542340436985], [1.4425583881553388, 48.75983505255923], [1.4195520360624545, 48.72200037655105], [1.385214846653322, 48.69430253442546], [1.3593168566420726, 48.68193292812449], [1.3329433573661094, 48.673861829211894], [1.2888486316533647, 48.65640588382019], [1.2721110168399055, 48.652148248800664], [1.2476699843354047, 48.649746831803185], [1.2190943986418021, 48.654103180539884], [1.2034485420629923, 48.66025155277117], [1.2095661037202627, 48.65870679126005], [1.2167579768909456, 48.657847331220886], [1.1851315502038648, 48.65574421219183], [1.1650192044105665, 48.65642822368778], [1.1404480260311354, 48.65995898000921], [1.112735028518242, 48.66923583012537], [1.0894733701847554, 48.68335335448154], [1.1112257996586128, 48.679163129817184], [1.1558484902045454, 48.6899204182665], [1.1983865062684205, 48.738276785607674], [1.2034540700223502, 48.74221343274884], [1.177460843702328, 48.68929859130844], [1.1342750066738303, 48.65965594683934], [1.1099936530604693, 48.65273138527171], [1.0985915554506034, 48.65094332442434], [1.0856175325654926, 48.65017713046394], [1.0647632809794125, 48.651551018434], [1.0668349658846141, 48.6517476614011], [1.0762932599618669, 48.65497415668626], [1.0926522181284306, 48.66423437962991], [1.099674840487178, 48.67067480108152], [1.0914468144487464, 48.660264075649174], [1.0586564406978054, 48.6338868623523], [1.0209331560945318, 48.619916122975454], [0.9897556924093585, 48.616412721720245], [0.9752689743265484, 48.61728386261985], [0.9781795438836536, 48.61757448856451], [0.8988160188204422, 48.60242990941874], [0.9008425530632438, 48.603216469211205], [0.9023711401908736, 48.603843907789944], [0.8330514238939287, 48.56648021370092], [0.7662723168503728, 48.5757652186207], [0.7536330276710946, 48.57837160112882], [0.7141741612380439, 48.59515840095331], [0.6865459502021913, 48.62064543128324], [0.701870978521612, 48.610598876607476], [0.6979036875262105, 48.61025103684475], [0.6449838071131988, 48.653593948173416], [0.6362757564385735, 48.74962500364626], [0.6723363176858812, 48.79680389993453], [0.682709603638386, 48.804324432925426], [0.6774104731723601, 48.798888336423175], [0.6685262926771169, 48.78654189165596], [0.6636314034522028, 48.77566938758061], [0.6607197283756046, 48.76227289460149], [0.6610852286171984, 48.73546729770131], [0.6676240175052055, 48.71240312302329], [0.6718032260337631, 48.70428001918925], [0.6699493267070442, 48.70653078794776], [0.6791048669604158, 48.69801978309268], [0.6904385424609696, 48.69030271169492], [0.6953163759424604, 48.68865269092197], [0.6611033071001984, 48.694650749019715], [0.6306761375499187, 48.705399101844506], [0.6006710382071452, 48.72289088165009], [0.5348678392056609, 48.78480892811981], [0.5194222280444656, 48.81061881827281], [0.5117436477097177, 48.82935629650032], [0.515782354429339, 48.82232682890912], [0.5368290492266634, 48.79615605124483], [0.5704849603224779, 48.78031942358677], [0.6000257663690362, 48.77992353496163], [0.5912075197247223, 48.774701806441875], [0.5611882376697432, 48.76789863180778], [0.530490330970674, 48.76798143649217], [0.45661686285251224, 48.78195555104539], [0.44025164280500567, 48.78068415375085], [0.4143165616023162, 48.78244554615027], [0.381660330043148, 48.7918438337347], [0.3485644301201266, 48.81116605605529], [0.3223285610394917, 48.835621119572075], [0.30169336039875017, 48.8754129063437], [0.2974989781272053, 48.93206726393582], [0.3330998927415625, 49.00181950178532], [0.3440509899479692, 49.014330872114456], [0.3401720185250058, 49.00804540506513], [0.3313440039217842, 48.99020748303478], [0.3285148080845133, 48.97708347438462], [0.32817737732796726, 48.98575974907548], [0.33084126869957575, 49.01017322061504], [0.33236439431156445, 49.01574036227948], [0.33154546325932766, 48.99832058432631], [0.3356660986449428, 48.977384182937534], [0.3465826186128307, 48.956415239739975], [0.3595849441877265, 48.943677319397935], [0.3366303726549997, 48.95443390996563], [0.3137279494698322, 48.9724631972073], [0.29368807884171844, 48.99671292906264], [0.2783531287760871, 49.03037844880067], [0.2758217314477218, 49.086715852881376], [0.3210817414541524, 49.1550132526327], [0.3814078923916627, 49.174206956010785], [0.4022747792919805, 49.172402072987175], [0.3749096807229261, 49.166758721536766], [0.33282639387941665, 49.133486083825076], [0.31599309510289914, 49.084105196283176], [0.3194655205309428, 49.056811695566736], [0.31516665306209835, 49.06550387870543], [0.3086603699123217, 49.11651452853993], [0.32711763443866365, 49.168249335512655], [0.3364770968662771, 49.18073735896141], [0.32364615647888095, 49.14496546119798], [0.332262610393748, 49.090961510407894], [0.32484582253840355, 49.095544025143816], [0.3074673151851567, 49.12243989289971], [0.3025063160784062, 49.13796128288651], [0.311793694624769, 49.12738920337781], [0.31545224173816083, 49.124592718103806], [0.298688067861, 49.132781948005935], [0.2714592657989625, 49.15475072144917], [0.253436654273512, 49.17856745577131], [0.2370650822978681, 49.218593630690854], [0.23833652839642988, 49.268132416619586], [0.2597248594000804, 49.31247822059327], [0.300919396259092, 49.34294141730941], [0.3249900679813848, 49.349808559832134], [0.32185642851058077, 49.348579051239604], [0.30529249330123875, 49.336772272770844], [0.2777440165666276, 49.28443404312047], [0.29426553200018873, 49.21527891488668], [0.32657848242499893, 49.18882577925699], [0.34177696950819, 49.18405328795527], [0.3133022285795662, 49.18674460889837], [0.27329968290613155, 49.20254995842162], [0.24357160664016778, 49.22788288684602], [0.20952231152023454, 49.28328796343354], [0.20550717194610035, 49.33176348327237], [0.2079239689246593, 49.344794580186054], [0.20821644459825267, 49.335270689524116], [0.20452033314276746, 49.35248990703237], [0.2044803063704676, 49.38183228778953], [0.1988127254903913, 49.405249111131525], [0.20930313836903142, 49.48745636887608]]], [[[0.5125461722465752, 49.39549215060357], [0.4460260895873851, 49.36732008087584], [0.3398428728918215, 49.35673227114929], [0.2415510209587673, 49.36523375867909], [0.1743923481023512, 49.38056509175811], [0.16202019824203337, 49.38000581098864], [0.1341640011504998, 49.38181071966082], [0.0956978798514375, 49.38998060099563], [0.04697311961340518, 49.4117460541521], [0.013576760824838816, 49.446554745652364], [0.024532359195779785, 49.436175972919045], [0.006074317785238217, 49.4467074483869], [-0.023834836586548655, 49.51148139819157], [-0.0200877141734475, 49.560545854897214], [-0.005538283938140251, 49.5945031544741], [0.046197811388946186, 49.656705575780336], [0.09252525261672877, 49.753732603338314], [0.13196217253868167, 49.78740924506232], [0.21144870387537157, 49.82629219704878], [0.21809735358834131, 49.8252437373133], [0.21510554573236867, 49.82677861820735], [0.338087542796287, 49.862011697880355], [0.3448601468183987, 49.86930968766125], [0.49490230874342744, 49.92898365239652], [0.5272081784166742, 49.93512744865411], [0.5647058393152941, 49.951992102674936], [0.6636050847217833, 49.97516970262336], [0.7510684615939988, 49.97458094870742], [1.1391417563480855, 50.055235255814985], [1.1628260911969726, 50.067575290382145], [1.1803591720004274, 50.07026904141148], [1.2086893974396566, 50.092742602677674], [1.3704217078592085, 50.165684953080174], [1.5654048368973348, 50.08783452747594], [1.7442954643443351, 49.96579524157371], [1.7791575411427816, 49.92888022691155], [1.79895828963135, 49.88113878913755], [1.7985989028835982, 49.88238838230242], [1.819510467812951, 49.85985133869756], [1.837928414010185, 49.83197348082996], [1.8500987758284837, 49.80254869650478], [1.8461570638224978, 49.72552944476452], [1.7942663853957006, 49.671584763385106], [1.778123609634905, 49.66597840052246], [1.7876895523608252, 49.672273973800145], [1.7673310494246754, 49.652354781674404], [1.7782485631025287, 49.68359650112847], [1.7481273907895507, 49.762802568930574], [1.6864362616737227, 49.78802659517078], [1.678117733880279, 49.7873682267968], [1.6882479642222512, 49.790205712783546], [1.716294571622987, 49.79438560726674], [1.7809021485206022, 49.77949634509337], [1.8347520654189262, 49.689946705561994], [1.8123117563548354, 49.61941217484117], [1.7811718337940912, 49.58595632078655], [1.74866589528785, 49.56676624835809], [1.7380671007680362, 49.564689369274404], [1.7794619097932796, 49.628351805054535], [1.7651227654517114, 49.69797544437517], [1.768324512416483, 49.69492401258972], [1.7898040421090708, 49.654184262291544], [1.7930021141147243, 49.61236987098129], [1.7925753465858616, 49.60571550865029], [1.7945206295162839, 49.60435202555559], [1.8032497839507013, 49.57581547034296], [1.8073200193668102, 49.54076658944968], [1.7971750413693104, 49.56314611367346], [1.758073719690919, 49.59582184171634], [1.7194815093607103, 49.602910683994516], [1.7060160346513038, 49.600782225011116], [1.7161036546743031, 49.60434717895517], [1.7482552897136474, 49.60927174137646], [1.808560573055601, 49.59667438650682], [1.8662125386671145, 49.524144507669405], [1.862478194428499, 49.45733925874447], [1.834222531949051, 49.409245630049746], [1.7925274375001072, 49.38099928671927], [1.7663123253659938, 49.373238506935095], [1.7803486481238227, 49.37793603184406], [1.8100025271071656, 49.39665674327577], [1.8218833303164423, 49.41097632339945], [1.818106084674273, 49.402156683259115], [1.8104742565165293, 49.390762541270576], [1.815723971594378, 49.41093873385765], [1.801443136645904, 49.35590704591539], [1.6773786823506016, 49.29868919737358], [1.519890013552254, 49.34160205640933], [1.4013129364208203, 49.35425386771693], [1.3981415553415055, 49.35429459119467], [1.3979486383749227, 49.351545050991646], [1.346302228442552, 49.28099054234926], [1.2893703934161513, 49.250711813929804], [1.2024138076875721, 49.25193285320015], [1.2060754330525914, 49.25283399130336], [1.2151608610512512, 49.258858557475406], [1.200743607336956, 49.241164656359054], [1.1602577431841872, 49.21868725665734], [1.0970042342656172, 49.207333927931224], [1.1146971119802502, 49.21909345407011], [1.13697175057324, 49.27031529282412], [1.1342785034309133, 49.21780264711776], [1.0302197923768281, 49.156608448652186], [0.9772837997949306, 49.16151520753882], [0.9332932011925087, 49.18118472249378], [0.9156069629294485, 49.19515022247592], [0.9067311064998336, 49.199243220596685], [0.8725150277816546, 49.20674288593101], [0.8035114626551315, 49.2437304728321], [0.778277597030602, 49.403678875987374], [0.8518220176009053, 49.41170684583169], [0.8297833555897147, 49.316321360722824], [0.8585814807530497, 49.2836806996938], [0.8237969674090689, 49.29442979182261], [0.7774386008226146, 49.324780948794135], [0.7997979083034009, 49.319979734487575], [0.7131681785978387, 49.30259282278986], [0.6161453450234251, 49.319890250394906], [0.6029033408332313, 49.34948916391853], [0.631916716933355, 49.34118615922899], [0.5815595112416064, 49.33894303095737], [0.5244811381421867, 49.35654463541041], [0.4793297888837355, 49.39381307505807], [0.4712650896504599, 49.39905967744974], [0.4742549955875972, 49.39794882724673], [0.48973993096643975, 49.39433744189098], [0.5125461722465752, 49.39549215060357]]], [[[-0.9616077052159315, 48.48701785435183], [-0.9039988426078948, 48.60298276634239], [-0.8558232227798918, 48.63088243959204], [-0.8427312986328498, 48.6553332096041], [-0.8401521290455776, 48.65671725152691], [-0.8518835299652644, 48.61758997715938], [-0.8493950412879134, 48.5893887833326], [-0.8638563551158004, 48.62414704257088], [-0.8600731032317995, 48.69558864477147], [-0.8244383376957726, 48.744259670243146], [-0.8362872551217673, 48.67588626916819], [-0.8462337345186757, 48.63031884414526], [-0.9179973049949561, 48.6629958041125], [-0.9178527272097109, 48.81614372683493], [-0.8650015912262444, 48.84709920874361], [-0.8443959672339867, 48.86529152858481], [-0.8055539429493213, 48.88301352203546], [-0.7462591628839198, 48.8922474083855], [-0.7796464985421079, 48.861992775308686], [-0.7889903595894341, 48.78316050741828], [-0.7612987213249667, 48.74103616416966], [-0.7770450045036121, 48.75523589021948], [-0.8033383099551129, 48.8126137233624], [-0.7923361082561569, 48.87805258004945], [-0.7595850526739265, 48.91756552830514], [-0.726311654400009, 48.93616415709038], [-0.6905652638531593, 48.944024209352065], [-0.647573709886174, 48.94080217393631], [-0.6154293722533888, 48.93135297430472], [-0.6192352932645362, 48.93171499154841], [-0.5185019396396692, 48.94802905753681], [-0.45620375400925445, 48.97231162757538], [-0.37987293935486377, 48.96510533816095], [-0.3380463533063801, 48.94306106572105], [-0.3116411934944484, 48.92046863888824], [-0.3164684452082537, 48.92284772190475], [-0.33539049546611516, 48.92720744341369], [-0.3689562216684212, 48.92360996532803], [-0.40241411225046453, 48.904894132639605], [-0.4185032005963789, 48.885047690249884], [-0.4252377262489994, 48.86956491996575], [-0.4177410996352725, 48.89251053612165], [-0.3784133192219621, 48.936963880570886], [-0.31376730652654794, 48.95613645617136], [-0.15007225926491466, 48.925027730394916], [0.0031981693653002213, 48.98716613785408], [0.05996536935021095, 49.03719811833976], [0.1467065948726902, 49.050301388789826], [0.20290477573961146, 49.02078080661811], [0.21607471933712535, 49.00305721116829], [0.17283300693817288, 49.023656109604026], [0.12737946038267142, 49.020161074714714], [0.14287445303984136, 49.03005844137788], [0.17910133083560073, 49.04037514694283], [0.22087737669559873, 49.04053161598674], [0.20380019141566175, 49.036149344783475], [0.1826193614385955, 49.02302928808039], [0.18350231063027211, 49.02669071742282], [0.2274402362323666, 49.060820950589346], [0.32744489786132125, 49.06084651896697], [0.3602597776333753, 49.03173455022977], [0.34364074627212277, 49.042598095456846], [0.33399941205214245, 49.04458497222207], [0.31782501986067246, 49.04243320735611], [0.35898553383694287, 49.06132526867017], [0.42909139847616656, 49.05695239945935], [0.5168188242780275, 48.95457717257077], [0.4925581072584375, 48.88110049821468], [0.4939250218727947, 48.894426736064176], [0.49223663960124986, 48.936185093656306], [0.4799514389605083, 48.958726880427925], [0.4648775698798734, 48.97386594394471], [0.461049669956852, 48.9754121662653], [0.4460594383976838, 48.979910453849726], [0.44060235719499435, 48.98068384624916], [0.47042313714748774, 48.98147844895461], [0.550533669029326, 48.966974563507826], [0.5393917623302567, 48.96670736819222], [0.5273464802752778, 48.964232193558125], [0.5538602336309638, 48.97452246503837], [0.6132830396775221, 48.97568657641323], [0.6627169507733366, 48.95156594875517], [0.694045645570661, 48.913003171090885], [0.7014683522902823, 48.89263770349967], [0.6996777719555345, 48.897267181727194], [0.6926261607943391, 48.90774107188019], [0.7192849617928547, 48.88392111834992], [0.7137998624500813, 48.8873068981555], [0.7122006928998017, 48.88801325098028], [0.7522116240575395, 48.880389309078026], [0.7794134575390304, 48.869421288305084], [0.8050291330395842, 48.85340021690731], [0.8243806732929557, 48.83361721205224], [0.8400167739662369, 48.81246598081075], [0.8516239824947944, 48.79078687697671], [0.8587767713828016, 48.765766702298684], [0.8591422716243955, 48.737203105398514], [0.8531105965477972, 48.71165661241938], [0.843557707322883, 48.68977410834404], [0.8260155268276398, 48.66503566357683], [0.8060403963616141, 48.64687756707457], [0.7996696823141187, 48.64257610006547], [0.8227222435614265, 48.677252996353744], [0.8149381928868011, 48.75902405182658], [0.7753323124737895, 48.794654963155246], [0.794305021478388, 48.78795712339252], [0.8230780497978087, 48.76679256871676], [0.8236618387619561, 48.76252759904669], [0.8065269723289054, 48.771250398871175], [0.8134436831496271, 48.7701227813793], [0.8920975164773267, 48.730458999349274], [0.9166109939089695, 48.65513253962455], [0.914126026973729, 48.66290198584885], [0.9180762611614716, 48.65656946174123], [0.9109952844045017, 48.66204394614144], [0.9416857869774319, 48.649160695316624], [1.015663875519092, 48.594245436151205], [1.0402131943722237, 48.5609914269184], [1.0528928873217367, 48.513025243395184], [1.0477869619622973, 48.47606899758402], [1.0409310416142055, 48.45813860637358], [1.0396424687158377, 48.4558354522209], [1.0442552265287315, 48.46900282567437], [1.0464029217823452, 48.48380829107103], [1.045858357594562, 48.493333315754484], [1.0407341985599465, 48.50947450944212], [1.0293237360358982, 48.52829851793202], [1.0241877605286136, 48.53378709935933], [1.0322695261456636, 48.527595141564056], [1.0674638696451346, 48.487121445028286], [1.0766842141759696, 48.40829720359453], [1.0468300303128995, 48.35692794772349], [1.034811619710836, 48.34653456924185], [1.0405206470697832, 48.35303923039383], [1.0448672736390947, 48.35956065728871], [1.0319486852005662, 48.33516467227107], [1.007687086401681, 48.30982842115811], [0.9641371719349291, 48.28082711573489], [0.9283406661993802, 48.26520291947071], [0.8496781620610089, 48.24289174243708], [0.8265308817280553, 48.23868825931656], [0.8098080779998373, 48.23740512699285], [0.8293967160045146, 48.2436796589137], [0.8560302118629204, 48.262194571751905], [0.8683949902846899, 48.27964477020777], [0.8748582765993208, 48.320013977380555], [0.8555986510057132, 48.36948050956653], [0.83904543556005, 48.38482413478506], [0.8606083545548081, 48.37032537930345], [0.8934429983866405, 48.319102885415575], [0.8978295100800171, 48.27435207569401], [0.8956615538686394, 48.25993828181976], [0.8957367764055364, 48.265887223769994], [0.8930091128373798, 48.28058682417935], [0.8845296853122122, 48.30069894276353], [0.8781150858331462, 48.31023495377393], [0.8961213006765614, 48.28960712339732], [0.9113637459336157, 48.266794194109096], [0.9273928787410999, 48.210786547795244], [0.9072573645734311, 48.14484797643301], [0.8754809959198737, 48.113518825178836], [0.8542303583855446, 48.1010098683335], [0.82656918883715, 48.09000750110174], [0.7711987028801772, 48.08083460577367], [0.7218762436673409, 48.08846916602209], [0.679352657326624, 48.10633117947647], [0.655040410833366, 48.12191270009603], [0.6355416605390788, 48.1390934218853], [0.6161255100694703, 48.16087672270801], [0.6155227795301268, 48.162198865094936], [0.6329591003952523, 48.15542892714632], [0.6640931188014771, 48.155121615260484], [0.6879546071174731, 48.1630596262758], [0.7018354516684105, 48.172244276597716], [0.6757251334752754, 48.15626076174396], [0.5898652714796576, 48.150329510588115], [0.48846950580301407, 48.169477700890134], [0.4371424356508924, 48.194167064688756], [0.4010222630891438, 48.25476077910082], [0.400430935705708, 48.28777238684261], [0.40102376896034836, 48.275146841306174], [0.4061467018619916, 48.25766311095889], [0.4325114518410788, 48.22510209321698], [0.48254407190583326, 48.20691889115578], [0.49512470268981823, 48.20643593266467], [0.4657629288272254, 48.20286473046621], [0.4194540610396854, 48.20756303121091], [0.37299897701730067, 48.22551222295295], [0.34416514295910383, 48.24176641696745], [0.31419527720721874, 48.2682367129962], [0.293908503240594, 48.299911768842165], [0.284117260922615, 48.32175289462007], [0.2752834061919972, 48.353917523965194], [0.2733806788919061, 48.405560017770334], [0.2787440497752645, 48.435080003642845], [0.2788740715143727, 48.42208052855806], [0.28363710445177337, 48.40298910139221], [0.2970715803313556, 48.38175210678077], [0.31544886307440934, 48.366626234560464], [0.3188775193808657, 48.3644778232244], [0.2886970893484194, 48.373844395833586], [0.28603005425457123, 48.37402002251668], [0.2869226195136517, 48.37429120446911], [0.2235603263959665, 48.3651432846575], [0.2163589371491016, 48.36017642823502], [0.19133079977599035, 48.35098848207233], [0.18580811111442513, 48.351152198855814], [0.20232062190826597, 48.35958779194641], [0.21066797270908927, 48.36704343883533], [0.20242073209887956, 48.35606431719976], [0.1831750237698856, 48.33834460498682], [0.16565410185397816, 48.32631127160948], [0.14290939570943084, 48.315877507036326], [0.11238361989913465, 48.30895600909263], [0.1029247483696033, 48.308466655103125], [0.10944022564349898, 48.30959139878696], [0.11819839425923404, 48.31254247826831], [0.1406979632094041, 48.327441497719505], [0.1617578026462635, 48.35604310973958], [0.15012605793125686, 48.32818264488358], [0.09538973576981544, 48.28556195972765], [0.03714391008171778, 48.2793143138827], [0.009429934631829891, 48.2854785082551], [0.00878421162976136, 48.2856419946917], [0.009817642931877205, 48.285528598053986], [-0.11758767077042603, 48.3045277744242], [-0.15077953469096994, 48.397651616621], [-0.1385407664588709, 48.37477669558205], [-0.11385167935191345, 48.35725443575055], [-0.08673788694585276, 48.34860698925263], [-0.10503099189366767, 48.3499906174887], [-0.14278337901030838, 48.361533513578586], [-0.1765048081583411, 48.38014068606621], [-0.22614570746187684, 48.420189549155396], [-0.25590866024448566, 48.46290318682898], [-0.26356730376690374, 48.53868033003635], [-0.25077849501280314, 48.565121957465315], [-0.256562864069605, 48.51476509629237], [-0.23288293614859812, 48.46849109031261], [-0.2108487344208563, 48.45332830516439], [-0.2270647007245088, 48.46148508679455], [-0.17602596553954147, 48.482520825344245], [-0.14603084546798561, 48.535755521124806], [-0.14594161912564316, 48.568756189749294], [-0.1414585846043835, 48.53464620531232], [-0.157611438717003, 48.48234272941826], [-0.18614993852504091, 48.448914004416096], [-0.2211696481397582, 48.4291832534859], [-0.2576185272669383, 48.41906737561246], [-0.28703280231890166, 48.418750331173875], [-0.28334121109161764, 48.41940092312128], [-0.2670308575676569, 48.426974146956994], [-0.25663783987975747, 48.43408951879683], [-0.26115771150565115, 48.42878013731303], [-0.29570000501360677, 48.4030907826749], [-0.35534094081246403, 48.39191469853554], [-0.43182322844838683, 48.40482484802219], [-0.47031933536240894, 48.40706105904003], [-0.4718932808198633, 48.406926342954314], [-0.4650000793196213, 48.40863861020427], [-0.4516654166942351, 48.41425785871482], [-0.482774991034895, 48.39108030265168], [-0.5059140822633055, 48.379311882402384], [-0.5305989348964608, 48.3711605630042], [-0.6429225513104251, 48.35463067551671], [-0.7022546417804215, 48.37098043207324], [-0.738574549932638, 48.40751190246925], [-0.7336205048100916, 48.402767832154304], [-0.6977683361139718, 48.378389922839844], [-0.6680991514227191, 48.37341070087415], [-0.696832131191798, 48.36812353038295], [-0.6653889717694327, 48.38592196082019], [-0.6420761477658595, 48.41601521064423], [-0.6526153567730679, 48.394371541405505], [-0.696122477256212, 48.355809350357205], [-0.750485612574604, 48.34136143193936], [-0.7991142945458658, 48.349447119735906], [-0.8290083593741003, 48.36573711290389], [-0.833384302584151, 48.369607661542986], [-0.8064790262937764, 48.35915958453512], [-0.7711073780151597, 48.359095544413215], [-0.7684906301186071, 48.35893998857026], [-0.8172057022351106, 48.35143929325683], [-0.8739411321760474, 48.37225094244426], [-0.9002714496126574, 48.39731320632147], [-0.9145522943013622, 48.41896699766499], [-0.9095883549452234, 48.414864848251305], [-0.9616077052159315, 48.48701785435183]]]]}}]}