{"type": "FeatureCollection", "features": [{"type": "Feature", "properties": {"name": "nouvelle-caledonie"}, "geometry": {"type": "MultiPolygon", "coordinates": [[[[164.25633039956045, -20.161918774057334], [164.3296242673378, -20.209941969376512], [164.45380635193533, -20.18383633987865], [164.64598730781853, -20.29962017460094], [165.02772078770957, -20.595660780494992], [165.14768046831932, -20.651145991867192], [165.2387307692173, -20.680546123989025], [165.32358926968075, -20.747796986004982], [165.3743688817449, -20.813439355393797], [165.45027427577566, -20.864140932444116], [165.5057052166232, -20.94511558917459], [165.51366832338238, -21.00642531579185], [165.518564297389, -21.010547654410136], [165.64910960042067, -21.10546312976156], [165.71947053992466, -21.184800765138718], [165.8311700739283, -21.22925176459055], [165.87969622416145, -21.281497682787677], [165.9366955436384, -21.303347177376253], [165.99999878086095, -21.35606333272598], [166.10239620275317, -21.39437533577533], [166.36032020941866, -21.555042676073924], [166.55799449188635, -21.706841390796715], [166.65293044677637, -21.797228877645487], [166.74282137734474, -21.868335843780738], [166.8678382971255, -21.929113232367193], [167.01956058874373, -22.026547537070176], [167.1039798038466, -22.269481556230883], [167.03750836004315, -22.396911324792168], [166.92191692871415, -22.450888684708456], [166.85291435445077, -22.45384418520422], [166.7656325553058, -22.475811080217923], [166.53061882194842, -22.357184545051282], [166.5122195573699, -22.348722911929308], [166.44056679996416, -22.352227342350567], [166.3622585581533, -22.297188588134375], [166.3539701718208, -22.274304810299956], [166.2516000784051, -22.24642753286589], [166.11049123413363, -22.16413795958629], [166.05490030052454, -22.09143952472747], [166.03710406856723, -22.038729463602056], [166.04170029806056, -22.0405536044723], [165.89641942350508, -22.00107397697373], [165.76595733164757, -21.93563792377244], [165.68857721520598, -21.860681508651577], [165.57574854762603, -21.813788719287686], [165.38617047694677, -21.70603640362162], [165.28503828566872, -21.67008491235093], [165.18264364875097, -21.605972614703816], [164.95665025497917, -21.411336567514844], [164.8666750665975, -21.369263779260116], [164.7803104199765, -21.267749188863064], [164.58603756711233, -21.063868547236186], [164.49647430954587, -20.983519575590623], [164.38746550570946, -20.9031366963346], [164.29350227562847, -20.797887553616306], [164.23262371213136, -20.692356952501665], [164.082377576456, -20.528859448999953], [164.05252852508917, -20.423656515962435], [164.06237152276833, -20.376847119958477], [164.0624297702148, -20.38396627676481], [163.99909563593766, -20.353789277748636], [163.94040317566504, -20.25829291577691], [163.94501064761158, -20.143244122223784], [164.04028887163972, -20.04339972188739], [164.25633039956045, -20.161918774057334]]], [[[167.64272578687718, -22.641646473165213], [167.54590542882622, -22.75545726738215], [167.44191009100103, -22.74821989965302], [167.38707846117623, -22.72155136294144], [167.3256981057196, -22.64524690875169], [167.40057053255802, -22.451069125411884], [167.60320480607814, -22.51162369223092], [167.64272578687718, -22.641646473165213]]], [[[160.04114658054385, -19.356548473210776], [159.9082922045553, -19.429065875120408], [159.8305893016457, -19.152690530163287], [159.97800979094225, -19.016308313308922], [160.07466996632232, -19.247523484660903], [160.04114658054385, -19.356548473210776]]], [[[168.07261875717668, -21.351268601879323], [168.07456829311104, -21.34983525525815], [168.21211978977107, -21.376930994051712], [168.19578125523103, -21.68187494373219], [168.0162056214887, -21.742686511363782], [167.91920606031874, -21.72955143126737], [167.8808209182811, -21.685393601578586], [167.79248408133427, -21.637313123991735], [167.78107067416047, -21.543377851332576], [167.7262914010997, -21.34735150125934], [167.89227717711807, -21.278701471920083], [168.0437293823454, -21.25454128947166], [168.0847010973699, -21.362521933960032], [168.0853143670129, -21.36478943677129], [168.07261875717668, -21.351268601879323]]], [[[166.59035979159364, -20.788733001488314], [166.40941416236285, -20.762633980030742], [166.46297422567991, -20.585378694674255], [166.46052521708393, -20.54806745004385], [166.48573070134998, -20.442987272412367], [166.51311032317025, -20.34139082901066], [166.6599857814666, -20.324691665073626], [166.77059299769462, -20.456641487114496], [166.6928537259811, -20.543702364518754], [166.6990068538521, -20.54137771503675], [166.6871428510392, -20.532665423940962], [166.71802473824428, -20.566518329509165], [166.6676680985242, -20.72348011788461], [166.59035979159364, -20.788733001488314]]], [[[167.46290375842554, -21.239085610287358], [167.31513661418768, -21.263805905244332], [167.22388596889678, -21.183748157251912], [167.08349216202433, -21.14701837729536], [166.99182770306854, -21.056145422680263], [166.9416177475324, -20.88131229597583], [167.0576564924778, -20.819975635045772], [167.09056502769386, -20.818387749499653], [167.1027556191416, -20.86027406123473], [166.96337707468297, -20.817217547324223], [166.9837215962183, -20.65085953718004], [167.208483910586, -20.57363539839348], [167.32656455061073, -20.61885481019208], [167.3917291662622, -20.697802851271526], [167.3835324516607, -20.84807114367996], [167.43472166181664, -20.874699347478956], [167.52690426273685, -21.028459959649332], [167.52838701416258, -21.106341775604196], [167.46290375842554, -21.239085610287358]]]]}}]}