{"type": "FeatureCollection", "features": [{"type": "Feature", "properties": {"name": "Pays de la Loire"}, "geometry": {"type": "MultiPolygon", "coordinates": [[[[-1.1116321487890384, 46.21129701459638], [-1.1725313312294743, 46.2324956545179], [-1.1598564265301141, 46.227679651190975], [-1.130153839974644, 46.256734452824396], [-1.148079932441193, 46.20323459083377], [-1.2832416165820941, 46.19403074048349], [-1.327785608536596, 46.22768241981698], [-1.3254572252635684, 46.23182126808553], [-1.309017037444002, 46.223891526994706], [-1.3289817613308215, 46.227191692102416], [-1.3793670977144972, 46.247509431527206], [-1.3967959370177008, 46.25865639634442], [-1.3734221026083488, 46.254243992522525], [-1.4143237106055018, 46.2428813015903], [-1.5025311122854188, 46.25912360951598], [-1.5535042486350619, 46.33039562138593], [-1.5544455488690974, 46.344288971734684], [-1.5420650340142261, 46.32866542503362], [-1.5333730392648293, 46.323607517572185], [-1.5401239550477313, 46.323421566606044], [-1.611383870638744, 46.32583183241636], [-1.7187115731181244, 46.3945636609449], [-1.71529184141402, 46.424223423830014], [-1.668043647225867, 46.36046410020844], [-1.7196023907806932, 46.36643099999755], [-1.7560239244785631, 46.38787306457471], [-1.7779213736945212, 46.390951468501626], [-1.8198928675026527, 46.41109211750187], [-1.8509795327267522, 46.443800807288504], [-1.8623128805309663, 46.46584330610761], [-1.7528119493302716, 46.43979028315167], [-1.6905530775223214, 46.53862017783433], [-1.6861231821611078, 46.52865771508914], [-1.68633066013535, 46.465439876192384], [-1.7639462907421217, 46.3934151411555], [-1.8490148313240653, 46.410121620208336], [-1.8901142809526572, 46.45144089188401], [-1.9270279213660912, 46.574602413881685], [-1.9094519408965414, 46.544713001175914], [-1.8968132916781448, 46.51768941900257], [-1.9356084609542576, 46.564699907855356], [-1.9429058067695355, 46.58378988974974], [-1.9344372745202354, 46.57154833317844], [-1.9294928764386516, 46.56528796535756], [-1.944989030074186, 46.57452410975046], [-1.980343804363888, 46.60701879298895], [-1.9850349510406933, 46.62580741416503], [-1.9590794877145292, 46.60583543309695], [-1.9550535728888936, 46.604207716569825], [-1.9904786168521214, 46.610258445576726], [-2.035770249619121, 46.639747950586376], [-2.0655079389808506, 46.68149003834988], [-2.1017783782313995, 46.70633880641843], [-2.1151078381800414, 46.71325151599646], [-2.14347535699282, 46.7202873421677], [-2.1920144813707214, 46.75189681489127], [-2.2209757455096226, 46.8040335302262], [-2.2290904558426665, 46.840970083000485], [-2.2312328870076215, 46.873961898663964], [-2.2227205860068167, 46.92772325218305], [-2.188212829514074, 46.978632605973615], [-2.1899591773635922, 46.95164961557218], [-2.1983123129504634, 46.95812939809253], [-2.1365352579178647, 47.02836721850048], [-2.109432819700849, 47.03730795855134], [-2.1218197664864036, 47.02555619597334], [-2.107269091009214, 47.05774545843448], [-2.074808819376412, 47.10102057441332], [-1.9929796113166804, 47.135361377036354], [-1.9160628346999675, 47.11036932993114], [-1.8524363775848514, 47.06020248586981], [-1.8360650216443504, 47.0507838447955], [-1.724421279192559, 47.01264422073396], [-1.6729809427760391, 46.972679351047155], [-1.6885527167100556, 46.97806965546345], [-1.6422293291005488, 46.97867893634833], [-1.5537975196892875, 46.959880163543446], [-1.5658824011255819, 46.95646396288197], [-1.5601581785782133, 46.963754254181126], [-1.5983379775383093, 46.900598586386444], [-1.5996295195558052, 46.84362652710437], [-1.6327789403306692, 46.910087968030254], [-1.6529614621971056, 46.99106133849623], [-1.6198789256952464, 47.08820222110202], [-1.509160977498966, 47.1347819306469], [-1.4482936028421838, 47.127295678950446], [-1.3955767115373925, 47.0873154824175], [-1.3700671020356803, 47.030766914057175], [-1.371232454645337, 46.98088760622029], [-1.3929282591163752, 47.01507855765126], [-1.4291351099851346, 47.0325952740242], [-1.4514236521237236, 47.03199742623909], [-1.4341300540445006, 47.040249983948705], [-1.4476071667069779, 47.02808158321163], [-1.4580880449072906, 47.00959738738959], [-1.4623691829380487, 46.98779388374133], [-1.4671353596196812, 47.0370323808107], [-1.4350307565953646, 47.105131297944595], [-1.3587779978051469, 47.143979391254156], [-1.3424383669933517, 47.13205049910179], [-1.366043446954925, 47.12351266743211], [-1.2942364136110198, 47.17326079450481], [-1.1986112482309947, 47.16150695849147], [-1.1133379101033698, 47.12307034968357], [-1.055675126030424, 47.10525981109814], [-1.049566295946552, 47.10210539345329], [-0.9929991334315361, 47.12039001490749], [-0.9299986574015396, 47.10166831859671], [-0.9244635250243997, 47.096066391188145], [-0.9152509395859298, 47.09553881902566], [-0.8550226185869313, 47.0663031252364], [-0.8226307690383137, 47.03920013101389], [-0.8060254902898203, 47.01663557610644], [-0.8171601145285116, 47.02541964347313], [-0.7918789763077982, 47.015523320914845], [-0.7513659453024671, 46.97613032399802], [-0.7328728550849015, 46.93510779624872], [-0.7308348204235224, 46.91367840063484], [-0.735409635404693, 46.92482812160296], [-0.7404395022661643, 46.93224159732365], [-0.7496217047309632, 46.93910263522693], [-0.6995828462658771, 46.91855124537636], [-0.6617702811963004, 46.8947279633285], [-0.6367766406139743, 46.86944598231383], [-0.6130683114604625, 46.816511262489165], [-0.619769881156631, 46.76185355471935], [-0.63108578992528, 46.73905366832021], [-0.6294855304236426, 46.751828974848216], [-0.6288517792398295, 46.79592894813244], [-0.6341117534621028, 46.808179388201445], [-0.6110935288997967, 46.783833253824795], [-0.5754271088936629, 46.732605345952244], [-0.5647968147555585, 46.709888040077765], [-0.5568892377163875, 46.68429793145223], [-0.5545260114436341, 46.6581868406383], [-0.5553559927770588, 46.65935301659469], [-0.5594288096009958, 46.67780616479587], [-0.5694986727273442, 46.69471506397177], [-0.5625099476501797, 46.69029094215312], [-0.5415132826988059, 46.661478507397796], [-0.5291027795988753, 46.62801336542115], [-0.5266105139239947, 46.603575799445686], [-0.519128430239322, 46.57657306517598], [-0.5165750928386996, 46.536413053908724], [-0.5330988069291257, 46.48886248018385], [-0.5615352012323237, 46.457142015482106], [-0.5694858483918974, 46.452555210836586], [-0.5505759238732553, 46.47492039595991], [-0.5401342346356891, 46.51515962659758], [-0.5259242041372991, 46.48036488149122], [-0.5237834350790314, 46.44764375149156], [-0.5306780170794203, 46.41540955175193], [-0.5366593900108941, 46.40396076078204], [-0.5340701530018824, 46.4289324923815], [-0.546089205534045, 46.463015937057], [-0.5942405876319892, 46.498861938299314], [-0.6429063501050098, 46.50039303465189], [-0.6295508323780645, 46.50486159515592], [-0.5753373520435601, 46.50214317226914], [-0.5125153913056789, 46.46932724774333], [-0.4751675832538165, 46.433656928005576], [-0.4553156800298749, 46.36728978878772], [-0.4787388609664722, 46.301571002400074], [-0.5203142350090716, 46.2677414969611], [-0.5539197579224233, 46.256514922399404], [-0.5813465819176206, 46.25439092147505], [-0.5960184925177768, 46.2559912352021], [-0.5933058967448837, 46.25598599718304], [-0.5820028694851346, 46.257559882021056], [-0.5635864701668172, 46.26460167020417], [-0.5919276133733515, 46.24221007774817], [-0.6248283252637329, 46.228820311175795], [-0.6509582657420925, 46.22511068684363], [-0.677270530042511, 46.22558672211741], [-0.6692921779385312, 46.22697832900619], [-0.6790552363706248, 46.223360736930275], [-0.6855619821197072, 46.219436862238005], [-0.7173153514736105, 46.20737790166447], [-0.7675482065235574, 46.201806335075844], [-0.8513018433630688, 46.23482497198462], [-0.8559484438636595, 46.234448596583356], [-0.8553964386632914, 46.23483922815248], [-0.855610569243783, 46.23428717795434], [-0.8664599407895183, 46.23116068619191], [-0.900757760795236, 46.226676370728036], [-0.9123612576195061, 46.22358689961552], [-0.9337303247441701, 46.220857855045374], [-0.9773325009069476, 46.221591993210495], [-1.035923301001073, 46.24874081228575], [-1.0728024690794356, 46.33715667121712], [-1.036984372619336, 46.40785775286301], [-1.0309839723124006, 46.41178872847607], [-1.0475626773094089, 46.38788118545063], [-1.0518639678294177, 46.32885323811796], [-1.0083700263625293, 46.27306306861619], [-0.96038109426005, 46.262889694763594], [-0.9641493096363642, 46.259675557920566], [-0.9850326388955568, 46.25569070625098], [-1.007219890257418, 46.25386691925987], [-1.056585673341682, 46.24557197791817], [-1.0450825913527753, 46.25034644036625], [-1.031643754678217, 46.258954249043825], [-1.0398586801211758, 46.25030719664739], [-1.0399898941329893, 46.249962920051296], [-1.1116321487890384, 46.21129701459638]]], [[[-2.3175179327133053, 46.829632124351804], [-2.26039479550867, 46.8127355755667], [-2.21660566728308, 46.78786158453835], [-2.1848698896110075, 46.64328113682287], [-2.3052173853446796, 46.60456225119994], [-2.4201855618659667, 46.61699353719302], [-2.4826341569324875, 46.73025019324799], [-2.4219961010459152, 46.81998447762833], [-2.357059320039139, 46.833790666353224], [-2.3175179327133053, 46.829632124351804]]], [[[-2.1119742950516245, 47.0326771354279], [-2.141046782980521, 47.06454547629642], [-2.1101764987450586, 47.053922037716475], [-2.0652749691531334, 47.01803273934998], [-2.0425153147606854, 46.965516827910605], [-2.038379087590122, 46.91140137764415], [-2.101916745420953, 46.81849248007487], [-2.2227458026269766, 46.83936876968885], [-2.252641330164523, 46.8777742235785], [-2.2538581599766463, 46.88115096339489], [-2.2253235291043043, 46.87399413387171], [-2.268859895670354, 46.866651917250344], [-2.3462278112559534, 46.924109311498874], [-2.3603703057942726, 46.960462166313256], [-2.3897863549162093, 47.06691164833655], [-2.2345716459379474, 47.13526499005886], [-2.1944341140117753, 47.12974612162131], [-2.12316067013388, 47.088330368370634], [-2.097464325610288, 47.00996348624195], [-2.1018302131639177, 46.989692801971486], [-2.1119742950516245, 47.0326771354279]]], [[[-2.071778487308486, 46.97683041923096], [-2.086964476601731, 47.01926364998022], [-2.0829933808953798, 47.00898704128049], [-2.079670670237871, 47.005714810957386], [-2.076319006576183, 47.00347217546474], [-2.1142409228779178, 47.01812300133168], [-2.2292133220978303, 47.0319546360692], [-2.3410496494488915, 47.1387593860669], [-2.275786049360512, 47.23639099400723], [-2.265899920583735, 47.24274923403682], [-2.232662638911889, 47.25741001399862], [-2.1988474057168963, 47.26093313660389], [-2.2381920754340263, 47.23621656579427], [-2.2581612815929994, 47.20379657278782], [-2.2584282239286235, 47.20233121301733], [-2.2547042886020323, 47.176574970522026], [-2.2617980364090124, 47.182156075787496], [-2.2720404949587327, 47.23155514667776], [-2.2688556271816904, 47.266382515009575], [-2.259336204146241, 47.297572719379865], [-2.24017224684518, 47.33169034308218], [-2.2019172059857413, 47.36615631760154], [-2.1455053043749417, 47.38520856219489], [-2.063128951246799, 47.38942586655669], [-2.068473951581485, 47.38869920571676], [-2.044059687164736, 47.396789904837384], [-1.9852982636799006, 47.39574018556738], [-1.9471176761950708, 47.37367970847006], [-1.9628593275419755, 47.38174838762269], [-1.940058760504401, 47.37905884753455], [-2.025439214548179, 47.31656158794697], [-2.0317181884411046, 47.3247865317794], [-1.9173922763896698, 47.38577839842169], [-1.8871039694150964, 47.379572794760186], [-1.8575895910911027, 47.36668131010834], [-1.803361957336393, 47.2423975973183], [-1.848142321881345, 47.20271332188134], [-1.833787662806647, 47.31859069641346], [-1.8484341528709838, 47.341089358514346], [-1.8084025966286514, 47.3359797959051], [-1.7753016860645991, 47.32140449292865], [-1.7591022146967712, 47.30836240481672], [-1.7651319873076294, 47.31071580792982], [-1.824536249262381, 47.23299793728389], [-1.7749966536402066, 47.123850560766286], [-1.8199094110761138, 47.130719895540224], [-1.8616121052121144, 47.15237911212491], [-1.8921926438337047, 47.177082916758565], [-1.9149650023874674, 47.189792503978936], [-1.9359095663705272, 47.19862576771824], [-1.9402497386979871, 47.1995547547228], [-1.9652377362506865, 47.20139584142802], [-1.99987836118329, 47.21151277764501], [-2.011373234203503, 47.220171397463105], [-2.0175947415578643, 47.220008675155334], [-2.126188250093227, 47.21564837669683], [-2.122867324974616, 47.21773573840648], [-2.1072778097760265, 47.231809916525606], [-2.1097262831276904, 47.22735823720294], [-2.1306078264026067, 47.2042371817873], [-2.169242716261598, 47.180538872273644], [-2.197422756615085, 47.17525416130902], [-2.217519907512022, 47.16081957304088], [-2.2656405458454367, 47.14722120132878], [-2.3122278671457526, 47.14765415513978], [-2.35605196965401, 47.15999461912392], [-2.388276384583025, 47.17886382286135], [-2.4052633264762115, 47.193452542179905], [-2.3943858251775705, 47.189119462987186], [-2.390735370628343, 47.18794394314651], [-2.3881326226595436, 47.1880190137875], [-2.371144651164301, 47.192312289359684], [-2.3410502756351295, 47.21209981160506], [-2.323601872691096, 47.2381461273302], [-2.322642912055938, 47.239134960284815], [-2.3628964837418724, 47.1833604028679], [-2.4664698147681756, 47.16823524243588], [-2.623751844373098, 47.242551318543406], [-2.60904414216465, 47.38113197767787], [-2.4984415495946504, 47.40249020899405], [-2.4660865072396243, 47.39017700320206], [-2.491817319329906, 47.385589033546665], [-2.535122092742822, 47.3215889793531], [-2.515616585071074, 47.24919542633362], [-2.527451560185501, 47.25535458411693], [-2.5015196670988082, 47.25009415108869], [-2.4512978385653192, 47.25236107679366], [-2.4410818131706176, 47.2574123464499], [-2.395819888697728, 47.32410342112932], [-2.395406980395032, 47.368639906313874], [-2.3908082299889823, 47.31105898517343], [-2.4432160434638535, 47.234627888806294], [-2.5703964129946533, 47.24795675805416], [-2.597291492038263, 47.31538262934249], [-2.577030409663294, 47.28665764684309], [-2.656376313864637, 47.38463780934448], [-2.493961544856666, 47.51419170468597], [-2.449756627556954, 47.513878627044996], [-2.435078338583074, 47.51000650857549], [-2.353648124723995, 47.46202719738707], [-2.380729544394481, 47.324671469893715], [-2.4183809665494134, 47.30724435820763], [-2.3474496818616877, 47.38808874028582], [-2.437322370711189, 47.496293316295244], [-2.47873484576634, 47.49087788506022], [-2.4628244174392906, 47.490469966619045], [-2.4797853554338833, 47.37606176824476], [-2.4147784800888203, 47.326019541842996], [-2.445820005889388, 47.32716848899028], [-2.541476546788674, 47.394690263044176], [-2.5350039266248934, 47.416660267533835], [-2.480193325764553, 47.35536085234022], [-2.5601004664803626, 47.438561612955475], [-2.4935363048864927, 47.54724155670091], [-2.5169834037226213, 47.535040973460156], [-2.5132279094363867, 47.541599692663695], [-2.468295426974498, 47.562204534243115], [-2.422042154375373, 47.565218517268484], [-2.3874785611095857, 47.55619037330557], [-2.3782934564147618, 47.55204660001414], [-2.3877758758032277, 47.55426012875395], [-2.4018177656530186, 47.55503919638146], [-2.386605418084183, 47.558051776319196], [-2.3645040098644916, 47.55910972448418], [-2.3576327193704376, 47.55838306634739], [-2.3697226135061755, 47.55656333849091], [-2.3883323579690114, 47.548248822955266], [-2.3920702761752954, 47.54700423601147], [-2.390313391575115, 47.54896931408629], [-2.3910888651171, 47.547779751693106], [-2.3864731874571055, 47.55581776547944], [-2.3657037255496554, 47.57891833235231], [-2.3405591310782072, 47.59424568255356], [-2.315745862809732, 47.60311433952005], [-2.2684586326194878, 47.606156494213565], [-2.233812418526328, 47.59585301237907], [-2.2106670348429813, 47.582631097265626], [-2.204851055810614, 47.57772449545109], [-2.217473691817547, 47.586422524564895], [-2.230043116367322, 47.591928500874026], [-2.2482300649100146, 47.595132023765125], [-2.260208709991232, 47.594848403004264], [-2.2607508860063823, 47.594737941254095], [-2.2262185565485098, 47.60640965874661], [-2.1660669334248346, 47.59988574693172], [-2.1134739126020596, 47.55588534579716], [-2.098723643042101, 47.50577223413015], [-2.0992019922067384, 47.49277100528345], [-2.101247458142866, 47.512055103856305], [-2.114552429344811, 47.54344532518367], [-2.1414143796158114, 47.568966001315225], [-2.1784221143537352, 47.58107312667091], [-2.2131656135942426, 47.57655369550472], [-2.2372965582881648, 47.563015612037724], [-2.24832220574233, 47.550849075754336], [-2.2457258252201058, 47.55739241610498], [-2.2204308699644018, 47.58822697808962], [-2.1799829157076784, 47.61254953836362], [-2.1702012179586125, 47.61474271030403], [-2.186171660179702, 47.60455847906134], [-2.1992428208856962, 47.58738151671135], [-2.1902382302582026, 47.62469738289782], [-2.1746098938867733, 47.65354014512417], [-2.1757956411409753, 47.65023758650297], [-2.1858126174169854, 47.61011065961887], [-2.1864194122375604, 47.600400325142516], [-2.1833279301515116, 47.64298613729435], [-2.176504007930369, 47.66000471590293], [-2.1836029252931812, 47.617914402086214], [-2.17461117351523, 47.58206987175034], [-2.1882871333679255, 47.62539379754971], [-2.1494695248648714, 47.72272387458996], [-2.0913338452234194, 47.752125726743294], [-2.078312818280245, 47.75958334115223], [-2.0607214257578708, 47.766606605602774], [-2.0402806897304564, 47.771428560263935], [-1.9975671403370219, 47.77635144399839], [-1.9777455246069886, 47.773927412664925], [-1.9701858560333445, 47.77934767682155], [-1.8651856682449814, 47.80279382638456], [-1.815903186779284, 47.79278551856315], [-1.810437190270904, 47.79205516551424], [-1.8173093901848065, 47.79171070378525], [-1.7146211512059608, 47.81409427836692], [-1.701538765069109, 47.819446624123884], [-1.7071947300800452, 47.81408598065157], [-1.711838161489534, 47.81092166105932], [-1.6973210095646991, 47.82602426256837], [-1.6816463294517814, 47.83912439602454], [-1.6632285685460741, 47.8513546785294], [-1.629793385168634, 47.86806874957287], [-1.5328620128833985, 47.89800514302679], [-1.5192520525110553, 47.90791304885446], [-1.4821357494816612, 47.92132934548017], [-1.4303926905048008, 47.92519070883036], [-1.3942292238988978, 47.922417911442224], [-1.3672393429574279, 47.91592188087391], [-1.3302935974520902, 47.89743460846916], [-1.300577023901584, 47.86589496731704], [-1.3107528976899612, 47.87524620972685], [-1.3301434654222763, 47.889374600634476], [-1.3323979015258283, 47.89005699416421], [-1.1865360655764212, 47.85683562337971], [-1.1474648272146433, 47.77784808608624], [-1.1517836842435407, 47.76131404085137], [-1.1814642795772687, 47.80363286678491], [-1.2180810537991564, 47.819799661517216], [-1.1908912795327125, 47.81789158173241], [-1.1454925378636245, 47.80011768173904], [-1.1186234367907861, 47.78089441515437], [-1.0918606566324174, 47.747933190558996], [-1.075990532168771, 47.698365551132184], [-1.0778394887576404, 47.67369028739272], [-1.0904269153561459, 47.70154097644669], [-1.114206653870377, 47.721332771291834], [-0.9939327037509953, 47.6941603797936], [-0.9083619574103796, 47.59328684129873], [-0.9906185014861978, 47.478810298958656], [-1.051178684543698, 47.4644031031258], [-1.144611256736067, 47.4727873257355], [-1.0903149557148857, 47.51737363930037], [-1.0846081349774728, 47.58550037308501], [-1.0918336205185573, 47.59586634065644], [-1.1024005248391002, 47.60138475166253], [-0.8935922314881679, 47.56115560894961], [-0.8659458568023768, 47.48427665476381], [-0.8634924554028521, 47.4771314622906], [-0.8611934217232188, 47.47171097625396], [-0.8289686694365053, 47.36245975464869], [-0.90999882875017, 47.29520877002893], [-0.910526305870463, 47.295134172571615], [-0.9109954422550228, 47.29506726351214], [-0.9117638966668947, 47.29495662271663], [-0.9127512898187583, 47.29481600244567], [-0.9137577238986792, 47.29467278539235], [-0.9149271784830286, 47.294505291490424], [-0.916269248962576, 47.29431400214561], [-0.9176873467821709, 47.29411198589962], [-0.9192071216173414, 47.293895157648095], [-0.9208330984134573, 47.29366301720028], [-0.9225790677395875, 47.29341345080028], [-0.9244106995391781, 47.29315236172467], [-0.9262970022381035, 47.29288303093943], [-0.9282801385783185, 47.29259958294599], [-0.9303493825700107, 47.29230426594461], [-0.9324518211241873, 47.29200477381451], [-0.934598522635259, 47.29169824313696], [-0.9367932149411854, 47.29138514361817], [-0.9390441587882047, 47.29106343887133], [-0.941321303592716, 47.29073913462605], [-0.943596926850859, 47.29041432817312], [-0.9459048654525388, 47.290084908782745], [-0.9482178472470004, 47.28975491138072], [-0.950508839225305, 47.289427911556835], [-0.952833054760198, 47.28909530991634], [-0.9551350748604345, 47.28876759501409], [-0.9573757694369518, 47.28844749281744], [-0.959624214941188, 47.28812614361817], [-0.9618315226352562, 47.287811243136964], [-0.9639955380660464, 47.28750224210153], [-0.9661040994951848, 47.287201734113495], [-0.9681301385781448, 47.28691258294601], [-0.9701070022381103, 47.28663003093943], [-0.9720306995391701, 47.286355361724674], [-0.9738430691854332, 47.28609702164296], [-0.9755660999229792, 47.28585058848596], [-0.9772221216173271, 47.2856141576481], [-0.9787674934583852, 47.285393677928184], [-0.9801983955910432, 47.28518969383574], [-0.9814652867174083, 47.28500913345252], [-0.9826482315738699, 47.28483956967367], [-0.9837406889073339, 47.28468394229498], [-0.9846359668187984, 47.28455646988179], [-0.9853700187688241, 47.28445174329542], [-0.9859154091867358, 47.28437384155389], [-0.9862504116686311, 47.284325660565635], [-0.9865668597642794, 47.28427982026858], [-0.9931461035077827, 47.2835483011278], [-1.120210466426811, 47.28190022873938], [-1.137305850609572, 47.279652046303106], [-1.195882347037027, 47.25496111389046], [-1.2336833007064196, 47.248438068411104], [-1.2705970389613193, 47.24704634750602], [-1.266098040462318, 47.248501274026715], [-1.255076981980563, 47.25386131327063], [-1.2554947241050785, 47.25362560704147], [-1.2557772582162097, 47.25346654389798], [-1.256128342805921, 47.253269269455394], [-1.2565356333813877, 47.253040603100295], [-1.2569238071740187, 47.25282309454801], [-1.257400060273567, 47.25255534018613], [-1.2579476467226494, 47.25224862283935], [-1.2584781758813703, 47.251950836472375], [-1.2591204609585338, 47.251590484390675], [-1.2597357147538546, 47.25124585066664], [-1.2604158135251, 47.250863600996404], [-1.2611905010990627, 47.25042949389615], [-1.2619511559472243, 47.250003204721914], [-1.2627078823408284, 47.249579369414995], [-1.2634947184802923, 47.24913779915967], [-1.2643526420646412, 47.24865670107341], [-1.2652388417169398, 47.24816009855835], [-1.2660852520480879, 47.24768631467533], [-1.2669527259455964, 47.24719957842083], [-1.2678774306575253, 47.24668149056034], [-1.268760718936362, 47.24618665798126], [-1.2696732439970841, 47.245674803093245], [-1.2706120371032488, 47.245148909984586], [-1.2715376831220229, 47.244630387196516], [-1.2724104899029058, 47.24414178637128], [-1.2733007663245746, 47.24364204167338], [-1.2742632911458351, 47.24310276810114], [-1.2751266589958739, 47.242619881189455], [-1.2759788166553356, 47.242141877447516], [-1.2768581477431558, 47.24164956702527], [-1.2776641046330675, 47.241198155691166], [-1.278429471238271, 47.240769059851935], [-1.2792628271933872, 47.240301268404515], [-1.2800506134452054, 47.239860788918534], [-1.2807493565582049, 47.239469250154556], [-1.2814115233883772, 47.23909860219299], [-1.2820464025609069, 47.23874239591685], [-1.2826717451191385, 47.23839211577243], [-1.2832355472703854, 47.23807610602452], [-1.2837652382478206, 47.237779436547605], [-1.2842209804571383, 47.23752418254045], [-1.284589633381957, 47.237317603099974], [-1.2850093565613114, 47.23708201007413], [-1.285256234754176, 47.23694421819902], [-1.2855293959045824, 47.236790510030495], [-1.285691637679257, 47.236700098557996], [-1.2537095340998112, 47.2652292345997], [-1.2589297481362376, 47.36045112077917], [-1.2587615896767337, 47.38752721381576], [-1.206714470807102, 47.336290516605146], [-1.227071248419498, 47.343117117744], [-1.1596917801154423, 47.34119028984508], [-1.094896767783263, 47.27709182683054], [-1.0862386990954742, 47.25025745522437], [-1.06240445836568, 47.17532602601269], [-1.1386768551782973, 47.07260200546181], [-1.1374522887824907, 47.147034484601136], [-1.1147062977331321, 47.17301494117942], [-1.0541183109844694, 47.12851843074502], [-1.0250392065512393, 47.00510352777285], [-1.1516805525311464, 46.929546029781136], [-1.2638287517690052, 46.97243904150852], [-1.24512958638898, 46.97938320549518], [-1.219398553045075, 46.987515332567895], [-1.268339633006648, 46.94628350089821], [-1.329080002194853, 46.94619660874584], [-1.2906192434046353, 46.9667647020554], [-1.2688426403803186, 47.0109556191893], [-1.2624028170619515, 46.984126116258665], [-1.2710339550927092, 46.93881061261041], [-1.292962833293022, 46.901254416788376], [-1.3232919459554995, 46.8737720160513], [-1.3967463478762765, 46.83961657376091], [-1.4570908900148656, 46.834558725975796], [-1.526037740883625, 46.865807442348746], [-1.5647175453546631, 46.9302563937797], [-1.5659268979643197, 46.99028308594283], [-1.5540192884626076, 46.9652665175825], [-1.5216043971578164, 46.94121632104955], [-1.4871930225010341, 46.9359920693531], [-1.4734170743047537, 46.95200777889798], [-1.4530145378028945, 46.995668661503764], [-1.4459290596693306, 46.98141203196974], [-1.435748480444195, 46.95826947289563], [-1.4015760224616907, 46.86475541361356], [-1.450257821421787, 46.79665574581887], [-1.4714715988744183, 46.780150037118034], [-1.5464864803107123, 46.76001383645655], [-1.6614126708994512, 46.77960106365167], [-1.7215012832899446, 46.780802344536546], [-1.767681057223961, 46.79652064895284], [-1.8187227208074408, 46.83627177926604], [-1.9171589783556495, 46.8679621552045], [-1.9642876224151484, 46.89440351413019], [-2.0208091653000326, 46.93999267006887], [-2.071778487308486, 46.97683041923096]]], [[[-0.3019939448749664, 47.860995589167175], [-0.2977784253035791, 47.73041235082601], [-0.35062016819062547, 47.682778132068144], [-0.3914380969737035, 47.66588493030382], [-0.4354672788003458, 47.658489873912075], [-0.4791013250991505, 47.664225924966814], [-0.49943471307678416, 47.67890508896384], [-0.45232397155662063, 47.69390983878215], [-0.4726386835132568, 47.67302896816597], [-0.5236866407394716, 47.65369276648929], [-0.5633347553318097, 47.653266262271494], [-0.5766366902974027, 47.657677007272085], [-0.5381645237923736, 47.66901266896735], [-0.541034677126132, 47.661597630216704], [-0.5832152024903757, 47.63966625598146], [-0.6333926288527365, 47.635260463912864], [-0.9434129530053292, 47.69426472799005], [-0.8945179020188098, 47.71784315417611], [-0.906322923938082, 47.69515359798399], [-0.9759287477878416, 47.66362174121096], [-1.0410892378347156, 47.67580803878081], [-1.1496905145640106, 47.67815972655946], [-1.2191651434211193, 47.692221032281765], [-1.3418140920147492, 47.794417514997676], [-1.3042677258008968, 47.888084997013976], [-1.312289920980166, 47.878153075168896], [-1.316819753424315, 47.87001957960494], [-1.30856218206175, 47.89552056579953], [-1.2986136830102393, 47.916409264532994], [-1.2889969015240956, 47.93179363997477], [-1.2872312598559599, 47.93547558859409], [-1.277286910192918, 47.96825804352076], [-1.265190045668283, 47.995606044152524], [-1.253104699494455, 48.01438283755794], [-1.239401058252565, 48.03050214218249], [-1.2139829159656543, 48.05311314814775], [-1.1914517984631185, 48.06736268470341], [-1.1681628616702, 48.0774854799684], [-1.1445832645575178, 48.084018059325984], [-1.1211416205247486, 48.08734293340697], [-1.0871666022099644, 48.08883018089348], [-1.0860482929858155, 48.0890049355951], [-1.0862646742445126, 48.0888691002096], [-1.0913208457380448, 48.086831393548245], [-1.1013167951839575, 48.080737745935025], [-1.1274302072007187, 48.05116830926413], [-1.138797160744002, 48.01840369712215], [-1.1388152226415726, 48.00535896018444], [-1.142361668939684, 48.019775430085026], [-1.143337757861754, 48.05251925393425], [-1.141115171666223, 48.06249614324322], [-1.1343638803514702, 48.02450785491866], [-1.1112296998109765, 47.99168040757989], [-1.1266509566509282, 48.00096846798391], [-1.149162956291342, 48.02617473964406], [-1.1614247475930637, 48.04841597444039], [-1.1673035298438887, 48.06592312348943], [-1.1807661008026773, 48.17004405607006], [-1.1585410338168816, 48.218295298615786], [-1.1411196763572733, 48.23628282872203], [-1.1338320427969442, 48.24173690062172], [-1.1554894004976723, 48.21796855925367], [-1.1694728930370264, 48.18164155887591], [-1.1698137714969739, 48.164549837526735], [-1.172711223191138, 48.17599334724552], [-1.1757170253271791, 48.18502999298764], [-1.1797056662175187, 48.208268280792225], [-1.1790250729553384, 48.205526141983825], [-1.1747464973047912, 48.19539056294881], [-1.168196582912886, 48.1855432257701], [-1.156944007903804, 48.17447310899343], [-1.174021209739293, 48.18977168687077], [-1.1963622360969606, 48.23034922504088], [-1.200783987667058, 48.28058636783259], [-1.1864996561564567, 48.3235264852273], [-1.1746471785884158, 48.34347545835743], [-1.1572345556819066, 48.36590911768798], [-1.1664609500683234, 48.34371869072235], [-1.1692049395480553, 48.32944504371193], [-1.169661868209046, 48.33853239769114], [-1.1819801723786658, 48.414754084121924], [-1.1820766098188389, 48.448566285229134], [-1.1788771442918138, 48.46698498423553], [-1.1456022653703068, 48.573354395288135], [-1.0234478548640755, 48.59296892572005], [-1.004309333373286, 48.59282867621087], [-0.9858461556505558, 48.596505068377986], [-1.0018604027325115, 48.59026564471218], [-1.0021005090889825, 48.59069818588173], [-0.9722900677477608, 48.6023787836094], [-0.9297430272655521, 48.6071167724651], [-0.8785542402414, 48.59419354418383], [-0.8841293249292225, 48.595500432980025], [-0.8877443755991974, 48.59723815682344], [-0.8916807628463217, 48.59663020534441], [-0.84311454180744, 48.59986009647917], [-0.7828636450547767, 48.5695931517487], [-0.7552677056986379, 48.539915002335015], [-0.7441045503873427, 48.52226079367853], [-0.7598448678239526, 48.536513057555744], [-0.8020562977648894, 48.55086470674317], [-0.8334113698813929, 48.548110011429735], [-0.8166446219848403, 48.55384245558678], [-0.7651009737062235, 48.55483241546487], [-0.7233656974158491, 48.53662833845702], [-0.7144036406258997, 48.529644887096104], [-0.7286977054541341, 48.536640880264095], [-0.7582523874253959, 48.541210568060635], [-0.7885775227437879, 48.53315664964279], [-0.818550643226932, 48.50602045859449], [-0.8250678522341405, 48.49672478935577], [-0.7955370282305673, 48.53778203917981], [-0.7499438688082021, 48.56094246961705], [-0.6807008485772809, 48.57301329912584], [-0.6314316638860281, 48.56706807716016], [-0.5812314951899084, 48.53229616784569], [-0.570213450067362, 48.51546809753074], [-0.5984913582195784, 48.54195756792676], [-0.6390574486895748, 48.554593324483285], [-0.5779950651035393, 48.56546343699579], [-0.5828399177366945, 48.56392611759761], [-0.5872790089651051, 48.56160569734832], [-0.550384583305765, 48.58819614128518], [-0.5208119206803787, 48.60069338979573], [-0.49438471918013666, 48.60565765704569], [-0.4705366646375911, 48.60706094095997], [-0.40806877155161314, 48.603409151977814], [-0.34992305918753597, 48.59184130146446], [-0.3801659949863932, 48.5843792173251], [-0.4056102884943489, 48.56710386268697], [-0.4014521601202425, 48.57203448120317], [-0.37121714243234316, 48.59769385304301], [-0.3328467889083823, 48.61317707687872], [-0.30091919768109837, 48.61826766882613], [-0.2850254727330617, 48.617180624387544], [-0.29537235186024174, 48.614908746514104], [-0.3115820614749591, 48.604691995583906], [-0.330102561282997, 48.58356927058174], [-0.3412454153956165, 48.54387779468768], [-0.34058438087435683, 48.52277581025071], [-0.34306715453201436, 48.57005847887519], [-0.30718203446045855, 48.63351117465576], [-0.23992929927549123, 48.66107091320545], [-0.13138326557914368, 48.63686369483561], [-0.09282506385140187, 48.61126290968738], [-0.05985113593039497, 48.550882903707624], [-0.07057950498719685, 48.47835604253468], [-0.06952469623309628, 48.49022966996365], [-0.07289933975551433, 48.543572813171025], [-0.08266629253812315, 48.55952245084461], [-0.06526919184165889, 48.54635331393379], [-0.06328462098969162, 48.545054486421414], [-0.07143900810633232, 48.54714938251129], [-0.07123211305414724, 48.548005010747374], [-0.026342320648086566, 48.537093564249446], [0.014056766458870905, 48.50405930441796], [0.03736953469096994, 48.465474383379], [0.02922939224421553, 48.32334365401846], [-0.04753768627543517, 48.2786068306507], [-0.09521347666383777, 48.27484038161586], [-0.07666038317300806, 48.284241987802645], [-0.06265810995025112, 48.29988962815461], [-0.05401944271053083, 48.32619301715635], [-0.0402171427298562, 48.209828744941255], [-0.08815953013418562, 48.12625845124202], [-0.175569769138699, 48.08149070688396], [-0.1548437703207696, 48.099697692202206], [-0.13936020907720345, 48.126906870486756], [-0.13722343762069567, 48.136464689826234], [-0.1397684346861302, 48.157961156179134], [-0.12954232600655213, 48.14203627011231], [-0.12194218726269372, 48.09773939988734], [-0.12916908086875914, 48.05243121700963], [-0.1515483718902031, 48.01103255803778], [-0.1856627575865288, 47.980397567523354], [-0.22938406824422303, 47.960704897880554], [-0.30276192390885154, 47.949235250274185], [-0.2851437901832826, 47.95630567487362], [-0.25641952348948194, 47.98237954668316], [-0.2435037210105911, 48.041300939952286], [-0.2613446215261207, 48.08326515714678], [-0.237555005785556, 48.06538164758394], [-0.21515033004337344, 48.03901010959792], [-0.1939326864895299, 47.99649866513016], [-0.1961339687163774, 47.91982608338737], [-0.2488183488813453, 47.859550993249684], [-0.29791225621594464, 47.84238762514184], [-0.3452739610778233, 47.83982106543622], [-0.3331995995457065, 47.8436807297567], [-0.3198521500617345, 47.85279474805941], [-0.3030972291246913, 47.87685195830321], [-0.29714714371972994, 47.915307697585185], [-0.3069668997471171, 47.94722061162985], [-0.29654318777400973, 47.93327889742199], [-0.28302460697224746, 47.891352609195145], [-0.2855418205258273, 47.84761671008304], [-0.3020424279825706, 47.81012079588181], [-0.32699251948389985, 47.7830280107907], [-0.35578928742653987, 47.765645333784114], [-0.3901658907451084, 47.75578478240972], [-0.35817294578697395, 47.787778750521326], [-0.35019220223837066, 47.8598667682216], [-0.3726495238152604, 47.8927721851649], [-0.3892972483454714, 47.90167049585416], [-0.3019939448749664, 47.860995589167175]]], [[[-0.5197156721868684, 47.7578746287054], [-0.4476978318093745, 47.85763786793185], [-0.47001957469642086, 47.832063649173996], [-0.46112405512503357, 47.73984441083283], [-0.4463527516545286, 47.709981504145844], [-0.49169647618473955, 47.732061814835106], [-0.5384337977616294, 47.7923012317784], [-0.529465054213026, 47.89102124947867], [-0.46794010925489166, 47.940043217590286], [-0.4353887125734602, 47.94912266621589], [-0.4522754805161001, 47.938925989209295], [-0.46843757201742947, 47.9210832041182], [-0.4797961794741727, 47.895211289916965], [-0.4813913930277525, 47.86584539080486], [-0.4727708122259903, 47.838707102578006], [-0.4807391002528829, 47.848209388370144], [-0.4960308562802701, 47.89420630241481], [-0.48608077087530877, 47.957580041696794], [-0.45337384993826546, 48.001697251940584], [-0.4173944004542935, 48.0250952702433], [-0.3812600389221767, 48.036556934563784], [-0.33262374378405535, 48.039352374858154], [-0.3510656511186547, 48.03143900675032], [-0.38263403128362256, 47.992059916612625], [-0.3861753135104701, 47.94133733486984], [-0.37963566995662656, 47.925235890402085], [-0.37614899421444403, 47.92118835241606], [-0.40628137847387935, 47.94544884285321], [-0.44132627898940896, 48.01186906004771], [-0.4193364765105181, 48.09838845331684], [-0.38074620981671736, 48.13197632512639], [-0.3517900760911485, 48.14313274972581], [-0.28535593175577695, 48.15271310211944], [-0.2935912424134712, 48.14877643247665], [-0.3083256281097969, 48.13521344196222], [-0.3187289191312409, 48.11620478299038], [-0.32193581273730626, 48.096142600112664], [-0.31883967399344787, 48.0774877298877], [-0.3338375653138698, 48.10961684382087], [-0.33649256237930436, 48.15354731017377], [-0.33009379092279656, 48.18707912951324], [-0.3081942296792304, 48.22808630779779], [-0.27516423086130104, 48.25492929311604], [-0.22234446986581438, 48.27456354875798], [-0.2363828572701438, 48.24880325505874], [-0.25270455728946917, 48.34908898284365], [-0.2324218900497489, 48.40562637184539], [-0.19837961682699196, 48.44293801219736], [-0.15363452333616223, 48.466117618384146], [-0.08542631372456483, 48.474985169349296], [-0.07033435361393228, 48.47907888047505], [0.0032703570681227954, 48.48542140194601], [0.02506778837023864, 48.48497800530829], [0.04947006536817011, 48.4814294917449], [0.057264089918282225, 48.4782996861173], [0.027232264230184565, 48.47359004027235], [-0.015992057931256853, 48.439559355116415], [-0.021119802646263494, 48.43701089026042], [0.006752036790595911, 48.475962502280495], [0.04177560574076597, 48.49736552173168], [0.06134577435650101, 48.50372260121305], [0.0812192516303967, 48.50728534489688], [0.08723038010086537, 48.50736799090736], [0.07841260429056916, 48.50519249296368], [0.06529189814602183, 48.49930672839053], [0.058932976230114384, 48.49507339501317], [0.05427726790112043, 48.49042768280024], [0.06040002729091071, 48.49902656116466], [0.08298537809173404, 48.52008420805359], [0.11936188888557486, 48.53979180114419], [0.13923920022400962, 48.54408551792766], [0.13468906285089843, 48.54274157176498], [0.16141367360403347, 48.555242715342494], [0.2742733804863483, 48.57389079553089], [0.3024119457454288, 48.573347977483316], [0.3311649106515806, 48.569283604166415], [0.3850084806191343, 48.5532281767756], [0.4127391369255906, 48.54136776543954], [0.44597041966864437, 48.51527789321923], [0.4696868955482266, 48.47637489860779], [0.47783392848562734, 48.442451471441935], [0.47765595022473545, 48.41424599635716], [0.4727813211080939, 48.390087982229666], [0.4727665938080028, 48.385546476034804], [0.47166873907738494, 48.39121110537993], [0.47119349675940597, 48.39248623115783], [0.46672672279278127, 48.397597287003805], [0.4574988570408962, 48.40655558303254], [0.4591630229826993, 48.40599977704705], [0.4669359389603146, 48.40184496878909], [0.4609690711727746, 48.40280726953379], [0.4580632973101818, 48.402972067335334], [0.48892392809416674, 48.40681710884422], [0.5538545481589211, 48.38408590678302], [0.5904592981380083, 48.335308889041116], [0.5990102310396518, 48.30345515869383], [0.600217064294292, 48.27852561315739], [0.5971217369108562, 48.29406722089918], [0.5649995643491077, 48.34796093531125], [0.541886494196986, 48.36221229910986], [0.6109547285203424, 48.349214489411885], [0.6001088665247245, 48.34141523825604], [0.5768985483315895, 48.328419723402284], [0.5945153928825269, 48.339890373724195], [0.6267708811985229, 48.35160838473952], [0.6777228996047476, 48.35035507285369], [0.7187152204698732, 48.33352113490507], [0.7537524899305297, 48.30599327729199], [0.7766103394609213, 48.280866578114704], [0.7760515891666341, 48.28114929990397], [0.773141342673376, 48.28297682052353], [0.778693756332659, 48.28022883397791], [0.7700652971198227, 48.28083139422633], [0.8128852418413206, 48.28489583693919], [0.8794018452120199, 48.255630242670854], [0.869081427742686, 48.2583687730642], [0.8996257553420222, 48.25703277546852], [0.9249996359745869, 48.25230213525244], [0.9582881230810971, 48.23829752520508], [1.0050027636918422, 48.186102499320334], [1.00076000813875, 48.09430501134002], [0.9468625925021846, 48.04441920948456], [0.918191880628192, 48.0351766987015], [0.8859571719871414, 48.019547387070865], [0.8924370753258133, 48.02520309887804], [0.9271262938783555, 48.07325684064255], [0.9190405354392577, 48.144675221480746], [0.89077442959827, 48.17530980156443], [0.900876715613642, 48.17004316002658], [0.9433153455541008, 48.12293257385421], [0.9377088036676571, 48.024332098250895], [0.87576241037545, 47.97667086494255], [0.8412726425912399, 47.96987365996816], [0.8233099451385666, 47.969945918205845], [0.8451867676428888, 47.976444913488095], [0.8861812883825807, 48.01637602511731], [0.8946868187294912, 48.07719839187058], [0.8852026373568191, 48.10142270889469], [0.8902958502572311, 48.094976894173186], [0.8900475836375323, 48.09410747962693], [0.8608549256985288, 48.118080140253205], [0.8327664629735098, 48.12751236088541], [0.884393286115331, 48.11671858577604], [0.9402331247833895, 48.04936134379943], [0.940058997966549, 47.98767781948449], [0.931862814377667, 47.965508812226936], [0.9332665692400457, 47.97603497704474], [0.9308225336027757, 47.99437555512461], [0.9405475426670395, 47.95766086321795], [0.9220381950772114, 47.892972378228336], [0.8930464509410119, 47.86004359500308], [0.8528352688067962, 47.833166897834595], [0.8395245462717009, 47.82733733948405], [0.8531560743886522, 47.83933149875965], [0.8659484790719302, 47.85780687073262], [0.869581525049777, 47.87024319073716], [0.8706317014149055, 47.87960137047641], [0.8705374322886081, 47.8823353900173], [0.8717263538799837, 47.874088165856946], [0.872450714824338, 47.854356129573034], [0.8704044557753206, 47.83247369758752], [0.8641511094315975, 47.808708341886394], [0.8243385720587607, 47.727037829070596], [0.7936792493920143, 47.69830794262311], [0.7675546551483787, 47.68213634216213], [0.7276511643792589, 47.66436323248167], [0.6909500374805568, 47.652727264749174], [0.6828495625498991, 47.65137859577458], [0.6867092148735001, 47.65263638974721], [0.6850952159765544, 47.65189203705897], [0.6884757369855863, 47.656998081858156], [0.7019089318924424, 47.704971265616365], [0.6945156138404757, 47.74198614313991], [0.6998384559342377, 47.73265333750321], [0.7118235838253291, 47.69648869412434], [0.7043820932769903, 47.63603197989965], [0.6608719120459701, 47.58577713799005], [0.6162762127196866, 47.569631070020094], [0.5960115679540138, 47.56774360655282], [0.5959692297657541, 47.56798507996779], [0.542074059146175, 47.54930212431155], [0.5054884237099193, 47.543944759348676], [0.5127929559922014, 47.54707567198814], [0.5308482138533357, 47.5630794861929], [0.5185303950606717, 47.54776173811711], [0.4532462565184446, 47.519293032817124], [0.40320561775134905, 47.52524019990089], [0.38766219744908254, 47.53274912779665], [0.42031459778311964, 47.53356667606751], [0.45604856024804796, 47.55405193804849], [0.47948910964973834, 47.598519745703804], [0.4794293552192815, 47.632727622200996], [0.4797330650496149, 47.63399554918023], [0.4831852581144636, 47.620461550374806], [0.4865762482221153, 47.561580177530644], [0.4258223412438286, 47.49014742931968], [0.36582249876225126, 47.48037604988248], [0.29915918940801994, 47.4930135346113], [0.271879151227703, 47.4955385911688], [0.22065702340788565, 47.50514062791766], [0.23220563980806538, 47.527822753918024], [0.23313475978251763, 47.5073148607596], [0.1368079893772404, 47.489090823328986], [0.07683680920298701, 47.508369792346826], [0.03927158061250252, 47.513245002052706], [-0.06763009048067686, 47.55411303440559], [-0.09176083638300639, 47.55735101449628], [-0.0577395829199134, 47.56740791923496], [-0.07010360448907649, 47.55439685337174], [-0.13641869215184604, 47.534521342066334], [-0.20055998275496248, 47.54375174085391], [-0.25596511772844244, 47.573651015992574], [-0.2953087743911901, 47.62182120199644], [-0.30936748244279, 47.66508730514728], [-0.30904127419630545, 47.702079134731946], [-0.29214319265353644, 47.74574787172757], [-0.2645263829803201, 47.77468350710122], [-0.22339816421306996, 47.79830723193101], [-0.27685455142892995, 47.743341313797416], [-0.24959014850472983, 47.6359250414689], [-0.19170756022892987, 47.62280902076847], [-0.19859389919022513, 47.61339559645716], [-0.25078638553990595, 47.60580845090285], [-0.5197156721868684, 47.7578746287054]]], [[[-1.065455315456302, 47.66389289687421], [-1.0736554985138023, 47.66075770104134], [-1.1080560425896202, 47.582229158701274], [-1.0687152962490045, 47.508667620206396], [-1.2019613461296228, 47.541613228708165], [-1.249757084643854, 47.58065302355332], [-1.2744085112423595, 47.63680371260728], [-1.274323467831229, 47.67259644886782], [-1.2668253433675827, 47.651044809441004], [-1.252828563209214, 47.63260758484562], [-1.2424374621363754, 47.62518431826096], [-1.2337987204672876, 47.622548418267584], [-1.2507529462008438, 47.62248633848278], [-1.2996077204227314, 47.6422571332151], [-1.3441643157564591, 47.706635959148635], [-1.345979172785357, 47.75351591391376], [-1.3510034871787633, 47.779683086794385], [-1.2870410975725919, 47.8993009600364], [-1.1612728565788806, 47.88365896771823], [-1.1273874854359893, 47.87691227344054], [-1.0121547621652842, 47.873703961219185], [-0.9928072522121585, 47.862908258789034], [-1.044615076061918, 47.83963640201601], [-1.0329760979811904, 47.86216684582389], [-0.9694910469946707, 47.892557272009945], [-0.6204853711472635, 47.83484353608714], [-0.6382967975096242, 47.83193174401854], [-0.6643273228738681, 47.819074369783294], [-0.6388754762076265, 47.84180533103265], [-0.5820773097025973, 47.85760299272792], [-0.5428432446681904, 47.85221373772851], [-0.5550693592605285, 47.85121523351071], [-0.5825853164867432, 47.84009703183403], [-0.5684460284433793, 47.856746161217856], [-0.5050972869232159, 47.87882491103617], [-0.4290586749008495, 47.85786407503319], [-0.4390307211996542, 47.858458126087925], [-0.4136767654041207, 47.86159384439308], [-0.23745361446009403, 47.805363549097144], [-0.2643341008097749, 47.80228240354284], [-0.2190804397710701, 47.82092697923153], [-0.13968585149527019, 47.8030209585311], [-0.09189944857107009, 47.66723868620258], [-0.15346383578693001, 47.610932768068984], [-0.14375561701967987, 47.61526449289878], [-0.12484080734646358, 47.63615812827243], [-0.11187472580369454, 47.66853286526805], [-0.11157051755720998, 47.694690694852724], [-0.11883922560880993, 47.71594079800356], [-0.12924488227155753, 47.72838298400743], [-0.13727801724503755, 47.73347625914609], [-0.14881730784815395, 47.73413665793367], [-0.17052639551092352, 47.727357146628265], [-0.1526784170800866, 47.74343808076504], [-0.10303516361699361, 47.75703298550373], [-0.02064190951932314, 47.74851496559441], [0.08761241938749748, 47.7073149979473], [0.121721190797013, 47.70326820765317], [0.16612001062275958, 47.68693117667102], [0.11729924021748239, 47.67035513924041], [0.1396723601919346, 47.705129246081974], [0.3333346316253717, 47.64308904080335], [0.30989037148663895, 47.52021057765921], [0.31328957936023005, 47.534141210989134], [0.3130118898666737, 47.55417566406533], [0.317263290515046, 47.54528168446146], [0.3229813437574162, 47.51279790417722], [0.3149757903519904, 47.4659910624028], [0.28037839746950327, 47.41040703803015], [0.27858043254278325, 47.4027879066653], [0.26861635457124244, 47.38240605552899], [0.27162918675873227, 47.41061829259387], [0.27785471381535853, 47.39576459919636], [0.26821884190839784, 47.336329941666854], [0.22159328392621458, 47.275822447258385], [0.19317578647793313, 47.250305344085085], [0.19049062317073148, 47.2471318446156], [0.19279119061422595, 47.25073236605724], [0.19266286898119644, 47.25038340458886], [0.17843461433603958, 47.20552866707619], [0.12529126008104005, 47.07260722796788], [0.018437791552494517, 47.0606943073971], [0.041208156831715935, 47.06738217659797], [0.04116327506010523, 47.065379813132864], [0.05311876396913458, 47.086243368596016], [0.053938650020946936, 47.08621590039172], [0.0416932130983209, 47.056056629792245], [0.003376166295436342, 47.013704703913376], [-0.037033547505065725, 46.99624749249915], [-0.05003285559048471, 46.99530718789481], [-0.03376835624570926, 47.00523268066199], [-0.02888023147682492, 47.01007603572033], [-0.02898865402345152, 47.00968252975248], [-0.08342056825493069, 46.96359130568328], [-0.18928405518554636, 46.97415805836926], [-0.22516825108452482, 47.003739756516026], [-0.2453613683234891, 47.03735995249064], [-0.24817102351233883, 47.048432767491], [-0.23116558119685998, 47.022239823940815], [-0.20715538861202054, 47.00519162532403], [-0.18956731383230246, 47.0009755057217], [-0.17955596806161614, 47.00085517781387], [-0.2028495516047821, 46.996518308508264], [-0.2663998577490865, 46.99728337051588], [-0.35688052764701844, 46.99004264356681], [-0.3782322961421431, 46.98278519158875], [-0.44292943436974497, 46.96938487987293], [-0.4846270577458661, 46.96703549376634], [-0.5196672858940233, 46.977511407548036], [-0.5100007417468332, 46.976121847125206], [-0.5020395967291531, 46.976594202736436], [-0.5068460202019446, 46.975150165289726], [-0.49977057283180865, 46.97843818958614], [-0.48061592048489127, 46.99426351603389], [-0.458812863837156, 47.04641853477778], [-0.470672036865155, 47.09998781403839], [-0.4540907214851208, 47.07824231809744], [-0.44953285517173946, 46.99820360549503], [-0.4951198823916872, 46.9410266818231], [-0.5479101315392161, 46.92068192295919], [-0.5623480663865184, 46.910789245801254], [-0.5824049763228776, 46.9023314740209], [-0.6163871264455075, 46.893723008818654], [-0.6959671326202354, 46.88809221459864], [-0.764355993315378, 46.89209070092359], [-0.7838544812676524, 46.89703844330299], [-0.830997480599423, 46.88990899013865], [-0.8590271509095407, 46.88995262961486], [-0.8840733658459102, 46.893959882825634], [-0.9059509331025956, 46.900761998068695], [-0.9417390083890909, 46.917159973382496], [-0.9392703239504575, 46.91622425386017], [-0.9186643960297337, 46.917901441132436], [-0.8693332002232578, 46.94393229451924], [-0.8458416572917192, 46.98690458633451], [-0.8454885210225573, 46.986206178952884], [-0.8979588262412911, 46.91268288327244], [-0.9970764749756004, 46.909713608811856], [-1.0238833425984601, 46.92507368140329], [-0.9938868665684638, 46.9203919850925], [-1.020243704053448, 46.904266606546706], [-1.094840873969576, 46.90913218890186], [-1.2485538271816163, 47.02603043503612], [-1.2116747934487608, 47.07698647222714], [-1.2045916890155308, 46.99676956925498], [-1.2063617022668678, 46.99525305882058], [-1.3227677112175094, 47.07181351539886], [-1.2998791448217029, 47.190981994538184], [-1.2612995416343202, 47.19631997398731], [-1.2660313009045256, 47.162652544775625], [-1.2729952322167368, 47.186092173169456], [-1.2330502198845579, 47.15512971015492], [-1.221942751580502, 47.143182882256], [-1.294441529192898, 47.15655748339485], [-1.344216410323266, 47.20670278618424], [-1.4195902518637622, 47.24133687922083], [-1.4157344659001887, 47.3824807654003], [-1.383468362320743, 47.411169901442], [-1.3832826040954176, 47.41127348996951], [-1.383079765245824, 47.411387781800975], [-1.3827286434386885, 47.41158398992587], [-1.3824323666180427, 47.411750396900025], [-1.3819730195428617, 47.412007817459546], [-1.3814967617521792, 47.41227456345239], [-1.3809944527296145, 47.41255589397548], [-1.3804342548808615, 47.412869884227575], [-1.379845597439093, 47.413199604083154], [-1.3791864766116226, 47.41356939780702], [-1.378476643441795, 47.41396674984544], [-1.3777333865547945, 47.41438321108147], [-1.3770151728066127, 47.41478473159548], [-1.3762845287617287, 47.41519494014806], [-1.3754338953669325, 47.41567184430883], [-1.3745758522568443, 47.416152432974734], [-1.3737511833446643, 47.41661412255248], [-1.3728633410041262, 47.41711211881055], [-1.3719567088541649, 47.41761923189887], [-1.3711272336754254, 47.41808395832662], [-1.3702075100970943, 47.418600213628714], [-1.369258316877977, 47.41913161280349], [-1.3683559628967514, 47.41963709001542], [-1.367466756002916, 47.42013519690675], [-1.3665572810636377, 47.42064534201874], [-1.3656305693424746, 47.421164509439656], [-1.3647632740544036, 47.42165042157917], [-1.3638627479519123, 47.422155685324675], [-1.36296915828306, 47.42265590144165], [-1.3621493579353587, 47.4231152989266], [-1.3613452815197076, 47.42356620084033], [-1.3605141176591717, 47.42403263058501], [-1.3597068440527758, 47.42448479527808], [-1.3589614989009373, 47.42490250610385], [-1.3582941864749, 47.4252763990036], [-1.3576042852461454, 47.425664149333365], [-1.3569235390414662, 47.42604551560933], [-1.3563538241186295, 47.42636516352762], [-1.3557583532773507, 47.42669937716065], [-1.355273939726433, 47.42697065981387], [-1.3548181928259813, 47.42722690545198], [-1.3543783666186124, 47.42747339689971], [-1.3540696571940791, 47.4276467305446], [-1.3538227417837903, 47.42778545610202], [-1.3536292758949215, 47.427894392958535], [-1.3536990180194373, 47.42785468672936], [-1.342393959537682, 47.43337672597328], [-1.3018609610386809, 47.44458765249397], [-1.2541126992935803, 47.447391931588896], [-1.250605652962973, 47.447328886109545], [-1.1922881493904283, 47.471945953696896], [-1.1373115335731887, 47.48116777126062], [-1.0086598964922175, 47.48294569887219], [-1.0150571402357207, 47.48224017973142], [-1.0148355883313689, 47.48227233943437], [-1.0142945908132643, 47.48235015844611], [-1.013635981231176, 47.48244425670458], [-1.0128560331812015, 47.482555530118205], [-1.011939311092666, 47.48268605770502], [-1.0109397684261299, 47.48282843032633], [-1.0097647132825918, 47.48299686654748], [-1.008421604408957, 47.48318830616426], [-1.0070045065416149, 47.48339032207181], [-1.0054798783826728, 47.4836078423519], [-1.003857900077021, 47.48383941151404], [-1.0021129308145669, 47.484088978357036], [-1.0002773004608299, 47.48435063827533], [-0.9983909977618898, 47.48461996906057], [-0.9964078614218551, 47.48490341705399], [-0.9943419005048151, 47.48519826588651], [-0.9922404619339537, 47.485497757898464], [-0.9900904773647438, 47.48580475686304], [-0.9878957850588119, 47.486117856381824], [-0.9856662305630481, 47.48643650718256], [-0.9833709251395656, 47.486764404985905], [-0.9810929452398021, 47.48708869008366], [-0.9788051607746949, 47.48741608844316], [-0.9764721527529996, 47.487749088619275], [-0.9741591345474612, 47.48807909121726], [-0.9718570731491409, 47.488407671826884], [-0.9695506964072839, 47.48873686537395], [-0.9672918412117953, 47.48905856112867], [-0.9650647850588147, 47.489376856381824], [-0.962857477364741, 47.48969175686304], [-0.9606901788758128, 47.490001226185484], [-0.9585806174299893, 47.49030173405539], [-0.9565578614216815, 47.490590417054015], [-0.9545809977618965, 47.49087296906057], [-0.9526573004608219, 47.49114763827533], [-0.9508409322604126, 47.491406549199716], [-0.9491169015865427, 47.491652982799714], [-0.9474648783826587, 47.49188884235191], [-0.9459146532178291, 47.492110014100376], [-0.944482751037424, 47.49231399785438], [-0.9432148215169713, 47.49249470850958], [-0.9420242761013209, 47.492665214607655], [-0.9409367101812417, 47.492819997554335], [-0.9401121033331054, 47.49293737728336], [-0.9393665577449772, 47.49304473648786], [-0.938629694129537, 47.49314982742839], [-0.9382791712498301, 47.493199229971076], [-1.0185893305634948, 47.42605224535131], [-1.0220465782767811, 47.35285702374604], [-1.0482475445971478, 47.40054453770939], [-1.0631081431976233, 47.450705345236194], [-1.0375937685118322, 47.42236239105039], [-1.1555174751608999, 47.40856724833747], [-1.2144463794814429, 47.43785965934356], [-1.264693865022527, 47.49849962691499], [-1.2674690442851144, 47.610198360699634], [-1.1788507432639332, 47.6698346742645], [-1.065455315456302, 47.66389289687421]]]]}}]}