{"type": "FeatureCollection", "features": [{"type": "Feature", "properties": {"name": "polynesie-francaise"}, "geometry": {"type": "MultiPolygon", "coordinates": [[[[-151.40735244658583, -16.73807737346899], [-151.50293626194008, -16.76349921826248], [-151.58936622852016, -16.699300759332893], [-151.6121541336736, -16.626079464137703], [-151.54806635389184, -16.483412064446977], [-151.39508203944888, -16.525520659685593], [-151.33816336042887, -16.619505303579384], [-151.40735244658583, -16.73807737346899]]], [[[-149.73639705328705, -17.6084911163484], [-149.83086224732264, -17.670100683383755], [-149.94896002981292, -17.630983991248215], [-149.9955314308527, -17.570477875376426], [-150.01178494260628, -17.498679909676895], [-149.9597299100777, -17.387773287019485], [-149.78253961490708, -17.377432633480613], [-149.68669545857628, -17.458871913107316], [-149.73639705328705, -17.6084911163484]]], [[[-151.39346400730608, -16.976388334617937], [-151.46784472910517, -16.97759304282526], [-151.57143162330468, -16.914813102703526], [-151.57308365571123, -16.73514191524828], [-151.49543692869548, -16.64385162548454], [-151.33770351162056, -16.706583979024963], [-151.2724455029401, -16.903316947106404], [-151.39346400730608, -16.976388334617937]]], [[[-149.2432118617719, -17.62786344767712], [-149.1079740247026, -17.664925529430818], [-149.05143337604116, -17.822624126030536], [-149.14055892393586, -17.953410684477138], [-149.29437293360857, -17.941605386712318], [-149.36593560883227, -17.888083406108997], [-149.38528446321226, -17.822137560733292], [-149.48355503572148, -17.85271658803755], [-149.64026163215362, -17.81392609610599], [-149.7300435611701, -17.640945146005127], [-149.7307649791803, -17.53543120756342], [-149.67088789422627, -17.451240234238572], [-149.51459908463033, -17.396598088467634], [-149.3254813608298, -17.438016006917977], [-149.23648504446882, -17.553746273802997], [-149.2432118617719, -17.62786344767712]]], [[[-139.03189863210943, -9.595502895968979], [-138.86367681467325, -9.64775141081038], [-138.73818715061532, -9.696313411947429], [-138.8267148056938, -9.880468200633663], [-138.99221108451613, -9.915425511419722], [-139.06339196863541, -9.9451721673561], [-139.1959114968313, -9.908086613820492], [-139.26220176788658, -9.741360945877956], [-139.03189863210943, -9.595502895968979]]], [[[-138.96029270810843, -9.920633048676793], [-139.17091470579626, -10.10250074286472], [-139.21724093527837, -9.870511425759446], [-139.1265977137238, -9.817276198126981], [-139.05376359635957, -9.819846506791952], [-138.96029270810843, -9.920633048676793]]], [[[-138.58955365104788, -10.594130574032855], [-138.7404165284161, -10.617425557280017], [-138.74647693384657, -10.342801664489691], [-138.58848003001407, -10.362015405453043], [-138.52834770394048, -10.435386372087976], [-138.54333964138036, -10.53771888021231], [-138.58955365104788, -10.594130574032855]]], [[[-140.01683146846796, -8.99344954266278], [-140.1633426272418, -9.033723424630915], [-140.27612640242526, -9.0106507514598], [-140.35235737579455, -8.856147422656987], [-140.32735037939673, -8.748807353588427], [-140.25770825283556, -8.68724828791007], [-139.99600290418624, -8.722739765070784], [-139.94476086724342, -8.823956320604358], [-139.95207940709003, -8.907574721949029], [-140.01683146846796, -8.99344954266278]]], [[[-139.99837899140368, -9.489471166155358], [-140.11116615433036, -9.543183783333932], [-140.22921863590838, -9.425434825536305], [-140.2339943997525, -9.31498856653215], [-140.0713225734145, -9.228125705279435], [-139.93673926545284, -9.31163173034034], [-139.99837899140368, -9.489471166155358]]], [[[-140.73508441624003, -17.78970140659964], [-140.72754344057935, -17.93960940778838], [-140.87117206527054, -17.968427485976243], [-140.9393115260204, -17.9145605308699], [-140.946636830388, -17.802730743465247], [-140.91034605621428, -17.737090374924076], [-140.87973976900184, -17.68681622588604], [-140.81373518906997, -17.6325453710359], [-140.72480560873058, -17.591549004072927], [-140.63717391180177, -17.570527929384752], [-140.53914199656367, -17.691486985846574], [-140.6098547669427, -17.773766336388647], [-140.71093484071582, -17.82976601048067], [-140.73064985994367, -17.85713048169326], [-140.7328677803488, -17.84680977376349], [-140.75638785191623, -17.78072521326565], [-140.73508441624003, -17.78970140659964]]], [[[-139.52630780152973, -9.03566144199242], [-139.67898887415922, -9.029415720486057], [-139.72939888838363, -8.876811297594974], [-139.67365922093006, -8.793816983094072], [-139.5897822411728, -8.76022723952618], [-139.48699052123607, -8.78743536799982], [-139.41616494482204, -8.8583154441151], [-139.4264344776241, -8.970684088786296], [-139.52630780152973, -9.03566144199242]]], [[[-140.61164531033126, -18.312301020907384], [-140.61079383501044, -18.495290593317293], [-140.74582761713722, -18.4858486831869], [-140.84904662901474, -18.42899007528314], [-140.84645112063214, -18.257942135273538], [-140.61164531033126, -18.312301020907384]]], [[[-140.74210161795955, -18.141454802014326], [-140.75931616792374, -18.294237459024824], [-140.92503867743812, -18.27474079870675], [-140.97205536996023, -18.212237382379048], [-141.03795082401163, -18.14597097789055], [-141.04604949626528, -17.99032037589855], [-140.86358826663866, -18.00498135149166], [-140.81871471856863, -18.053854396712616], [-140.74210161795955, -18.141454802014326]]], [[[-136.19434953604366, -18.534822771641917], [-136.34600548041232, -18.661070162641185], [-136.3953420024098, -18.60610330217441], [-136.38541077021023, -18.625905339534057], [-136.42799491554626, -18.602932015629552], [-136.46407409979864, -18.58495102414389], [-136.5088615750378, -18.57456051447795], [-136.57633390999607, -18.450024655663082], [-136.46056409407115, -18.363201543945944], [-136.3878396524906, -18.381934263149716], [-136.33865688082173, -18.40589283052489], [-136.27786628195966, -18.432601487689446], [-136.19434953604366, -18.534822771641917]]], [[[-136.87810188089583, -18.306864196649247], [-136.93196656873434, -18.45286128540742], [-137.15586370422164, -18.218367817583104], [-136.97868775922714, -18.186805669086326], [-136.87810188089583, -18.306864196649247]]], [[[-138.41365703169214, -20.89594130020233], [-138.59944505654866, -20.95222792253298], [-138.62401714011767, -20.849503437242213], [-138.6158946682675, -20.867010560574084], [-138.6673982596931, -20.800937414205446], [-138.53128001521662, -20.67233869091845], [-138.4237296783619, -20.772385161377244], [-138.41365703169214, -20.89594130020233]]], [[[-142.43516875516522, -16.160516718776517], [-142.59019837394203, -16.186669084285242], [-142.58070668522984, -15.960331315604856], [-142.41044887794132, -15.947103790126151], [-142.43516875516522, -16.160516718776517]]], [[[-143.39332535407416, -16.531594279290875], [-143.3027258058738, -16.72393941187129], [-143.48747401456708, -16.73117314594122], [-143.65058108308168, -16.625629723952372], [-143.52657191869335, -16.512911389681783], [-143.45100520219032, -16.514515761207164], [-143.39332535407416, -16.531594279290875]]], [[[-143.47176384324422, -16.645891789972275], [-143.63097037790763, -16.738342609059874], [-143.80364039142043, -16.55361893479329], [-143.641081333148, -16.48519694139913], [-143.5687661830366, -16.52928904348002], [-143.47176384324422, -16.645891789972275]]], [[[-144.95553051381796, -15.827500352107243], [-145.044290496635, -16.000175442520945], [-145.1608293227473, -15.911230346684928], [-145.2157675189356, -15.850877095230862], [-145.24550543520323, -15.703972918122226], [-145.08412778397997, -15.675075593582259], [-144.95553051381796, -15.827500352107243]]], [[[-145.39425637654836, -16.291578688995962], [-145.40455165827206, -16.409757483385317], [-145.55007662819025, -16.433884344373613], [-145.62932700645635, -16.339757693940957], [-145.64642089307415, -16.287170282396488], [-145.65999781071073, -16.25680914160856], [-145.7004565213127, -16.20597279179556], [-145.71258608463606, -16.13826563908956], [-145.6359647302988, -15.981682220228146], [-145.48749350025696, -16.11547071233873], [-145.453112966107, -16.179446990400535], [-145.428587280694, -16.231092235297673], [-145.39425637654836, -16.291578688995962]]]]}}]}