{"type": "FeatureCollection", "features": [{"type": "Feature", "properties": {"name": "Provence-Alpes-C\u00f4te-d'Azur"}, "geometry": {"type": "MultiPolygon", "coordinates": [[[[7.77192968066122, 44.14506123035902], [7.789261914788812, 44.10751806405193], [7.7796173720980395, 44.02306982203159], [7.738188049538486, 43.97614227100382], [7.720250990239322, 43.9656851598434], [7.730710659017405, 43.976308733460044], [7.738324011117588, 43.98685608923247], [7.7277214767657, 43.95954026195405], [7.704570580474551, 43.925884637501234], [7.666079432873982, 43.89377418502567], [7.621567107721077, 43.867783289949465], [7.606075434229788, 43.848684853041114], [7.56516411010381, 43.81651848386172], [7.575283387455897, 43.84292214456754], [7.578597033572224, 43.86865744091706], [7.596048335559455, 43.75744863382056], [7.513499069420698, 43.688488733328015], [7.480467346639372, 43.685483140150254], [7.490422074651254, 43.68630537422802], [7.551427876887527, 43.71836749323208], [7.575721638645443, 43.778095709850625], [7.577096686925182, 43.76166725406404], [7.550613414795515, 43.69759879162956], [7.482476740375583, 43.662695760394676], [7.485979505536384, 43.664869721460754], [7.513112623140056, 43.67620738085327], [7.509077881104251, 43.67226987389904], [7.428802410548774, 43.64373595294873], [7.369000137922063, 43.6734706388361], [7.401257050820177, 43.66366926509462], [7.433814095018529, 43.66925068907511], [7.451619668036022, 43.68447581692151], [7.463318337781523, 43.70631543179628], [7.448503429345425, 43.66658848299545], [7.406973755540137, 43.63138997866021], [7.41993399990977, 43.644804489942636], [7.426226006802757, 43.651114019699655], [7.383120953270632, 43.60136809385113], [7.317377257071567, 43.585263199819096], [7.2810158748108, 43.58968664045464], [7.270588974009229, 43.593794062403816], [7.281182639384461, 43.594548416352566], [7.293567253130496, 43.59938687283273], [7.324179069776613, 43.64508865128979], [7.3275796020906485, 43.634678517644694], [7.265838503983509, 43.56327677957311], [7.171923639311131, 43.54957354884412], [7.139326003459257, 43.57499714162742], [7.184367339484189, 43.56033480101082], [7.184450264117354, 43.55805197752334], [7.199491791473816, 43.56697303268723], [7.20896527976347, 43.56924584305191], [7.209488531767323, 43.572752568739986], [7.227214232592489, 43.60014797160736], [7.226145781630869, 43.60455096790819], [7.230900512698556, 43.594187414199894], [7.230468932199043, 43.59398831364315], [7.231387479608427, 43.59323785166932], [7.2304771593219845, 43.51381360618491], [7.10118985727492, 43.450770670054546], [7.050912188360346, 43.48610659485059], [7.082776029445807, 43.47064316812953], [7.108360428607689, 43.47068084501486], [7.124426379047808, 43.47624037582854], [7.11608555703011, 43.468407378036545], [7.100603607605614, 43.458975056055074], [7.016586101337247, 43.43841214911139], [6.982386851473864, 43.46029783229973], [7.012553368559589, 43.447105330747846], [6.994784145571839, 43.44891065763834], [7.003988543996575, 43.4510601795167], [7.015172646174938, 43.455360825040955], [7.0276259617566375, 43.47062742825663], [7.032977774556403, 43.551440423575826], [7.048940096025185, 43.51895260981272], [7.048555122522609, 43.51665432696641], [7.037523527544844, 43.55930793858077], [7.048073849942062, 43.465374493865895], [7.001515821619147, 43.40733299556344], [6.8899920180386, 43.39015527814191], [6.824499468557492, 43.4254632390461], [6.779572983277473, 43.50502022834704], [6.799074775687857, 43.58968416688652], [6.820824295802256, 43.619074676629644], [6.8147631468546574, 43.59890956034162], [6.822409445131516, 43.55390115500347], [6.862406780840598, 43.51671157160381], [6.89310527367378, 43.51003909166854], [6.877738062190433, 43.50685528273838], [6.833714937472802, 43.50822280163333], [6.789119890894048, 43.525128865375464], [6.712492619946497, 43.57721078624338], [6.685886273348878, 43.606344814412004], [6.668573995302269, 43.65955250105458], [6.672208949858997, 43.69228886834159], [6.6746990048905595, 43.6737893048162], [6.676507107202342, 43.672073350209544], [6.710650091784746, 43.64598713160233], [6.696790369689862, 43.64146371306458], [6.621757019531395, 43.66264931910599], [6.571427775116886, 43.70146629777628], [6.541033357892795, 43.81903277683287], [6.609347628027295, 43.8872302094663], [6.649744819114294, 43.89912295350253], [6.672667578580415, 43.90147530205942], [6.642294761762027, 43.88698614587007], [6.607870513835676, 43.83535758454746], [6.609112005797812, 43.78602666881348], [6.599872219353408, 43.80225990509537], [6.59235513295066, 43.84894355224308], [6.602400640581501, 43.89298320325095], [6.6210347421782805, 43.925189620050105], [6.650988531598267, 43.95363330516209], [6.692598680951141, 43.972260495929234], [6.732871816453504, 43.97386918416308], [6.717099397079439, 43.967273770862604], [6.744341080345718, 43.99130029298608], [6.781037411463108, 44.0082902874878], [6.828978687436103, 44.015168817436745], [6.8707485683285885, 44.00898211877401], [6.913614167376567, 43.990335525466975], [6.902402317513827, 43.99187429076962], [6.846448030720778, 43.925703245063104], [6.8562757021754726, 43.84065209582197], [6.791827046477108, 43.880691261690444], [6.7584124585337735, 43.926898708366096], [6.739568274670997, 43.93104237610331], [6.672127526735053, 43.98535931700062], [6.656909813243099, 44.05287984115799], [6.662399961119219, 44.04407504660096], [6.644702222088394, 44.05628184395587], [6.5977639821701635, 44.129876075760315], [6.607777228459708, 44.22105477651802], [6.645323580790742, 44.29783371368832], [6.672810722020378, 44.333979545269685], [6.7017425448438, 44.355248804748065], [6.733229956762319, 44.39370271991899], [6.777780301094225, 44.42135255559777], [6.817724533210577, 44.43398672129723], [6.886327551371676, 44.45431105160522], [6.967599726332413, 44.40962910261519], [6.986368247185875, 44.38649024289887], [6.999204475202174, 44.36461028997129], [6.992219705255538, 44.3725653810494], [6.983466440811818, 44.38001891368125], [7.005615171431345, 44.36824084282593], [7.0343795333743415, 44.343339784243874], [7.055359991209146, 44.31150910606703], [7.060570687087097, 44.298032939123225], [7.051009327410847, 44.31251050519738], [7.029538542962409, 44.330154594244284], [7.004610969918822, 44.33745865239436], [6.990434661441344, 44.33765338614328], [7.005154507991253, 44.34099651438486], [7.040675241698087, 44.3426727102979], [7.074270089251664, 44.33623647436985], [7.135514167103621, 44.312955299921036], [7.178063668704729, 44.301589945309814], [7.286243484741908, 44.25374815024326], [7.290801845903752, 44.252148835661345], [7.315699674140484, 44.249231216285054], [7.3608576451311505, 44.23317135813222], [7.394808639625675, 44.20204444414068], [7.393691404311623, 44.2011824086478], [7.368935834566571, 44.217792622798065], [7.3497597116694875, 44.22324508523663], [7.37149486192826, 44.222505259651456], [7.541699594216473, 44.25820606546267], [7.558977878330002, 44.25763761971259], [7.609266892602847, 44.2788917586613], [7.742393158916904, 44.22579523140107], [7.741484631472804, 44.152554964246534], [7.72637100505687, 44.19405544625623], [7.748747461604407, 44.17781605453103], [7.77192968066122, 44.14506123035902]]], [[[7.024042845880274, 44.709430318502235], [7.03405507465898, 44.65417240380466], [7.041277131531946, 44.59635558252987], [6.995486729336819, 44.540977639290986], [6.961518691333426, 44.49873504623984], [6.9109029581245585, 44.4710615929213], [6.931693253500743, 44.505877445578996], [6.931432217581245, 44.540684531089276], [6.9309643990875704, 44.54661766868538], [6.9475485396014935, 44.53488342416797], [7.017468014239142, 44.42816532095781], [6.943281016594256, 44.34233761794582], [6.966214072930013, 44.368862605773515], [6.963505328907123, 44.35104587686846], [6.963993863588536, 44.35570017153125], [6.964651496303017, 44.389216969350144], [6.954509993786194, 44.41613943341861], [6.943346654923123, 44.430406701019514], [6.978123101143529, 44.34673107435429], [6.9001274667894235, 44.25175127870277], [6.8596956989057745, 44.238897444402234], [6.864782043237682, 44.243057280081004], [6.839843455156201, 44.210583195251935], [6.813843277979622, 44.19217045473032], [6.816282419209258, 44.194040286311676], [6.796874771540293, 44.15592322348198], [6.792300017829837, 44.17630592423969], [6.790229777911606, 44.19347415604413], [6.828430038880782, 44.15558295339904], [6.8524641867569, 44.09481415884201], [6.843092473264947, 44.08914268299937], [6.830055725329002, 44.10940162389668], [6.878887541466226, 44.08654129163391], [6.924616953522891, 44.03024673830956], [6.974822297824528, 44.00173190417802], [7.038175969279223, 43.8687787549369], [6.915161682486174, 43.79228170923037], [6.872483832623434, 43.79461047453303], [6.8166494316714115, 43.81643788122599], [6.827657312563898, 43.81517318256326], [6.837804588536893, 43.81651571251219], [6.854286919654282, 43.82423170701392], [6.831958602920562, 43.8035442291374], [6.7867421835464965, 43.781260815836916], [6.740223319048859, 43.77801350407077], [6.763771468401733, 43.7884666948379], [6.779047257821719, 43.80258437994989], [6.787311359418498, 43.81677279674905], [6.79221486704934, 43.841454447756924], [6.788125780646592, 43.869792094904625], [6.798353994202188, 43.85073733118652], [6.801879486164324, 43.78677241545254], [6.760073238237972, 43.72534385412993], [6.717044421419584, 43.70646069794058], [6.688989180885707, 43.70301104649748], [6.684738371972705, 43.701983790533696], [6.624185034985279, 43.68965223152587], [6.585737849934585, 43.71152360171954], [6.619881414936526, 43.70738197792704], [6.600480323971734, 43.69887495218345], [6.54346325093409, 43.691214073570336], [6.503549899942386, 43.70118385755367], [6.489830772404349, 43.70875835585357], [6.507275514404466, 43.703723898719645], [6.53101441523139, 43.703570196334226], [6.513345291686545, 43.697084981747444], [6.47703773524902, 43.693422263721644], [6.446642250462194, 43.69628002051413], [6.468939299412413, 43.702901675636205], [6.490150943392738, 43.71882002905988], [6.484883070019011, 43.704551070663534], [6.434670738610845, 43.653700295222], [6.341469585681031, 43.63727068933936], [6.2775080357091335, 43.6612917716892], [6.217226379396732, 43.704695991387446], [6.239774076736167, 43.701140330153365], [6.258685292075824, 43.702466683135505], [6.1866816499126625, 43.64874001550151], [6.120394395443533, 43.62731249258652], [6.125247915156503, 43.630886579878585], [6.1024464503845826, 43.60035369653364], [6.03919707778876, 43.572190400302325], [5.954165236685882, 43.59296543657877], [5.916972203618772, 43.63729128194572], [5.924740940148774, 43.63049825197743], [5.902208317766533, 43.642355561417595], [5.8827135350671025, 43.66291832306308], [5.910063655502365, 43.651391564499924], [5.948696221491778, 43.656279428510025], [5.978564755056173, 43.67659128458983], [5.962729733137061, 43.65731289473859], [5.904742985061299, 43.627588103538145], [5.834580011900615, 43.62763422319099], [5.800546892915566, 43.660668861177165], [5.827488170231448, 43.66324599600176], [5.772099739752556, 43.63374831704812], [5.704989758114708, 43.644709578931476], [5.609323772526889, 43.7275909155117], [5.602287214333571, 43.735257707384], [5.478943846432192, 43.74230872002619], [5.454632406290865, 43.875583633577264], [5.495377919035938, 43.93307574051683], [5.48944521939501, 43.9082494608644], [5.4932018651779915, 43.88481191956014], [5.511586851567857, 43.86037655167678], [5.54083726944025, 43.84510553047498], [5.515416558266161, 43.84404866592031], [5.462051470201069, 43.863370854836106], [5.413301564039391, 43.92554943697211], [5.4124137850380665, 43.997531682754605], [5.447669011877899, 44.062942939600646], [5.445234988058209, 44.053949474492406], [5.446991753364604, 44.02571678468527], [5.4755677920182375, 43.98252895830217], [5.501463895808019, 43.96811006407338], [5.5381600907230055, 43.972117125379484], [5.456710428062813, 43.97458107879064], [5.423852925765154, 44.17857823381361], [5.486168925994318, 44.22183408600609], [5.499762884088411, 44.23232102003783], [5.513509626790211, 44.246057843454246], [5.550933749452444, 44.27010270394051], [5.600328834231417, 44.28096939499375], [5.656884867490824, 44.273285855968886], [5.702321789757043, 44.249005118241534], [5.73339576594787, 44.208830447881944], [5.734008352358689, 44.20458199930455], [5.71385624546849, 44.23029063679974], [5.688542518437661, 44.24457362306138], [5.655007509504243, 44.24841011494714], [5.612600719075926, 44.2323133935129], [5.577967799903874, 44.180295217202605], [5.574343939772234, 44.20689707208456], [5.639613477205147, 44.28261943974526], [5.6989109556449185, 44.28840544473369], [5.802394311590602, 44.31066592796745], [5.850807338122277, 44.30412132677819], [5.887750253655835, 44.290663864943], [5.8597377318161445, 44.28676297824031], [5.801984367402968, 44.21544611425304], [5.8159543331458465, 44.148064912527644], [5.793254839430432, 44.16828728402992], [5.751537379364189, 44.19884125353414], [5.723248020214088, 44.282123730756645], [5.788920374958785, 44.38908654921393], [5.895557367097692, 44.391383789989945], [5.867475219233647, 44.356862248725], [5.817234877450131, 44.3040721544684], [5.822476930897831, 44.282053092189884], [5.851202643157576, 44.234861266834855], [5.829532196727821, 44.252679570375626], [5.8039307293153, 44.330136910064596], [5.82579183388666, 44.393116423462644], [5.852651463265536, 44.42179188495448], [5.8634061927979575, 44.42993013344969], [5.858327430278205, 44.423766185312886], [5.876169872360342, 44.4560094394344], [5.906518830833059, 44.486047887846524], [5.9419218120536925, 44.50587876978295], [5.976050822738686, 44.5172914498411], [5.976421513996934, 44.51753864262812], [6.027613257456989, 44.55645212218863], [6.082601967967532, 44.572876137009835], [6.0984136519509, 44.57349133500486], [6.098428485891881, 44.57349143891825], [6.0987746773956895, 44.573478340555354], [6.099165716260558, 44.57346463106705], [6.099614653689541, 44.57344761386525], [6.100045469371703, 44.573432854816], [6.100761175132884, 44.57340749650232], [6.101478181968914, 44.57338137745733], [6.102137867975321, 44.57335757473477], [6.102941616789286, 44.57332972492684], [6.103825289528376, 44.57329795734944], [6.104711873897661, 44.57326685701127], [6.105663009442971, 44.57323313408593], [6.10666945856874, 44.57319797741374], [6.107729715052465, 44.57316029702627], [6.108790124573102, 44.57312284816947], [6.109893446719396, 44.57308397783127], [6.110994107744028, 44.5730451819037], [6.112174149082413, 44.573004410397196], [6.113342406208749, 44.57296271700384], [6.114536920523003, 44.5729216639527], [6.115753785044935, 44.57287821234187], [6.116949195912847, 44.572836829394525], [6.118201975353767, 44.57279253558198], [6.11938262174803, 44.57275077948957], [6.120569314834976, 44.572709662217044], [6.1218018594092385, 44.57266670112922], [6.122993838913374, 44.57262473687205], [6.124180845659351, 44.57258338593577], [6.125360757326708, 44.57254161399085], [6.126440912818206, 44.572503502312294], [6.127550039705223, 44.57246542827358], [6.128686715052454, 44.57242529702627], [6.129708458568398, 44.57238897741375], [6.130653967089967, 44.57235595198651], [6.131618913643309, 44.57232274563946], [6.132551475320333, 44.57229006434442], [6.133395863355339, 44.572260677906804], [6.134265011112253, 44.572230498950276], [6.135025893811817, 44.5722030779255], [6.135604238249072, 44.57218287510995], [6.136295561391534, 44.57215939591888], [6.13682919050639, 44.57213996947681], [6.137246914140716, 44.5721260237774], [6.137702679100625, 44.57211002229389], [6.137992536383468, 44.57209996691839], [6.138261500449964, 44.57209064362997], [6.187925991615281, 44.556930513805554], [6.221918165608903, 44.52015200429676], [6.238401531779694, 44.501491777789624], [6.224103971521419, 44.51315664486503], [6.238013437753912, 44.5117804481484], [6.268870963071878, 44.47478442174408], [6.219136130368799, 44.483312855616845], [6.183995520888072, 44.4648882174126], [6.170936021880016, 44.437874903429694], [6.170492086120981, 44.42239362250684], [6.169802831837279, 44.5135921581069], [6.259168209380245, 44.569307805798516], [6.262646729702346, 44.572015891463316], [6.360403924337083, 44.63457279965829], [6.489338577018342, 44.56084432040061], [6.502786103766984, 44.55248354690299], [6.524544121591864, 44.548534800500285], [6.598551964014766, 44.545718414794344], [6.566271604880115, 44.52916176832138], [6.5666895729892065, 44.5425707855821], [6.587338905684835, 44.56131720667108], [6.5787714753589315, 44.545809636462835], [6.590935110930558, 44.58295769627801], [6.640272440820932, 44.63053326958174], [6.678692728009394, 44.6370520355028], [6.745325222992096, 44.687974429072085], [6.824303098979503, 44.71600073840393], [6.850141126523276, 44.738229765160405], [6.904814333195993, 44.759908709162076], [7.024042845880274, 44.709430318502235]]], [[[7.119145690163123, 44.771681924477285], [7.135744273936359, 44.748282872999155], [7.139395700107882, 44.63098682379461], [7.027567646966389, 44.58508427875069], [6.991055554249736, 44.59277638953595], [7.001650294728821, 44.593948202383125], [7.011907827309862, 44.5977750706234], [7.024359018142634, 44.61105330964169], [6.989762636511121, 44.57222854536268], [6.933227666804007, 44.56193729083792], [6.9570508734767245, 44.5692022348396], [6.923518901020496, 44.542345261596076], [6.838536777007904, 44.51102357092792], [6.748767271990606, 44.4497299644972], [6.7277295591790685, 44.450668730418265], [6.766432889069441, 44.487038303721995], [6.767960524641068, 44.48094436353716], [6.7506930943151655, 44.44592479332893], [6.725726427010793, 44.421297214417905], [6.6944603951198856, 44.37564423167861], [6.6272880359852335, 44.34779358520566], [6.5010358784081355, 44.34992119949971], [6.432091896233016, 44.36539445309701], [6.375841422981659, 44.396167679599394], [6.370084075662916, 44.43480720034171], [6.3867612702976535, 44.41518610853668], [6.334869790619754, 44.384188194201485], [6.347595168162721, 44.42199584189309], [6.3648779138790195, 44.46944837749316], [6.3684779781199845, 44.4066150965703], [6.337136479111928, 44.336249782587394], [6.2529098696312015, 44.286185144383154], [6.165249036928122, 44.30372157825591], [6.128914562246088, 44.344157551851595], [6.100812028478581, 44.355679355134974], [6.076408468220306, 44.38419622221038], [6.056943834391097, 44.407087995703236], [6.081874008384719, 44.387363486194445], [6.131256499550036, 44.37221335637003], [6.131063463616533, 44.37222003308162], [6.130719320899375, 44.372231977706114], [6.130379085859284, 44.372243976222606], [6.12984280949361, 44.37226203052319], [6.129276438608467, 44.372282604081114], [6.128727761750928, 44.37230112489005], [6.127932106188182, 44.372328922074495], [6.127194988887746, 44.372355501049725], [6.12645013664466, 44.3723813220932], [6.1255705246796675, 44.372411935655585], [6.124677086356692, 44.37244325436054], [6.123724032910034, 44.372476048013496], [6.122665541431601, 44.37251302258625], [6.121605284947546, 44.372550702973726], [6.120589960294776, 44.37258657172642], [6.119485087181795, 44.3726244976877], [6.118297242673292, 44.37266638600914], [6.117161154340648, 44.37270661406423], [6.115994161086627, 44.372747263127955], [6.114800140590761, 44.37278929887077], [6.113622685165025, 44.37283033778295], [6.112385378251971, 44.37287322051043], [6.111134024646233, 44.37291746441802], [6.1099548040871525, 44.372959170605476], [6.108724214955065, 44.37300178765813], [6.1075330794769975, 44.3730443360473], [6.106341593791252, 44.373085282996165], [6.105155850917588, 44.37312758960281], [6.104019892255972, 44.3731668180963], [6.1028505532806046, 44.37320802216873], [6.101739875426898, 44.37324715183053], [6.1006482849475345, 44.373285702973725], [6.09962654143126, 44.373322022586265], [6.09862899055703, 44.37335686591407], [6.09766212610234, 44.37339114298873], [6.096724710471624, 44.373424042650555], [6.095884383210715, 44.37345427507315], [6.095072132024679, 44.37348242526522], [6.094233818031086, 44.37351262254267], [6.093578824867117, 44.37353650349768], [6.093052530628298, 44.37355514518401], [6.092383346310459, 44.373578386134746], [6.091880283739442, 44.373597368932955], [6.091473322604311, 44.37361165944465], [6.091187514108118, 44.373622561081746], [6.0907383480491, 44.37363866499514], [6.106172032032468, 44.37426986299017], [6.119368742543011, 44.378741877811365], [6.087548486003065, 44.35125335737188], [6.0564531772613135, 44.334164550158896], [6.021456187946308, 44.32237323021705], [6.02561516916694, 44.32537411215347], [6.035440127639657, 44.33504256056559], [6.016194569721796, 44.30097381468711], [5.992569807202043, 44.27723186655031], [5.982582536734464, 44.269746115045514], [5.9913801661133395, 44.28095357653736], [6.0037052706847005, 44.3206430899354], [5.983465803272179, 44.380368429624376], [5.977219356842424, 44.390166733165145], [6.016669069102169, 44.329900907810114], [6.015099122549868, 44.274921845531594], [5.9611227807663525, 44.180141751274995], [5.832230632902308, 44.201674210010054], [5.881605625041216, 44.211859450786065], [5.9229339797859115, 44.270920269243355], [5.9046186206358104, 44.32755074646586], [5.911505160569568, 44.32958471597008], [5.966897666854154, 44.27927508747236], [5.999543632597032, 44.18429588574696], [5.920212268183855, 44.09612502175968], [5.849837746344166, 44.094290135056994], [5.801570661877723, 44.11027667322182], [5.807839688409398, 44.110740072032556], [5.713613044355081, 44.08894655526631], [5.58684151495792, 44.15156104498009], [5.589197855370372, 44.23207672439299], [5.585083652974578, 44.23553393638775], [5.5902326500156585, 44.22461672158857], [5.612667871217507, 44.19122627675122], [5.630272914212489, 44.17968333713767], [5.611646351689832, 44.18594337829039], [5.584425477009556, 44.20335948361904], [5.5708064221224, 44.21663280179404], [5.562920660741947, 44.22241928259171], [5.5324828479206625, 44.26117991537631], [5.526218280493078, 44.33683969346751], [5.540519909917693, 44.36531057273518], [5.532196245029188, 44.30887012526241], [5.571584374083654, 44.24645204702486], [5.60384433206144, 44.23291523150652], [5.610189189574668, 44.23217931202672], [5.555452647821623, 44.23039979729975], [5.524384333997212, 44.23700900065933], [5.505539033107347, 44.2451521193282], [5.509429136675962, 44.24400079262799], [5.490746509325073, 44.246268004205135], [5.471589020532046, 44.25086381637257], [5.452649383951334, 44.25842645787373], [5.393926481839656, 44.29458715792584], [5.366595279379562, 44.3290075213822], [5.356155604536139, 44.35874139304284], [5.356335518182896, 44.362010436502004], [5.364981912942199, 44.34267376332177], [5.374945919554865, 44.33006594648031], [5.354058488473234, 44.3483517534286], [5.327543301320558, 44.40659699209723], [5.354206223066713, 44.49212525645766], [5.4220486383542825, 44.52731676395227], [5.458890697610938, 44.52828295979778], [5.48861597227173, 44.52229534315643], [5.481054065971215, 44.5225944549301], [5.457550070625892, 44.51732918557891], [5.427242758332146, 44.49799111162268], [5.404434074194117, 44.4590203640803], [5.405396559020804, 44.40670455845165], [5.428283242042198, 44.36987972572845], [5.446204211824127, 44.35671099873989], [5.441410040547777, 44.35825369977876], [5.416015903875776, 44.37377510365399], [5.3905474317325694, 44.400272899208865], [5.375307626973168, 44.42894822605981], [5.368669172158367, 44.45212055607442], [5.365935143517098, 44.4860868392307], [5.382860790498296, 44.538352371796044], [5.430891790597942, 44.5803232679579], [5.478103201375475, 44.59069461899768], [5.499603176130988, 44.59062491327531], [5.5429854639005285, 44.58604384282277], [5.6047242360709655, 44.56992055944408], [5.589960693258762, 44.570482891352185], [5.573041267545518, 44.56720192811645], [5.596559182703109, 44.5796511126777], [5.567035672856895, 44.54099839412898], [5.564726299722241, 44.47826198576552], [5.582143718589111, 44.450317019321275], [5.592799947961709, 44.44138411423109], [5.562940155334006, 44.45741591100257], [5.538487786242407, 44.47937305827041], [5.5215331857121805, 44.503722210630045], [5.509107222298231, 44.541751771481444], [5.5094860631681435, 44.57594141501528], [5.5186941642582, 44.607762661318695], [5.537274101008595, 44.63637362070382], [5.563969952415269, 44.66497629826102], [5.557952068374936, 44.65305945999392], [5.554030673685626, 44.63851991858085], [5.558253540457671, 44.665142467583266], [5.599720900904998, 44.72272909186235], [5.657621499654687, 44.74424983798291], [5.685434102181509, 44.74578725578499], [5.705486642329142, 44.74428050931939], [5.717657603839026, 44.742128668295194], [5.720482603209593, 44.7414358260217], [5.715840475456759, 44.741249904292594], [5.718635095285324, 44.74198187092885], [5.742298894277804, 44.749462080247206], [5.765421440478623, 44.751009407977286], [5.749660145889338, 44.74464542413538], [5.753185922248264, 44.747197484131156], [5.751407287121079, 44.74567386719997], [5.738660326227101, 44.72512294509718], [5.730881839345723, 44.68316637134445], [5.750926326697924, 44.63390585922459], [5.749391170129477, 44.629982398354876], [5.712193181948638, 44.71762186957023], [5.764592275129315, 44.811868526794775], [5.7981424119593425, 44.837991566346645], [5.840301341743045, 44.85161391857687], [5.864784663048595, 44.85392966034997], [5.892938526480072, 44.85346118790698], [5.901173842524071, 44.85452415477035], [5.920107766340847, 44.85777653164875], [5.903512476025334, 44.84810925220897], [5.881394755761897, 44.81807359377292], [5.874936481605063, 44.7690354617059], [5.875141948514543, 44.76194040512703], [5.870438587539729, 44.821024099919974], [5.904469184522983, 44.88079597523284], [5.949717423692422, 44.91042434327209], [5.9767199406893985, 44.92282179823612], [6.0006486433564845, 44.93020485018338], [6.033292533012229, 44.93365786123412], [6.061241502977677, 44.930123031012045], [6.070473975709164, 44.92688119018101], [6.056674782444133, 44.92720640398198], [6.045113917833379, 44.92453745351362], [6.09337440659996, 44.94837834031916], [6.125558978832314, 44.956755194568245], [6.16058753145153, 44.95670947724567], [6.18252556481061, 44.95179427773342], [6.172132011955932, 44.95222258912253], [6.198389021770165, 44.95670444635365], [6.220965256300066, 44.956855125145246], [6.235728543229498, 44.954947517655576], [6.224998110459537, 44.95388923687901], [6.252924106292142, 44.96326571296292], [6.277605262791726, 44.96748016775592], [6.302852767155284, 44.96778943939767], [6.3246226046358744, 44.96478415011764], [6.358093234336942, 44.956384983696104], [6.348678667912329, 44.95700562012147], [6.3155977681608055, 44.94900066198525], [6.283906665603434, 44.925151698234686], [6.270980828083834, 44.90204530559577], [6.268283378315473, 44.89492753331181], [6.270118252130298, 44.90309046541364], [6.274186028037112, 44.8843792871958], [6.2833847192001615, 44.86817672717644], [6.287009554353745, 44.862936215659026], [6.276672177908784, 44.871055800832266], [6.253852832836116, 44.89571534643311], [6.233732474081613, 44.9398816608637], [6.2318635607319415, 44.97423827377746], [6.236633694827667, 44.95568404058642], [6.255030417821264, 44.92834871884843], [6.2801122444388255, 44.911936108655915], [6.303894217154312, 44.90743830340526], [6.262692089095432, 44.90055454670715], [6.23283696138207, 44.90238730471735], [6.210477002544065, 44.90681482327388], [6.159635329059245, 44.93285074957928], [6.124459802432353, 44.996535591666465], [6.123418907290385, 45.0481575015651], [6.134542204132639, 45.09093792518738], [6.13796799875244, 45.11056953648813], [6.146910358252432, 45.13746545004969], [6.164018727912389, 45.167707603408715], [6.25877327901649, 45.22449926015464], [6.320695607038431, 45.207827694643235], [6.310834434482088, 45.211089109758454], [6.3124889820919385, 45.21084929560664], [6.338262045861031, 45.21148322336578], [6.383080204277581, 45.204405955138306], [6.422929142866801, 45.187853578678606], [6.460750704912072, 45.152711720181955], [6.474600638029078, 45.123837388090394], [6.464293859011895, 45.13948349164325], [6.439122999298669, 45.159537847394404], [6.469929014675858, 45.15302650428378], [6.450991066959405, 45.15224263035404], [6.43041854167505, 45.144261514290164], [6.41956346354244, 45.13586239765453], [6.411905355911622, 45.124651902989015], [6.40905040963847, 45.11812567900969], [6.41732213898938, 45.14095414003576], [6.453792022493063, 45.182772761034094], [6.504418142813693, 45.2027850928873], [6.543004911773238, 45.20279474776029], [6.53273734313156, 45.20081038149805], [6.573465202826277, 45.218029629529006], [6.620286374802074, 45.22313857413567], [6.72470355211891, 45.153783611442236], [6.675016263849082, 45.03507028412095], [6.702676729566349, 45.10024821017668], [6.683745318957786, 45.1617274869772], [6.7180138712471855, 45.13249237941846], [6.738054425355461, 45.07124015500194], [6.736716984138524, 45.06680535065762], [6.728096353750868, 45.097090074266504], [6.717368639270316, 45.111036757410794], [6.6923534732163885, 45.1245900489814], [6.724035258449588, 45.12326160053477], [6.802665366057591, 45.074469828242734], [6.829477719501593, 44.99392057764743], [6.822537804870028, 44.96115506761816], [6.810847915049764, 44.983417063754366], [6.823657437597569, 44.976704561425485], [6.875289192820192, 44.95501837899608], [6.867860907417787, 44.95564405386354], [6.911211143143508, 44.96260459193663], [6.949810348650171, 44.96017817858188], [7.02838405210046, 44.935989243651704], [7.070502944445033, 44.90467147288801], [7.091643911086264, 44.8777626375171], [7.106306245477941, 44.8346140136812], [7.104435944279272, 44.797471007464395], [7.104645897937951, 44.80082513006473], [7.089092827661957, 44.755950830140534], [7.077090804601762, 44.74245253292643], [7.090946906233153, 44.75540758413731], [7.098406094121772, 44.79241842278948], [7.103760415930717, 44.80628235288591], [7.110147478399643, 44.778655983113595], [7.10527233447549, 44.78940889915407], [7.119145690163123, 44.771681924477285]]], [[[7.0015146593472615, 43.40733190784316], [7.01249490767912, 43.42419523103202], [6.999836942904771, 43.3883051400158], [6.971581828721584, 43.370019080000866], [6.952603260669254, 43.34657900964522], [6.811622507484359, 43.345683063800344], [6.781236444064363, 43.385370607064964], [6.792905068665656, 43.36781761526076], [6.850212685814163, 43.34017741220566], [6.939107838011786, 43.37769889438643], [6.956059249244009, 43.43151263962773], [6.947242948278412, 43.36675201928474], [6.8453330357439635, 43.31258596452821], [6.8207312119464, 43.31680929824834], [6.828255782317091, 43.31651598798138], [6.75504857474754, 43.31263541571011], [6.723596107276324, 43.331495252825434], [6.765270259708442, 43.323022473246375], [6.794627605059558, 43.33024854232844], [6.82062169810344, 43.36319165934625], [6.826494308466326, 43.34706652633955], [6.810329551084671, 43.32900336981606], [6.791873754043095, 43.28338267062256], [6.703694051418743, 43.24884972698036], [6.72676359565803, 43.26108192052972], [6.754143234532242, 43.28591748034942], [6.740703912743917, 43.26153849817698], [6.711763104922479, 43.23472826740957], [6.673304678161859, 43.208559245899316], [6.668382863149695, 43.213728127847396], [6.679716711714616, 43.31483459313462], [6.612899512153981, 43.36428046578574], [6.670278767873968, 43.37617438163206], [6.748557280432569, 43.35636847685996], [6.797954727638243, 43.2617895830915], [6.750059694653058, 43.17175805621191], [6.74890852104657, 43.18027984966063], [6.761679124741766, 43.2483253066324], [6.752080987788676, 43.273471436864256], [6.77700645347028, 43.17807748476311], [6.705083321745598, 43.100950272106004], [6.66885981975776, 43.085967983008906], [6.653700273853726, 43.082934625164576], [6.618487209848584, 43.0737786274543], [6.549888099697639, 43.08814399065737], [6.506715953151755, 43.13380402345127], [6.5442318516338425, 43.10058033649965], [6.594661429780706, 43.08527389773171], [6.568204211420269, 43.084549681148005], [6.601167921718455, 43.10316153005869], [6.623514614435973, 43.12339374657389], [6.587925487007357, 43.08149011425993], [6.517578508053027, 43.051681036317056], [6.475658017856807, 43.05612144337556], [6.457943888204644, 43.052937824749506], [6.435603677323514, 43.05326915118832], [6.435898114808745, 43.052974963747936], [6.44255297274364, 43.059251483149154], [6.464651754766675, 43.10179430042371], [6.464802182441179, 43.13697372282303], [6.457611476505674, 43.03395071942309], [6.312824818872011, 42.99519267066769], [6.259553984185313, 43.02784071690094], [6.269499649951983, 43.02147543824507], [6.276379174963898, 43.013963541610416], [6.259237990586932, 43.020925173800855], [6.255745882467932, 43.02090090155949], [6.2401953301164035, 43.01867040593098], [6.226167968550515, 43.01436441366497], [6.225043140307496, 43.014261556921795], [6.238278746624299, 43.02684618893184], [6.2505472161110855, 43.04922302784053], [6.233803917370699, 43.10670034515019], [6.175534799498578, 43.142236559197], [6.265721896001507, 43.105039347960755], [6.234187697226751, 42.95182984035558], [6.160877791566493, 42.93395702413685], [6.081324524230391, 42.93260989629088], [5.988519921208768, 43.0340846484971], [6.071049945290896, 43.13552915111491], [6.080681987985042, 43.13741158403755], [6.041679655885996, 43.095420108383124], [6.04490872535496, 43.017381913669624], [6.084505706247648, 42.987531905828256], [6.100833193721933, 42.98329985470974], [6.049493457518318, 42.97833160362899], [5.974658963177987, 42.99299184076393], [5.958441920772197, 43.01753000075419], [5.985169868139474, 43.00256254016058], [5.937316467772409, 43.0044705329675], [5.8408713774565655, 43.077402820525876], [5.840569839903747, 43.147574588376976], [5.8438819471390016, 43.16220176540368], [5.854434408490563, 43.08383249145821], [5.932941045815023, 43.034702740769134], [5.935500060816146, 43.03499605716344], [5.9793469857625725, 43.123834801202925], [5.956206113684781, 43.195457645069084], [5.971994387497441, 43.172146744895045], [5.9582709929280995, 43.18266846066729], [6.049585526319609, 43.098832129209164], [5.970134639260679, 42.97546798553654], [5.914129885497777, 42.97278938517121], [5.902070685912313, 42.97322713312973], [5.930679203901477, 42.985503566204834], [5.89003626002678, 42.95058277539115], [5.7825138959316185, 42.96034713630389], [5.727656257268924, 42.991937251488984], [5.683835125031716, 43.098830307619934], [5.753795716632434, 43.1760057974952], [5.718962278063006, 43.11230688298357], [5.751110401506983, 43.02699218090556], [5.771094318069726, 43.016289919599814], [5.717323003600319, 43.039545315705254], [5.689699516432047, 43.082182909431225], [5.724565803964231, 43.04512877860395], [5.756598222450359, 43.0320604299475], [5.724881042185748, 43.033372614450066], [5.627529052254221, 43.074275452569985], [5.607122149881389, 43.10959157827642], [5.6272088408712415, 43.09146863450559], [5.643048635916688, 43.08475598128219], [5.574872543965698, 43.203427027463455], [5.586862484066087, 43.25022474542895], [5.61767865181035, 43.30274721130502], [5.665650858053581, 43.338154212946314], [5.69005478645192, 43.34540623007895], [5.661454325620366, 43.28796538489326], [5.680717326617372, 43.22487357992269], [5.696936073410304, 43.21594843526672], [5.630925962024847, 43.23300481981457], [5.589540129459754, 43.306771764224685], [5.58853808309337, 43.34325821545107], [5.600998630353403, 43.3855459002597], [5.610530464995061, 43.39973295288526], [5.601302797093576, 43.36749333236742], [5.604386885045174, 43.33533498380615], [5.589668602429105, 43.435802435620516], [5.691960262449796, 43.50577684875422], [5.745464565016708, 43.50415133310433], [5.6829759065262415, 43.43832036922205], [5.629515835205793, 43.422218183184256], [5.610716873049704, 43.47177294033591], [5.613344852504575, 43.52067846568425], [5.627074409992952, 43.55278000723072], [5.633665138505391, 43.5108227889395], [5.65716725767582, 43.48013494656576], [5.6410038319785585, 43.48714841180546], [5.591177492627506, 43.541972478509976], [5.585941047155993, 43.64221502072202], [5.655057291426023, 43.7287479782763], [5.7384280591358845, 43.746389555731426], [5.716535965835143, 43.66357477837654], [5.7328346100383705, 43.61790922901425], [5.715469526557087, 43.64488166942386], [5.655469447509786, 43.71372419670081], [5.690591829768551, 43.80905200399823], [5.756557107084435, 43.85577113882284], [5.876067988099386, 43.82328377680901], [5.8600910149387015, 43.82253989646186], [5.829702266862939, 43.806657105261415], [5.826083244943828, 43.80601071541017], [5.871815778508223, 43.84091257148997], [5.949032344497634, 43.84755843550007], [5.999762464932898, 43.82508967693691], [6.019113682233467, 43.8046304385824], [6.027475059851226, 43.802095748022566], [6.061171796381228, 43.77587871805427], [6.066562763314118, 43.75839456342123], [6.017168922211241, 43.770973599697676], [5.970751549615417, 43.75087430346637], [5.9780520848434975, 43.76628742012142], [6.026367604556468, 43.803831507413484], [6.094728350087337, 43.82634798449849], [6.167744707924176, 43.88059531686449], [6.247431923263833, 43.90099366984664], [6.3133536206032685, 43.88008000861256], [6.375855964290866, 43.835440228310794], [6.367440414318969, 43.83557731066064], [6.337301261389155, 43.82839770477799], [6.3165769299809895, 43.81259292933647], [6.330997056607263, 43.83993997094013], [6.385738700587587, 43.884774324363796], [6.4405097495378065, 43.89618597948587], [6.47603226475098, 43.89341973627836], [6.472640708313455, 43.89289901825256], [6.500455584768611, 43.90122180366578], [6.540540485595534, 43.90093810128036], [6.571433227595651, 43.89135364414643], [6.5823681000576135, 43.88499814244632], [6.556076749065909, 43.89081592642967], [6.5449836760282665, 43.891021047816544], [6.5709345850634735, 43.90130002207296], [6.6481001500654155, 43.901552398280465], [6.715928181901234, 43.84951193344622], [6.724856224883114, 43.82976170222372], [6.709022980468606, 43.842606680894015], [6.728033630310137, 43.839008286935425], [6.788221908215254, 43.830330868397674], [6.838228892797657, 43.789742649790455], [6.866886995109441, 43.7291406951838], [6.872191050141002, 43.689613131658405], [6.86804600469773, 43.67407549894543], [6.855391726651122, 43.71249518558799], [6.837971380053503, 43.73295121375663], [6.884214109105953, 43.70107513462453], [6.872403062527198, 43.70444519836666], [6.857997937809566, 43.70587871726162], [6.87603072632622, 43.70930890833146], [6.938017219159401, 43.701868428396196], [7.001656554868484, 43.642616844996525], [7.012292853145343, 43.567572439658385], [6.993047704197744, 43.51739332337035], [6.975333224312142, 43.495169833113486], [6.977917016722528, 43.53070377165296], [6.955490531442508, 43.5765967609539], [6.9763779819614, 43.57053672185808], [7.0015146593472615, 43.40733190784316]]], [[[6.157431064500925, 43.08547198746799], [6.256788535083458, 43.12453318685204], [6.340803808421842, 43.06129693644769], [6.335616441158105, 42.9474668048181], [6.262947162353976, 42.900848775497494], [6.244831614344544, 42.89448566235961], [6.20181470100965, 42.88713024652891], [6.159648378315813, 42.89493408164571], [6.091602282637705, 42.93305152925359], [6.0757391625001524, 43.0506976363805], [6.159024881988046, 43.107671809972274], [6.184954468172089, 43.10636526809722], [6.1579323598607445, 43.09600245091172], [6.168984220442638, 43.10349090189363], [6.215940427750772, 43.115420815159155], [6.227248179534996, 43.11476704428798], [6.169558503741563, 43.09255704197746], [6.157431064500925, 43.08547198746799]]], [[[5.643022146755584, 43.08476405453197], [5.636638102284194, 43.087331789592504], [5.667114049571052, 43.09279637355594], [5.699579799692416, 43.11253456751042], [5.646536049216704, 43.066428493693685], [5.569478479473029, 43.06975894422414], [5.533272912437866, 43.07725114692376], [5.489213469731553, 43.10992977310872], [5.4698049897315055, 43.130590604030175], [5.47537185309802, 43.12929883307436], [5.527220292409823, 43.11265472906221], [5.545489011585266, 43.112716372047956], [5.511051599525417, 43.105895649358764], [5.458785163762051, 43.10852448995461], [5.435927802605792, 43.10771922574254], [5.399844529873618, 43.11176068830597], [5.4005015498816915, 43.112475799895435], [5.3626474920425755, 43.108155080982876], [5.260138046637416, 43.1663159874234], [5.25374204626925, 43.25847008065685], [5.263927149492123, 43.287712982563065], [5.274966620212792, 43.305199433881285], [5.271182983803646, 43.25035638506749], [5.2693061106884285, 43.232916041331876], [5.262613441676468, 43.256214129384006], [5.263073022689369, 43.251826630880046], [5.264700381254342, 43.2672297793362], [5.294861849435394, 43.25547437259587], [5.260066475128907, 43.23044332621877], [5.16703133710501, 43.229386010898175], [5.127954631174388, 43.225807667024334], [5.051088904725284, 43.2289627384497], [4.982670729361772, 43.24966780106867], [4.9278878071009595, 43.30697290387453], [4.906690196355625, 43.39654070961413], [4.964743385898198, 43.48826690281103], [5.037775756474013, 43.52017221723027], [5.1351271294656415, 43.52145351591157], [5.137018629022883, 43.52126451414827], [5.134056767296252, 43.52038874386212], [5.135891350474187, 43.52082959931164], [5.128040105951228, 43.49871191603317], [5.175935582099258, 43.41565121941792], [5.22824136987453, 43.39612264670969], [5.17208309273799, 43.382703421076734], [5.099714750302531, 43.394251907681955], [5.0385934922342095, 43.443742045773575], [5.014593873044827, 43.49467689745353], [5.019981532644157, 43.4861506869754], [5.05657037501914, 43.4459402884783], [5.0681152924336885, 43.43958398149], [5.0741236817041315, 43.438939784106076], [5.022258502902743, 43.443231725512085], [4.982960155370092, 43.46686350960348], [4.978108997197187, 43.47372128827134], [5.045081053014867, 43.45985795477044], [5.102942381566683, 43.49304492847262], [5.108187607164846, 43.50030225719627], [5.106982192940775, 43.49704128278774], [5.109255518660809, 43.52019457073688], [5.0997369977812586, 43.551277205410734], [5.076960905933454, 43.5750961033879], [5.080762940367067, 43.57491257894921], [5.1246011646725895, 43.54364328908094], [5.162262419302089, 43.4507997572684], [5.122507244772931, 43.359242483212945], [5.05521447037149, 43.32086668018719], [4.994755151803127, 43.314767875691004], [4.955830836977691, 43.320845317621064], [4.924698438132665, 43.34020241314811], [4.944808146223259, 43.34070891476661], [4.9265713397971425, 43.33131107346752], [4.90368879353684, 43.3279726089715], [4.930327751354577, 43.34574739665351], [4.9497745363718835, 43.41138719822397], [4.9367087626709365, 43.45382459179453], [4.958830442097063, 43.41218383319427], [4.928520708213202, 43.44436083261276], [4.995735899059231, 43.39899712080755], [4.924906538228175, 43.262901191256326], [4.812664789781515, 43.251550118234476], [4.761489349388039, 43.31399016525388], [4.772294328346872, 43.30272075158463], [4.744177665887738, 43.311160371673246], [4.684603607329854, 43.35423937852832], [4.645369035328302, 43.42469951616328], [4.645099127821234, 43.502214396889066], [4.646090821200551, 43.49771540993035], [4.646884851292892, 43.49447277529802], [4.646101870306555, 43.49644273917357], [4.654412723837537, 43.489712288230045], [4.749355507764048, 43.49541692561129], [4.788318885493822, 43.60776104757666], [4.809406114290148, 43.59102764624434], [4.826812595284418, 43.54758781687394], [4.826894045392467, 43.47548278927259], [4.821841765979006, 43.4834520311918], [4.823286540527397, 43.486356515352085], [4.855280606525718, 43.46942410359067], [4.9160408067016705, 43.40386972857529], [4.887668682524575, 43.27247345341938], [4.792274183633364, 43.245227275670246], [4.656657594926401, 43.24796772778402], [4.564096104562018, 43.263959294977774], [4.484002260282223, 43.314270655619204], [4.474376591989974, 43.429040406847825], [4.499779571545155, 43.45539854987104], [4.489913693418457, 43.39764410595934], [4.511552805603808, 43.3567830151731], [4.516961122680835, 43.35086915819611], [4.502490452760136, 43.356354067300465], [4.41031360645558, 43.34774500168362], [4.107601663034676, 43.4415526038339], [4.167551165057098, 43.548571716423595], [4.151866502319765, 43.53021927114382], [4.151008406389052, 43.53101699816799], [4.159088998619741, 43.54847318662751], [4.173218949010427, 43.56806326760288], [4.202765197392025, 43.59035842981552], [4.219786938335211, 43.59694529674383], [4.237952704072712, 43.602048338302495], [4.24324467159673, 43.601423130012066], [4.218782220998718, 43.5918977586692], [4.2207706335040225, 43.59447624200984], [4.2535696853150124, 43.6121608408089], [4.287630694193413, 43.618445759248694], [4.284746850328902, 43.617664442000866], [4.288963011903559, 43.61978473698971], [4.333858973014452, 43.64735260133741], [4.355838888932298, 43.655550847323575], [4.370817467318063, 43.657761839389906], [4.3451504365946905, 43.64455013429107], [4.3166002963816625, 43.60917830508548], [4.310577063953004, 43.59492844412244], [4.322440179775542, 43.627204869849386], [4.356257527204043, 43.664235972462095], [4.392312136220032, 43.680795441424486], [4.414963290521485, 43.68535480149705], [4.4348361739506466, 43.68628100358226], [4.409550752060977, 43.67948367487146], [4.382076503461918, 43.661432871711305], [4.3715958546164035, 43.64795350338113], [4.365023392540211, 43.62882116193305], [4.372537750901193, 43.5724089484075], [4.427551759866915, 43.52316794048217], [4.450764980840759, 43.517236854326065], [4.433495981675748, 43.51806197349295], [4.414247271783551, 43.52161866526815], [4.390856018542291, 43.53012619361709], [4.362939173203246, 43.54939190997802], [4.335542008153502, 43.59078123995556], [4.331787809538267, 43.6494615706637], [4.346166039170585, 43.68397065021887], [4.355280003992017, 43.69711984889538], [4.353028987736855, 43.69299624102489], [4.358291834834152, 43.70522767112802], [4.372750958299453, 43.728029970504274], [4.415083891171702, 43.771544735728796], [4.461813120404234, 43.79888493593106], [4.506541909444027, 43.81092690742224], [4.522248318307458, 43.81323903898965], [4.542208632241135, 43.813524682129554], [4.559788890739603, 43.8112425867026], [4.602917080506305, 43.80107217748107], [4.6239230628072, 43.79261018065023], [4.627407746063243, 43.79032970248033], [4.617396204597767, 43.79378968183122], [4.608864347435335, 43.79526834514755], [4.598545591907032, 43.7956875240629], [4.570167337644645, 43.78980278758717], [4.5391462209005615, 43.77048683487896], [4.524863015612296, 43.75181776015666], [4.520335951298375, 43.74087270056536], [4.518093157580428, 43.723255622707995], [4.520869467442183, 43.70133199581381], [4.5212764353951815, 43.6987654366566], [4.5161617896672785, 43.72144520553427], [4.516775307025855, 43.75308359234653], [4.526370650433009, 43.78359505807576], [4.545978610331386, 43.81626664370284], [4.551862185110313, 43.82756411797101], [4.550117964655105, 43.82173104159798], [4.549535527523252, 43.81596206731216], [4.549990659322942, 43.80775284505674], [4.5492776458368125, 43.81098702765817], [4.5490284648729356, 43.810883705057584], [4.543167215789572, 43.831772284054885], [4.540017213376232, 43.862698579768626], [4.55297035447014, 43.91815356417085], [4.5889506717250255, 43.95709198039513], [4.614079447353177, 43.972465385871985], [4.644783665282057, 43.98498005226135], [4.6822031211891195, 44.00675917047569], [4.705063780821634, 44.01643380755191], [4.771527062744691, 44.03281764121692], [4.940387730916982, 43.98931871626013], [5.018241686243663, 43.95347675169761], [5.118816800483944, 43.88338881318831], [5.128281823944437, 43.87796069216594], [5.209558989630971, 43.8476474581907], [5.261173093651857, 43.84907510327388], [5.316199877572184, 43.84174341660393], [5.334060411203414, 43.84121795509715], [5.367011117994744, 43.83501771167193], [5.399923101294176, 43.81949068300033], [5.432064153747445, 43.795331060078894], [5.436281510437552, 43.79308569706842], [5.441631957741089, 43.79116115288717], [5.544840785243029, 43.76827622323408], [5.567984372561078, 43.76497311279669], [5.57776700825655, 43.77026866572476], [5.608468240690972, 43.788204591912525], [5.680742180150153, 43.80139884957681], [5.6829414666159614, 43.80290532463136], [5.6921829885709165, 43.81083597331036], [5.735380759697363, 43.83034870236027], [5.832494473442913, 43.807070330576146], [5.85670138996163, 43.774934770985745], [5.909914034164857, 43.71461322162345], [5.843241940864116, 43.57605444426858], [5.759576708573976, 43.5582320217237], [5.775826952844007, 43.579418979277975], [5.772830507372494, 43.62565152149003], [5.752008168021442, 43.653515588194544], [5.771352742324181, 43.64433505343424], [5.816476861494609, 43.5919392110605], [5.824561590007049, 43.52117599276927], [5.808143147495425, 43.475361534315745], [5.808663126950297, 43.50036105966409], [5.797246164794207, 43.53115181681575], [5.874832093473758, 43.38182963077795], [5.7630354349832915, 43.30492466689567], [5.719421737550204, 43.30767115124577], [5.775701397570895, 43.36237356437948], [5.790427114954826, 43.40874501619385], [5.800499202906424, 43.34958266763259], [5.7810755350049385, 43.295261047114735], [5.779489369646597, 43.2953180997403], [5.7872479169066295, 43.32057778454893], [5.787035870540246, 43.338322235775316], [5.751056037975154, 43.39290718018543], [5.743711926589696, 43.410401564733284], [5.815654673382627, 43.37249442007731], [5.860581674379634, 43.26930261510673], [5.800955213548079, 43.17896976992105], [5.758299141946418, 43.16090778705368], [5.76610534818965, 43.16869678869499], [5.773585515933913, 43.178569254571045], [5.769505456034302, 43.15740497253655], [5.643022146755584, 43.08476405453197]]], [[[5.852069836734765, 43.7504431774868], [5.815131011429083, 43.65309002668964], [5.7882485333840386, 43.63287467536863], [5.741141819849847, 43.61073715042319], [5.680393759309028, 43.60158540808748], [5.66684099174345, 43.591199334275245], [5.597039627438923, 43.56709488720332], [5.516955214756971, 43.57022977676591], [5.385496042258911, 43.599200847112826], [5.354064489562448, 43.61076630293158], [5.323785846252556, 43.6271769399211], [5.294710898705825, 43.649401316999665], [5.306132882005256, 43.644508288328076], [5.315661588796587, 43.64206604490285], [5.300298122427816, 43.64237658339607], [5.248098906348142, 43.64950289672611], [5.175699010369029, 43.6505345418093], [5.046038176055562, 43.695653307834064], [5.013009199516056, 43.71366918681169], [4.9187743137563364, 43.77996524830239], [4.871428269083018, 43.80158328373987], [4.674182044947519, 43.91637747960865], [4.717715382310081, 44.01609808506096], [4.721140114154262, 44.01899775429616], [4.740750745324848, 44.03168944019197], [4.752420556983229, 44.03663288639915], [4.744821701751085, 44.03175063182921], [4.741856912436128, 44.029188103861216], [4.73675948227094, 44.02290193255066], [4.729400018664616, 44.010408509147595], [4.724591925325272, 43.996953989238285], [4.722027144634465, 43.97734191750953], [4.720342393490644, 43.98456278756101], [4.720198500771307, 44.00004406165468], [4.724577030986902, 44.028252290938205], [4.765319014451372, 44.08351090763216], [4.816810549796152, 44.10059729735211], [4.83411690687842, 44.10088325031465], [4.857979150303391, 44.097210594921215], [4.858398170111194, 44.097045474483934], [4.8458231334196755, 44.099430452167546], [4.842930736421929, 44.09956410156109], [4.8342496299383075, 44.099311194899684], [4.8216155162871654, 44.097253955285396], [4.805040476952679, 44.091671831783884], [4.790995710290953, 44.084042918857484], [4.77616279761391, 44.072029083551385], [4.761618293011193, 44.053505727302145], [4.753584856543303, 44.035825430762976], [4.750515471527806, 44.02291800923062], [4.750823223366303, 43.99847872240088], [4.760640508654224, 43.96868995786156], [4.773173858247449, 43.95186033865466], [4.758654275937773, 43.962406015976434], [4.714014921423931, 44.00743833564526], [4.729701372801215, 43.99759098407946], [4.744216032221274, 43.99223362927744], [4.750347010757177, 43.99114711415198], [4.753644629366702, 43.99133680777774], [4.766608990649536, 43.99297172619475], [4.774344048435786, 43.99512722607029], [4.755911025162581, 43.98882280798455], [4.699363665412509, 43.99059553953424], [4.647455014106649, 44.026878604567145], [4.627833340065787, 44.0647867921132], [4.618969181440936, 44.12378752162258], [4.621156452630708, 44.14718930326679], [4.626222686718105, 44.16661500994147], [4.628543109112684, 44.17183434290122], [4.624853332811884, 44.15906227259481], [4.624547664255169, 44.157866510167935], [4.624524778652854, 44.1551464856207], [4.625728168474033, 44.16079921833906], [4.63595518502884, 44.138802269230105], [4.645477959384854, 44.12748128287029], [4.654173132034228, 44.12072775894428], [4.641062017894359, 44.126950569557216], [4.610203777335994, 44.154628753022195], [4.589863993123525, 44.200795053521404], [4.58902558351251, 44.23965879637763], [4.58936809411755, 44.231670215527295], [4.596676047594455, 44.196279392610286], [4.6115519204494495, 44.17312852190231], [4.608752619497743, 44.17422063342633], [4.582552849817582, 44.204858971177], [4.559688193218709, 44.262566670444336], [4.583060590084462, 44.39349371053135], [4.681467026591328, 44.429573912456846], [4.722447225368384, 44.4290915998103], [4.764401187662361, 44.42411631619697], [4.788447011681333, 44.4167546158429], [4.807592209081177, 44.40758027918506], [4.836229109256008, 44.389129314410674], [4.857082707400912, 44.36884897403272], [4.872594618037728, 44.347740693095616], [4.894305953763693, 44.30223198878519], [4.879956317397365, 44.31856218506308], [4.8571124839085895, 44.332142727325056], [4.832707366086764, 44.33667062535573], [4.81659970139296, 44.334722819817834], [4.810314852975315, 44.33270636013627], [4.829862113876438, 44.34352645041076], [4.852820882238888, 44.35256950573015], [4.877176136546265, 44.35798769267787], [4.906334301155379, 44.360100000567726], [4.904262222014359, 44.35972662730334], [4.911620993711965, 44.3619089140557], [4.930981220205302, 44.37021378928051], [4.959860140425146, 44.37894843225869], [5.044132386406433, 44.39587671129549], [5.075834722567057, 44.39511438779116], [5.115663929858159, 44.38809629526856], [5.109506333445377, 44.38775541866606], [5.094325857850573, 44.382196207133184], [5.096967886352128, 44.38606994775425], [5.127783918979625, 44.40212220703575], [5.185365049126599, 44.406491233388195], [5.252317877515973, 44.365909446895266], [5.27408534833399, 44.28750160550281], [5.260039918663283, 44.24336794783841], [5.2563954801379325, 44.24093415893763], [5.261520986196485, 44.26347384363526], [5.261709912953041, 44.26524150294186], [5.258388017559922, 44.279050666025825], [5.241155017366679, 44.30768968482304], [5.220883534824938, 44.32397940124335], [5.215979367837137, 44.32598294169764], [5.227173160878641, 44.324292754306455], [5.229085213885825, 44.324769925089264], [5.248270161308171, 44.32758417479844], [5.283861179827039, 44.3261493547013], [5.356576699422308, 44.30714168286499], [5.354457388283172, 44.30733794100367], [5.3685092785703565, 44.30772635344406], [5.4043680977246105, 44.30042077509316], [5.445065784921568, 44.27706846102868], [5.4735734578987865, 44.23990040554662], [5.483993418201741, 44.2147794219968], [5.486364894251405, 44.20539112174467], [5.479081515393191, 44.22061685320394], [5.463153632297322, 44.23968821386013], [5.451309089155371, 44.24737571698347], [5.468430684879127, 44.24178768557355], [5.5071018398808835, 44.21767496110529], [5.493600309384412, 44.22232953119224], [5.58194285816271, 44.18702188610503], [5.5484395719371875, 44.15230492120936], [5.476351909276994, 44.16232687462052], [5.535504104191981, 44.16519193592662], [5.599808207981763, 44.13925904169783], [5.641084246635395, 44.073967215314724], [5.641873011941792, 44.017432525507594], [5.629420988122101, 43.979479060399356], [5.604426214961934, 43.94157431724539], [5.602616435960608, 43.99004656302788], [5.572146529798931, 44.03034114516389], [5.544753441733838, 44.041885334079694], [5.58301073055975, 44.04060846952501], [5.642011148432143, 44.01199944832322], [5.679204134822009, 43.95831808043986], [5.689288780604991, 43.9003405391356], [5.675578080964062, 43.84631225948317], [5.640167593709134, 43.80090636642274], [5.610538153567808, 43.892917279973815], [5.616524785666429, 43.934750292615995], [5.71618822747311, 43.89664708448831], [5.802148241885291, 43.81952442106853], [5.852069836734765, 43.7504431774868]]], [[[4.9504931569408015, 44.52799166022651], [4.998629141330063, 44.52621867984791], [5.040210247951491, 44.510894068781376], [5.098752797774018, 44.468172912384155], [5.120819003719746, 44.443781917108886], [5.140631216208273, 44.40116260526248], [5.137250179446001, 44.33336003731962], [5.102731388672865, 44.28527285230241], [5.085659320283819, 44.2748314576391], [5.093853327416444, 44.28279587396264], [5.075120194999485, 44.25548506631629], [5.036403209561603, 44.2260998017433], [4.9940326219232665, 44.21343223254163], [4.876908180102647, 44.21442304410798], [4.826697892391383, 44.237253344566795], [4.7920783242995, 44.28079116183341], [4.780783766980864, 44.327525877654494], [4.785888354627596, 44.36944092273587], [4.804101349752313, 44.40935042670608], [4.870411688357512, 44.48967558966321], [4.905374978005113, 44.514017110526204], [4.9504931569408015, 44.52799166022651]]]]}}]}