{"type": "FeatureCollection", "features": [{"type": "Feature", "properties": {"name": "R\u00e9union"}, "geometry": {"type": "MultiPolygon", "coordinates": [[[[55.85860323936004, -21.032777906402934], [55.846487397286815, -21.022549299795322], [55.891023370932366, -21.041634489953868], [55.93627868207135, -21.087304022389837], [55.95443279235475, -21.160742545066594], [55.94159561763867, -21.211846160012396], [55.934703198331405, -21.22432057976486], [55.92289188495493, -21.28063531685698], [55.92187363378517, -21.28902184342881], [55.922489591642545, -21.3061089170347], [55.91713953819498, -21.35181295577355], [55.87820187839217, -21.417511151211013], [55.8067991555721, -21.44865386819217], [55.762066831230975, -21.448688557819384], [55.76849346633725, -21.44688443435007], [55.73644579518588, -21.462873881568047], [55.68755387607001, -21.470683477746764], [55.63955463872573, -21.467464676432506], [55.642517261781954, -21.46353065671383], [55.64521893154133, -21.467688265933464], [55.59891917017045, -21.47033977973384], [55.55999745993523, -21.466795679755908], [55.52183713624228, -21.458070159934756], [55.48695178820583, -21.441581205192378], [55.46590240808655, -21.425444652733805], [55.4470074200686, -21.422792551124914], [55.39161083259417, -21.40203180118882], [55.35528501566987, -21.380052856265078], [55.330625766965134, -21.35442234269821], [55.32499494119857, -21.34555484049205], [55.34661936179674, -21.36351386965686], [55.374111312060535, -21.373993766342295], [55.325722028941996, -21.370359761634255], [55.27573539525359, -21.338804425989327], [55.26041488197628, -21.314907293306447], [55.22758299008925, -21.27935493984305], [55.2023710297526, -21.23585245887339], [55.191565917023055, -21.18682347051161], [55.19113347776888, -21.167244873948782], [55.19685547833408, -21.183844180051413], [55.16431861428885, -21.148108795176316], [55.14321193995189, -21.112786594086355], [55.12701579444912, -21.065988004519802], [55.12641922227964, -21.015715364784192], [55.14033351846584, -20.967971490512085], [55.178778942512984, -20.915838883861078], [55.216183513006776, -20.899658051667238], [55.19826404507776, -20.92034629897861], [55.19241243379672, -20.950818482722138], [55.19024198938473, -20.908742511113942], [55.211047771903246, -20.86973544940599], [55.19542100007888, -20.921804028068337], [55.21186037045682, -20.97504441841859], [55.18894349534476, -20.89447486962394], [55.283044384587434, -20.80721512126098], [55.30654177539309, -20.80946437292068], [55.31289975826951, -20.800219344576913], [55.382326320675816, -20.76655789977493], [55.45929699844928, -20.761483431085676], [55.494393132464985, -20.76563907555765], [55.52542572452628, -20.776174649070075], [55.503012629445976, -20.775783329042643], [55.52430778798236, -20.770089269671494], [55.557824732816385, -20.776277609638207], [55.596747238473505, -20.776471248477627], [55.63632257452342, -20.790517248551172], [55.64232704809967, -20.79518689505761], [55.68549886258436, -20.804315558185007], [55.71906156312055, -20.82184315473225], [55.74094284166349, -20.839038741914607], [55.77616451144928, -20.87637372218006], [55.798338862319724, -20.91982751001693], [55.80261469908418, -20.954318956632434], [55.79348317615501, -20.935493154553825], [55.81756002752038, -20.959161294939264], [55.836414120782244, -20.998129390086337], [55.8404308653212, -21.030177852590917], [55.83929731896858, -21.025395403588504], [55.825284200712346, -21.000578577171876], [55.80041785586116, -20.9788917343256], [55.833134871727125, -20.995857241031363], [55.863234288589496, -21.033786112905755], [55.86588020461158, -21.040307791408623], [55.85860323936004, -21.032777906402934]]]]}}]}