{"type": "FeatureCollection", "features": [{"type": "Feature", "properties": {"name": "saint-barthelemy"}, "geometry": {"type": "MultiPolygon", "coordinates": [[[[-62.7994065088781, 17.781903050351556], [-62.87303837657324, 17.77866500810012], [-62.92974013037405, 17.81302589780815], [-62.95728364684482, 17.850899328638555], [-62.97469335063908, 17.901384911469055], [-62.9223313868103, 18.009931262421414], [-62.83721419476251, 18.014198793436094], [-62.708402920975125, 17.949477825733567], [-62.72819654656373, 17.836132598343365], [-62.753381003266675, 17.809270503465548], [-62.7994065088781, 17.781903050351556]]]]}}]}