{"type": "FeatureCollection", "features": [{"type": "Feature", "properties": {"name": "saint-pierre-et-miquelon"}, "geometry": {"type": "MultiPolygon", "coordinates": [[[[-56.08689278297079, 46.685430873146494], [-56.16017463315829, 46.65349607229085], [-56.33962512263873, 46.740463441192965], [-56.26133277804031, 46.88356543020929], [-56.20859931461467, 46.90446478129331], [-56.13080201002583, 46.908671054535056], [-56.04798643603988, 46.84643335513702], [-56.0452773681643, 46.74449123998851], [-56.08689278297079, 46.685430873146494]]], [[[-56.196965954900584, 46.76718451583165], [-56.364581602351464, 46.69585245260303], [-56.47965335143402, 46.78786834559783], [-56.46856269973481, 46.88841456167166], [-56.42933683686672, 46.94118192041359], [-56.43141285276335, 46.91332319058965], [-56.48691167649178, 47.06865068632421], [-56.45605823556474, 47.151968776374524], [-56.378096419326816, 47.19806657389814], [-56.21310944767761, 47.13798664449943], [-56.17876580623855, 47.02611034874168], [-56.21489494904988, 46.9544813445984], [-56.20609957599909, 46.954629287538374], [-56.15622586265294, 46.87326605250449], [-56.196965954900584, 46.76718451583165]]]]}}]}