{"type": "FeatureCollection", "features": [{"type": "Feature", "properties": {"name": "taaf"}, "geometry": {"type": "MultiPolygon", "coordinates": [[[[69.19872682588112, -49.01053569113717], [69.25954574306014, -49.01558643312746], [69.27886465260009, -49.012722939959446], [69.50559258835497, -48.878725747372194], [69.66336809886526, -48.900169931238544], [69.67857824801504, -49.03111722688549], [69.7407530909381, -49.142822306412405], [69.57845765956381, -49.22881213269392], [69.48588560912994, -49.21082346360438], [69.50087441876198, -49.15304921905029], [69.57390557186665, -49.16076232739666], [69.61732499951793, -49.16603691467314], [69.65782833353691, -49.16532662966723], [69.74755009389906, -49.15086220121686], [69.81768330178878, -49.1285645219948], [69.94766712451728, -49.06669066207091], [70.04608001692961, -49.03720434173909], [70.17600699006624, -49.040352213539805], [70.23177522242493, -48.99178163053624], [70.29840830894123, -48.96100061792382], [70.42184859184712, -48.9623570721006], [70.5379772453147, -48.9995289319025], [70.61650046882156, -49.08528514355239], [70.6553871997938, -49.19742107245751], [70.62509482699275, -49.31250410830589], [70.5437991888934, -49.408566538542914], [70.48295544375756, -49.402097716397066], [70.50955634610655, -49.43018469252133], [70.42348194771301, -49.5267474416391], [70.32717356649191, -49.53462420811036], [70.2506852954183, -49.5130872344025], [70.18530521252568, -49.45669975470517], [70.14756872229195, -49.44128934815857], [69.99605725894023, -49.44488013650076], [69.97605446749925, -49.42821109087899], [69.98355588202988, -49.447333440105176], [69.91052346847978, -49.50745960506481], [69.83102565191516, -49.536889535783274], [69.80297183273363, -49.52045372852459], [69.84914560956965, -49.44372850395966], [69.8505848600672, -49.4190297406386], [69.89942990136318, -49.45398686835386], [70.00536670441934, -49.483451134351355], [70.00142282791282, -49.5104774758232], [70.00472134528324, -49.445123007814594], [70.17398858077901, -49.40970918696435], [70.29487666839657, -49.44246278615808], [70.40529385585175, -49.60256589972722], [70.30343336119893, -49.69026217686496], [70.29798579302829, -49.68636665131745], [70.28497412716203, -49.72817114373554], [70.15038067849292, -49.8009384230544], [70.07322410649466, -49.808576441074074], [69.89088502308338, -49.78533748639955], [69.76159367095414, -49.721356855701686], [69.74914960656261, -49.697250384827086], [69.7643493580126, -49.70018459085543], [69.71562994619252, -49.736374574493134], [69.60704384032681, -49.75080590725514], [69.44557065616722, -49.712102320063], [69.32009528959048, -49.65770761917957], [69.25656572518119, -49.641131732371925], [69.19949676877786, -49.61828530167905], [69.15704587057799, -49.72324124193088], [69.02016932680196, -49.80120963276386], [68.86592669745339, -49.8096363255296], [68.75984940637917, -49.783193472294975], [68.68503755657763, -49.67224528697202], [68.6947561636626, -49.57321838524541], [68.7231418928816, -49.50161159491534], [68.76173682261998, -49.44961010333531], [68.77263754080423, -49.43369710634128], [68.77515620935638, -49.44191812932457], [68.72189027047088, -49.37988419755201], [68.74290955453857, -49.302627712183906], [68.70005336924747, -49.24724780363499], [68.74237146866142, -49.12187462040993], [68.78454417957995, -49.149843907950206], [68.81299711877097, -49.232601882255665], [68.76724075644657, -49.221972072345935], [68.7076632302064, -49.16026254547873], [68.6697622758372, -49.07271518168998], [68.7064269174622, -48.95145967869857], [68.73964877201624, -48.90294538971636], [68.7378882807834, -48.81500836868562], [68.82289058112029, -48.7122703972502], [68.88726664120844, -48.623858279531824], [68.96685031602664, -48.56777785602081], [69.09025985398502, -48.56205839842115], [69.16729734366707, -48.62834746960137], [69.1912632444163, -48.7428284122546], [69.16586612178504, -48.719507768887745], [69.19732066528368, -48.699384082509425], [69.23238378022188, -48.88816039965936], [69.19595297089305, -48.93944184251365], [69.1911494289968, -48.9774051735592], [69.13070329024998, -49.037535328826415], [69.11968170592995, -49.008183077542256], [69.19872682588112, -49.01053569113717]]], [[[69.31637676711593, -49.15294588469519], [69.176487962384, -49.15653933667556], [69.10437447571387, -49.05782250375516], [69.11056325053448, -49.02708760968121], [69.08876044097276, -49.0159896023785], [69.05011005503064, -48.92059569469144], [69.11195508384428, -48.79954738863894], [69.26999295295683, -48.77887335186338], [69.42845903199883, -48.810212598535216], [69.4934476351663, -48.96711678574209], [69.3860711297424, -49.11037278677305], [69.31637676711593, -49.15294588469519]]], [[[51.92109522372347, -46.49007467789823], [51.75241696584698, -46.54829642084868], [51.63698858117036, -46.50842832765331], [51.561856951147206, -46.35106456891765], [51.74854547426704, -46.22707638910556], [51.8524172977379, -46.285786581414136], [51.90022088791335, -46.341712800705224], [51.92109522372347, -46.49007467789823]]]]}}]}