{"type": "FeatureCollection", "features": [{"type": "Feature", "properties": {"name": "wallis-et-futuna"}, "geometry": {"type": "MultiPolygon", "coordinates": [[[[-176.0900560427937, -13.403693987841127], [-176.2097844441253, -13.435357803018238], [-176.29532828419403, -13.30421775113484], [-176.25296135571466, -13.185014044903966], [-176.1263971280938, -13.124030029097094], [-176.02812413578627, -13.271266392657767], [-176.0900560427937, -13.403693987841127]]], [[[-177.9789431470706, -14.391923385100528], [-178.1091057092212, -14.424734487541919], [-178.21655409606223, -14.393404043959109], [-178.2943683440463, -14.253643921009367], [-178.21102752644433, -14.137243090836733], [-178.08837065984588, -14.158325254465623], [-178.0509835834416, -14.20004265425492], [-177.95768905019307, -14.252131207503677], [-177.9789431470706, -14.391923385100528]]]]}}]}